{"name":"building_point","type":"FeatureCollection"
,"crs":{"type":"name","properties":{"name":"EPSG:3857"}}
,"features":[
{"type":"Feature","geometry":{"type":"Point","coordinates":[339992.69,6556738.43]},"properties":{"osm_id":3629246659,"building":"college","building:levels":null,"height":null,"name":"EFFICOM Lille","name:en":null,"craft":null,"office":null,"leisure":null,"shop":null,"addr:housenumber":"146","addr:housename":null,"addr:street":"Rue Nationale","addr:city":"Lille","addr:state":null,"addr:postcode":"59100","addr:place":null,"addr:country":null,"addr:hamlet":null,"addr:suburb":null,"addr:subdistrict":null,"addr:district":null,"addr:province":null,"addr:interpolation":null,"website":"http://www.efficom-lille.fr/","contact:website":null,"phone":"03 20 15 16 77","contact:phone":null,"opening_hours":null,"brand":null,"construction":null,"tower:type":null,"disused":null,"z_order":null}}
,{"type":"Feature","geometry":{"type":"Point","coordinates":[339995.27,6557102.5]},"properties":{"osm_id":1770439397,"building":"yes","building:levels":null,"height":null,"name":"France3 Nord Pas-de-Calais","name:en":null,"craft":null,"office":null,"leisure":null,"shop":null,"addr:housenumber":null,"addr:housename":null,"addr:street":null,"addr:city":null,"addr:state":null,"addr:postcode":null,"addr:place":null,"addr:country":null,"addr:hamlet":null,"addr:suburb":null,"addr:subdistrict":null,"addr:district":null,"addr:province":null,"addr:interpolation":null,"website":null,"contact:website":null,"phone":null,"contact:phone":null,"opening_hours":null,"brand":null,"construction":null,"tower:type":null,"disused":null,"z_order":null}}
,{"type":"Feature","geometry":{"type":"Point","coordinates":[340606.65,6559259.45]},"properties":{"osm_id":1331116401,"building":"residential","building:levels":null,"height":null,"name":"Résidence Porte d'eau","name:en":null,"craft":null,"office":null,"leisure":null,"shop":null,"addr:housenumber":"201","addr:housename":"Résidence Porte d'eau","addr:street":"Rue de la Cense aux Blés","addr:city":null,"addr:state":null,"addr:postcode":null,"addr:place":null,"addr:country":null,"addr:hamlet":null,"addr:suburb":null,"addr:subdistrict":null,"addr:district":null,"addr:province":null,"addr:interpolation":null,"website":null,"contact:website":null,"phone":null,"contact:phone":null,"opening_hours":null,"brand":null,"construction":null,"tower:type":null,"disused":null,"z_order":null}}
,{"type":"Feature","geometry":{"type":"Point","coordinates":[341192.79,6556132.65]},"properties":{"osm_id":2691238095,"building":"public","building:levels":null,"height":null,"name":"CESER","name:en":null,"craft":null,"office":null,"leisure":null,"shop":null,"addr:housenumber":"185","addr:housename":null,"addr:street":null,"addr:city":null,"addr:state":null,"addr:postcode":null,"addr:place":null,"addr:country":null,"addr:hamlet":null,"addr:suburb":null,"addr:subdistrict":null,"addr:district":null,"addr:province":null,"addr:interpolation":null,"website":null,"contact:website":null,"phone":null,"contact:phone":null,"opening_hours":null,"brand":null,"construction":null,"tower:type":null,"disused":null,"z_order":null}}
,{"type":"Feature","geometry":{"type":"Point","coordinates":[341416.37,6557453.5]},"properties":{"osm_id":2875870990,"building":"retail","building:levels":null,"height":null,"name":"Altermove","name:en":null,"craft":null,"office":null,"leisure":null,"shop":"bicycle","addr:housenumber":"1","addr:housename":null,"addr:street":"Rue des Arts","addr:city":"Lille","addr:state":null,"addr:postcode":"59000","addr:place":null,"addr:country":null,"addr:hamlet":null,"addr:suburb":null,"addr:subdistrict":null,"addr:district":null,"addr:province":null,"addr:interpolation":null,"website":"https://www.altermove.com/","contact:website":null,"phone":null,"contact:phone":null,"opening_hours":null,"brand":null,"construction":null,"tower:type":null,"disused":null,"z_order":null}}
]}
