{"name":"shop_point","type":"FeatureCollection"
,"crs":{"type":"name","properties":{"name":"EPSG:3857"}}
,"features":[
{"type":"Feature","geometry":{"type":"Point","coordinates":[341320.76,6557235.49]},"properties":{"osm_id":4252222123,"shop":"bicycle","building":null,"name":"Zeropolis Skateshop","name:en":null,"addr:housenumber":"7","addr:housename":null,"addr:street":"rue des ponts de Comines","addr:city":"Lille","addr:state":null,"addr:postcode":"59000","addr:place":null,"addr:country":null,"addr:hamlet":null,"addr:suburb":null,"addr:subdistrict":null,"addr:district":null,"addr:province":null,"website":"http://www.zeropolis-skateshop.com/","contact:website":null,"phone":null,"contact:phone":null,"opening_hours":null,"brand":null,"z_order":null}}
,{"type":"Feature","geometry":{"type":"Point","coordinates":[341332.11,6557091.66]},"properties":{"osm_id":1538514273,"shop":"optician","building":null,"name":null,"name:en":null,"addr:housenumber":null,"addr:housename":null,"addr:street":null,"addr:city":null,"addr:state":null,"addr:postcode":null,"addr:place":null,"addr:country":null,"addr:hamlet":null,"addr:suburb":null,"addr:subdistrict":null,"addr:district":null,"addr:province":null,"website":null,"contact:website":null,"phone":null,"contact:phone":null,"opening_hours":null,"brand":null,"z_order":null}}
,{"type":"Feature","geometry":{"type":"Point","coordinates":[341341.8,6557167.78]},"properties":{"osm_id":1538514308,"shop":"variety_store","building":null,"name":"Le Petit Souk","name:en":null,"addr:housenumber":null,"addr:housename":null,"addr:street":null,"addr:city":null,"addr:state":null,"addr:postcode":null,"addr:place":null,"addr:country":null,"addr:hamlet":null,"addr:suburb":null,"addr:subdistrict":null,"addr:district":null,"addr:province":null,"website":null,"contact:website":null,"phone":null,"contact:phone":null,"opening_hours":null,"brand":null,"z_order":null}}
,{"type":"Feature","geometry":{"type":"Point","coordinates":[341366.53,6557528.38]},"properties":{"osm_id":3792502651,"shop":"bicycle","building":null,"name":"Cyclable","name:en":null,"addr:housenumber":"11","addr:housename":null,"addr:street":"Rue des Arts","addr:city":"Lille","addr:state":null,"addr:postcode":"59000","addr:place":null,"addr:country":null,"addr:hamlet":null,"addr:suburb":null,"addr:subdistrict":null,"addr:district":null,"addr:province":null,"website":null,"contact:website":null,"phone":"03 20 74 17 58","contact:phone":null,"opening_hours":"http://lille.cyclable.com/","brand":null,"z_order":null}}
,{"type":"Feature","geometry":{"type":"Point","coordinates":[341399.77,6557236.6]},"properties":{"osm_id":583242449,"shop":"florist","building":null,"name":"La Fleur au Palais","name:en":null,"addr:housenumber":"22","addr:housename":null,"addr:street":"Rue des Ponts de Comines","addr:city":"Lille","addr:state":null,"addr:postcode":"59000","addr:place":null,"addr:country":"FR","addr:hamlet":null,"addr:suburb":null,"addr:subdistrict":null,"addr:district":null,"addr:province":null,"website":null,"contact:website":null,"phone":"+33320554714","contact:phone":null,"opening_hours":"Mo-Th 10:00-20:00; Sa 9:00-20:00","brand":null,"z_order":null}}
,{"type":"Feature","geometry":{"type":"Point","coordinates":[341406.93,6557243.6]},"properties":{"osm_id":2935980088,"shop":"toys","building":null,"name":"Bazar du Bizarre","name:en":null,"addr:housenumber":"24","addr:housename":null,"addr:street":"Rue des Ponts de Comines","addr:city":"Lille","addr:state":null,"addr:postcode":"59000","addr:place":null,"addr:country":null,"addr:hamlet":null,"addr:suburb":null,"addr:subdistrict":null,"addr:district":null,"addr:province":null,"website":"http://www.bazardubizarre.com/","contact:website":null,"phone":null,"contact:phone":null,"opening_hours":null,"brand":null,"z_order":null}}
,{"type":"Feature","geometry":{"type":"Point","coordinates":[341416.37,6557453.5]},"properties":{"osm_id":2875870990,"shop":"bicycle","building":"retail","name":"Altermove","name:en":null,"addr:housenumber":"1","addr:housename":null,"addr:street":"Rue des Arts","addr:city":"Lille","addr:state":null,"addr:postcode":"59000","addr:place":null,"addr:country":null,"addr:hamlet":null,"addr:suburb":null,"addr:subdistrict":null,"addr:district":null,"addr:province":null,"website":"https://www.altermove.com/","contact:website":null,"phone":null,"contact:phone":null,"opening_hours":null,"brand":null,"z_order":null}}
,{"type":"Feature","geometry":{"type":"Point","coordinates":[341433.32,6556929.06]},"properties":{"osm_id":2419310177,"shop":"toys","building":null,"name":"Jou√©Club","name:en":null,"addr:housenumber":null,"addr:housename":null,"addr:street":null,"addr:city":null,"addr:state":null,"addr:postcode":null,"addr:place":null,"addr:country":null,"addr:hamlet":null,"addr:suburb":null,"addr:subdistrict":null,"addr:district":null,"addr:province":null,"website":null,"contact:website":null,"phone":null,"contact:phone":null,"opening_hours":null,"brand":null,"z_order":null}}
,{"type":"Feature","geometry":{"type":"Point","coordinates":[341446.29,6557039.53]},"properties":{"osm_id":2036826621,"shop":"clothes","building":null,"name":"La Boite Collector","name:en":null,"addr:housenumber":"51","addr:housename":null,"addr:street":"Rue de Paris","addr:city":null,"addr:state":null,"addr:postcode":"59000","addr:place":null,"addr:country":null,"addr:hamlet":null,"addr:suburb":null,"addr:subdistrict":null,"addr:district":null,"addr:province":null,"website":null,"contact:website":null,"phone":null,"contact:phone":null,"opening_hours":"Mo-Tu 10:30-20:00","brand":null,"z_order":null}}
,{"type":"Feature","geometry":{"type":"Point","coordinates":[341449.43,6557048.01]},"properties":{"osm_id":4405084753,"shop":"weapons","building":null,"name":"Henry Huret","name:en":null,"addr:housenumber":"49","addr:housename":null,"addr:street":"Rue de Paris","addr:city":"Lille","addr:state":null,"addr:postcode":null,"addr:place":null,"addr:country":null,"addr:hamlet":null,"addr:suburb":null,"addr:subdistrict":null,"addr:district":null,"addr:province":null,"website":null,"contact:website":null,"phone":"03 20 06 09 50","contact:phone":null,"opening_hours":null,"brand":null,"z_order":null}}
,{"type":"Feature","geometry":{"type":"Point","coordinates":[341451.53,6556895.77]},"properties":{"osm_id":2419310176,"shop":"supermarket","building":null,"name":"Monoprix","name:en":null,"addr:housenumber":null,"addr:housename":null,"addr:street":null,"addr:city":null,"addr:state":null,"addr:postcode":null,"addr:place":null,"addr:country":null,"addr:hamlet":null,"addr:suburb":null,"addr:subdistrict":null,"addr:district":null,"addr:province":null,"website":null,"contact:website":null,"phone":null,"contact:phone":null,"opening_hours":null,"brand":null,"z_order":null}}
,{"type":"Feature","geometry":{"type":"Point","coordinates":[341457.38,6557288.78]},"properties":{"osm_id":2835263014,"shop":"supermarket","building":null,"name":"Bio c'Bon","name:en":null,"addr:housenumber":"36","addr:housename":null,"addr:street":"Rue Faidherbe","addr:city":"Lille","addr:state":null,"addr:postcode":"59000","addr:place":null,"addr:country":null,"addr:hamlet":null,"addr:suburb":null,"addr:subdistrict":null,"addr:district":null,"addr:province":null,"website":null,"contact:website":null,"phone":null,"contact:phone":null,"opening_hours":null,"brand":null,"z_order":null}}
,{"type":"Feature","geometry":{"type":"Point","coordinates":[341488.46,6556954.56]},"properties":{"osm_id":1389924582,"shop":"clothes","building":null,"name":"Librairie de Voyage","name:en":null,"addr:housenumber":null,"addr:housename":null,"addr:street":null,"addr:city":null,"addr:state":null,"addr:postcode":null,"addr:place":null,"addr:country":null,"addr:hamlet":null,"addr:suburb":null,"addr:subdistrict":null,"addr:district":null,"addr:province":null,"website":null,"contact:website":null,"phone":null,"contact:phone":null,"opening_hours":"Tu-Sa 12:00-19:00","brand":null,"z_order":null}}
,{"type":"Feature","geometry":{"type":"Point","coordinates":[341500.92,6556678.26]},"properties":{"osm_id":1496167118,"shop":"clothes","building":null,"name":"Le bar du coton","name:en":null,"addr:housenumber":null,"addr:housename":null,"addr:street":null,"addr:city":null,"addr:state":null,"addr:postcode":null,"addr:place":null,"addr:country":null,"addr:hamlet":null,"addr:suburb":null,"addr:subdistrict":null,"addr:district":null,"addr:province":null,"website":null,"contact:website":null,"phone":null,"contact:phone":null,"opening_hours":null,"brand":null,"z_order":null}}
,{"type":"Feature","geometry":{"type":"Point","coordinates":[341511.02,6557348.26]},"properties":{"osm_id":3702852522,"shop":"copyshop","building":null,"name":"Copy-Top","name:en":null,"addr:housenumber":null,"addr:housename":null,"addr:street":null,"addr:city":null,"addr:state":null,"addr:postcode":null,"addr:place":null,"addr:country":null,"addr:hamlet":null,"addr:suburb":null,"addr:subdistrict":null,"addr:district":null,"addr:province":null,"website":"http://www.copytop.com/agence-lille-flandres-europe","contact:website":null,"phone":"+33 3 59 81 00 20","contact:phone":null,"opening_hours":"Mo-Fr 08:30-19:00","brand":null,"z_order":null}}
,{"type":"Feature","geometry":{"type":"Point","coordinates":[341531.41,6557099.1]},"properties":{"osm_id":4504620806,"shop":"bakery","building":null,"name":"Boulangerie du Renard","name:en":null,"addr:housenumber":null,"addr:housename":null,"addr:street":null,"addr:city":null,"addr:state":null,"addr:postcode":null,"addr:place":null,"addr:country":null,"addr:hamlet":null,"addr:suburb":null,"addr:subdistrict":null,"addr:district":null,"addr:province":null,"website":null,"contact:website":null,"phone":null,"contact:phone":null,"opening_hours":null,"brand":null,"z_order":null}}
,{"type":"Feature","geometry":{"type":"Point","coordinates":[341564.67,6556882.48]},"properties":{"osm_id":2280554800,"shop":"books","building":null,"name":"Librairie VO","name:en":null,"addr:housenumber":"53","addr:housename":null,"addr:street":"Rue du Molinel","addr:city":"Lille","addr:state":null,"addr:postcode":"59000","addr:place":null,"addr:country":null,"addr:hamlet":null,"addr:suburb":null,"addr:subdistrict":null,"addr:district":null,"addr:province":null,"website":"https://www.librairievo.com/","contact:website":null,"phone":null,"contact:phone":null,"opening_hours":null,"brand":null,"z_order":null}}
,{"type":"Feature","geometry":{"type":"Point","coordinates":[341595.27,6557308.59]},"properties":{"osm_id":4236323816,"shop":"bakery","building":null,"name":"La Mie C√¢line","name:en":null,"addr:housenumber":null,"addr:housename":null,"addr:street":null,"addr:city":null,"addr:state":null,"addr:postcode":null,"addr:place":null,"addr:country":null,"addr:hamlet":null,"addr:suburb":null,"addr:subdistrict":null,"addr:district":null,"addr:province":null,"website":null,"contact:website":null,"phone":null,"contact:phone":null,"opening_hours":null,"brand":null,"z_order":null}}
,{"type":"Feature","geometry":{"type":"Point","coordinates":[341670.25,6557314.46]},"properties":{"osm_id":581035686,"shop":"clothes","building":null,"name":"ACZ Boutique","name:en":null,"addr:housenumber":null,"addr:housename":null,"addr:street":null,"addr:city":null,"addr:state":null,"addr:postcode":null,"addr:place":null,"addr:country":null,"addr:hamlet":null,"addr:suburb":null,"addr:subdistrict":null,"addr:district":null,"addr:province":null,"website":null,"contact:website":null,"phone":null,"contact:phone":null,"opening_hours":null,"brand":null,"z_order":null}}
,{"type":"Feature","geometry":{"type":"Point","coordinates":[341732.04,6557841.55]},"properties":{"osm_id":4392188480,"shop":"convenience;gas","building":null,"name":null,"name:en":null,"addr:housenumber":null,"addr:housename":null,"addr:street":null,"addr:city":null,"addr:state":null,"addr:postcode":null,"addr:place":null,"addr:country":null,"addr:hamlet":null,"addr:suburb":null,"addr:subdistrict":null,"addr:district":null,"addr:province":null,"website":null,"contact:website":null,"phone":null,"contact:phone":null,"opening_hours":"24/7","brand":null,"z_order":null}}
,{"type":"Feature","geometry":{"type":"Point","coordinates":[341737.95,6556538.1]},"properties":{"osm_id":978036765,"shop":"bakery","building":null,"name":"Au Kennedy","name:en":null,"addr:housenumber":null,"addr:housename":null,"addr:street":null,"addr:city":null,"addr:state":null,"addr:postcode":null,"addr:place":null,"addr:country":null,"addr:hamlet":null,"addr:suburb":null,"addr:subdistrict":null,"addr:district":null,"addr:province":null,"website":null,"contact:website":null,"phone":null,"contact:phone":null,"opening_hours":null,"brand":null,"z_order":null}}
,{"type":"Feature","geometry":{"type":"Point","coordinates":[341741.25,6557228.28]},"properties":{"osm_id":4236323815,"shop":"sports","building":null,"name":"Decathelon Mobility","name:en":null,"addr:housenumber":null,"addr:housename":null,"addr:street":null,"addr:city":null,"addr:state":null,"addr:postcode":null,"addr:place":null,"addr:country":null,"addr:hamlet":null,"addr:suburb":null,"addr:subdistrict":null,"addr:district":null,"addr:province":null,"website":null,"contact:website":null,"phone":null,"contact:phone":null,"opening_hours":null,"brand":null,"z_order":null}}
,{"type":"Feature","geometry":{"type":"Point","coordinates":[341743.25,6557908.91]},"properties":{"osm_id":1265105005,"shop":"books","building":null,"name":"Librairie Letellier","name:en":null,"addr:housenumber":"91","addr:housename":null,"addr:street":"Boulevard carnot","addr:city":null,"addr:state":null,"addr:postcode":null,"addr:place":null,"addr:country":null,"addr:hamlet":null,"addr:suburb":null,"addr:subdistrict":null,"addr:district":null,"addr:province":null,"website":null,"contact:website":null,"phone":null,"contact:phone":null,"opening_hours":"Tu-Fr 14:00-19:00; Sa 10:00-12:00,14:00-19:00","brand":null,"z_order":null}}
,{"type":"Feature","geometry":{"type":"Point","coordinates":[341785.08,6556608.25]},"properties":{"osm_id":978036763,"shop":"dry_cleaning","building":null,"name":null,"name:en":null,"addr:housenumber":null,"addr:housename":null,"addr:street":null,"addr:city":null,"addr:state":null,"addr:postcode":null,"addr:place":null,"addr:country":null,"addr:hamlet":null,"addr:suburb":null,"addr:subdistrict":null,"addr:district":null,"addr:province":null,"website":null,"contact:website":null,"phone":null,"contact:phone":null,"opening_hours":null,"brand":null,"z_order":null}}
,{"type":"Feature","geometry":{"type":"Point","coordinates":[341932.09,6557534.81]},"properties":{"osm_id":4284176695,"shop":"furniture","building":null,"name":"Euralille","name:en":null,"addr:housenumber":null,"addr:housename":null,"addr:street":null,"addr:city":null,"addr:state":null,"addr:postcode":null,"addr:place":null,"addr:country":null,"addr:hamlet":null,"addr:suburb":null,"addr:subdistrict":null,"addr:district":null,"addr:province":null,"website":null,"contact:website":null,"phone":null,"contact:phone":null,"opening_hours":null,"brand":null,"z_order":null}}
,{"type":"Feature","geometry":{"type":"Point","coordinates":[341961.99,6557312.47]},"properties":{"osm_id":1525111755,"shop":"bicycle","building":null,"name":"L'Atelier V√©lo","name:en":null,"addr:housenumber":null,"addr:housename":null,"addr:street":null,"addr:city":null,"addr:state":null,"addr:postcode":null,"addr:place":null,"addr:country":null,"addr:hamlet":null,"addr:suburb":null,"addr:subdistrict":null,"addr:district":null,"addr:province":null,"website":"http://www.lsi-asso.fr/atelier-velo/","contact:website":null,"phone":null,"contact:phone":null,"opening_hours":null,"brand":null,"z_order":null}}
,{"type":"Feature","geometry":{"type":"Point","coordinates":[342003.22,6556932.54]},"properties":{"osm_id":4391952289,"shop":"bakery","building":null,"name":"La p'tite boulangerie","name:en":null,"addr:housenumber":"22","addr:housename":null,"addr:street":"Rue de Tournai","addr:city":null,"addr:state":null,"addr:postcode":null,"addr:place":null,"addr:country":null,"addr:hamlet":null,"addr:suburb":null,"addr:subdistrict":null,"addr:district":null,"addr:province":null,"website":null,"contact:website":null,"phone":"+33320745023","contact:phone":null,"opening_hours":null,"brand":null,"z_order":null}}
,{"type":"Feature","geometry":{"type":"Point","coordinates":[342015.45,6557427.07]},"properties":{"osm_id":3133445737,"shop":"clothes","building":null,"name":"Bershka","name:en":null,"addr:housenumber":null,"addr:housename":null,"addr:street":null,"addr:city":null,"addr:state":null,"addr:postcode":null,"addr:place":null,"addr:country":null,"addr:hamlet":null,"addr:suburb":null,"addr:subdistrict":null,"addr:district":null,"addr:province":null,"website":null,"contact:website":null,"phone":null,"contact:phone":null,"opening_hours":null,"brand":null,"z_order":null}}
,{"type":"Feature","geometry":{"type":"Point","coordinates":[342173.7,6557501.4]},"properties":{"osm_id":4466154171,"shop":"clothes","building":null,"name":"Primark","name:en":null,"addr:housenumber":null,"addr:housename":null,"addr:street":null,"addr:city":"Lille","addr:state":null,"addr:postcode":"59777","addr:place":null,"addr:country":null,"addr:hamlet":null,"addr:suburb":null,"addr:subdistrict":null,"addr:district":null,"addr:province":null,"website":null,"contact:website":null,"phone":null,"contact:phone":null,"opening_hours":null,"brand":null,"z_order":null}}
,{"type":"Feature","geometry":{"type":"Point","coordinates":[342218.37,6557420.43]},"properties":{"osm_id":4244291790,"shop":"sports","building":null,"name":"GO Sport","name:en":null,"addr:housenumber":null,"addr:housename":null,"addr:street":"Avenue willy brandt","addr:city":"Lille","addr:state":null,"addr:postcode":"59777","addr:place":null,"addr:country":"FR","addr:hamlet":null,"addr:suburb":null,"addr:subdistrict":null,"addr:district":null,"addr:province":null,"website":"www.go-sport.com","contact:website":null,"phone":"+33 03 28 04 09 20","contact:phone":"+33 3 28 04 09 20","opening_hours":"Mo-Th 10:00-20:00; Fr-Sa 10:00-20:30","brand":null,"z_order":null}}
,{"type":"Feature","geometry":{"type":"Point","coordinates":[342272.16,6557427.74]},"properties":{"osm_id":3554334493,"shop":"beauty","building":null,"name":"Yves Rocher","name:en":null,"addr:housenumber":"1","addr:housename":null,"addr:street":"Avenue Willy Brandt","addr:city":"Lille","addr:state":null,"addr:postcode":"59000","addr:place":null,"addr:country":"FR","addr:hamlet":null,"addr:suburb":null,"addr:subdistrict":null,"addr:district":null,"addr:province":null,"website":"www.yves-rocher.fr","contact:website":null,"phone":"+33 03 20 74 83 82","contact:phone":"+33 3 20 74 83 82","opening_hours":"Mo-Sa 10:00-20:00","brand":null,"z_order":null}}
,{"type":"Feature","geometry":{"type":"Point","coordinates":[342368.67,6557430.95]},"properties":{"osm_id":1443462548,"shop":"supermarket","building":null,"name":"Carrefour","name:en":null,"addr:housenumber":null,"addr:housename":null,"addr:street":null,"addr:city":"Lille","addr:state":null,"addr:postcode":"59777","addr:place":null,"addr:country":null,"addr:hamlet":null,"addr:suburb":null,"addr:subdistrict":null,"addr:district":null,"addr:province":null,"website":"www.carrefour.fr","contact:website":null,"phone":"+33 03 28 52 99 79","contact:phone":null,"opening_hours":null,"brand":null,"z_order":null}}
,{"type":"Feature","geometry":{"type":"Point","coordinates":[340081.63,6556848.33]},"properties":{"osm_id":4151289094,"shop":"confectionery","building":null,"name":"Paul","name:en":null,"addr:housenumber":"6","addr:housename":null,"addr:street":"Place de Strasbourg","addr:city":"Lille","addr:state":null,"addr:postcode":"59000","addr:place":null,"addr:country":null,"addr:hamlet":null,"addr:suburb":null,"addr:subdistrict":null,"addr:district":null,"addr:province":null,"website":"Paul.fr","contact:website":null,"phone":null,"contact:phone":null,"opening_hours":"Mo-Su 07:00-19:30","brand":null,"z_order":null}}
,{"type":"Feature","geometry":{"type":"Point","coordinates":[340147.47,6556547.16]},"properties":{"osm_id":4421868749,"shop":"sonorisation","building":null,"name":"SR3 Sonorisation","name:en":null,"addr:housenumber":"34-36","addr:housename":null,"addr:street":"Rue de Puebla","addr:city":"Lille","addr:state":null,"addr:postcode":"59000","addr:place":null,"addr:country":null,"addr:hamlet":null,"addr:suburb":null,"addr:subdistrict":null,"addr:district":null,"addr:province":null,"website":null,"contact:website":null,"phone":null,"contact:phone":null,"opening_hours":"lundi 14:00‚Äì18:00 mardi 09:30‚Äì12:00 14:00‚Äì19:00 mercredi 09:30‚Äì12:00 14:00‚Äì19:00 jeudi 09:30‚Äì12:00 14:00‚Äì19:00 vendredi 09:30‚Äì19:00 samedi 09:30‚Äì13:00","brand":null,"z_order":null}}
,{"type":"Feature","geometry":{"type":"Point","coordinates":[340254.19,6558224.45]},"properties":{"osm_id":4482511891,"shop":"bakery","building":null,"name":"Le Concert Gourmand 2","name:en":null,"addr:housenumber":"42","addr:housename":null,"addr:street":"Rue N√©grier","addr:city":"Lille","addr:state":null,"addr:postcode":"59000","addr:place":null,"addr:country":null,"addr:hamlet":null,"addr:suburb":null,"addr:subdistrict":null,"addr:district":null,"addr:province":null,"website":null,"contact:website":null,"phone":"03 28 52 34 06","contact:phone":null,"opening_hours":null,"brand":null,"z_order":null}}
,{"type":"Feature","geometry":{"type":"Point","coordinates":[340311.1,6556953.97]},"properties":{"osm_id":3702852521,"shop":"copyshop","building":null,"name":"Copy-Top","name:en":null,"addr:housenumber":null,"addr:housename":null,"addr:street":"Rue Nationale","addr:city":"Lille","addr:state":null,"addr:postcode":null,"addr:place":null,"addr:country":null,"addr:hamlet":null,"addr:suburb":null,"addr:subdistrict":null,"addr:district":null,"addr:province":null,"website":"http://www.copytop.com/agence-lille-nationale-liberte","contact:website":null,"phone":"+33 3 59 81 00 19","contact:phone":null,"opening_hours":"Mo-Fr 08:30-19:00","brand":null,"z_order":null}}
,{"type":"Feature","geometry":{"type":"Point","coordinates":[340449.35,6557673.75]},"properties":{"osm_id":3772617555,"shop":"greengrocer","building":null,"name":"L'Estaminette","name:en":null,"addr:housenumber":null,"addr:housename":null,"addr:street":null,"addr:city":null,"addr:state":null,"addr:postcode":null,"addr:place":null,"addr:country":null,"addr:hamlet":null,"addr:suburb":null,"addr:subdistrict":null,"addr:district":null,"addr:province":null,"website":"www.lestaminette.com","contact:website":null,"phone":"0362101354","contact:phone":null,"opening_hours":null,"brand":null,"z_order":null}}
,{"type":"Feature","geometry":{"type":"Point","coordinates":[340462.09,6557883.31]},"properties":{"osm_id":4317418297,"shop":"beverages","building":null,"name":"Le Hall'Princess","name:en":null,"addr:housenumber":null,"addr:housename":null,"addr:street":null,"addr:city":null,"addr:state":null,"addr:postcode":null,"addr:place":null,"addr:country":null,"addr:hamlet":null,"addr:suburb":null,"addr:subdistrict":null,"addr:district":null,"addr:province":null,"website":null,"contact:website":null,"phone":null,"contact:phone":null,"opening_hours":null,"brand":null,"z_order":null}}
,{"type":"Feature","geometry":{"type":"Point","coordinates":[340470.61,6557704.71]},"properties":{"osm_id":499609842,"shop":"books","building":null,"name":"Boulevard Fugue caf√©","name:en":null,"addr:housenumber":null,"addr:housename":null,"addr:street":null,"addr:city":null,"addr:state":null,"addr:postcode":null,"addr:place":null,"addr:country":null,"addr:hamlet":null,"addr:suburb":null,"addr:subdistrict":null,"addr:district":null,"addr:province":null,"website":null,"contact:website":null,"phone":null,"contact:phone":null,"opening_hours":null,"brand":null,"z_order":null}}
,{"type":"Feature","geometry":{"type":"Point","coordinates":[340574.11,6557156.3]},"properties":{"osm_id":2876224633,"shop":"bakery","building":null,"name":"La Gourmandine","name:en":null,"addr:housenumber":null,"addr:housename":null,"addr:street":null,"addr:city":null,"addr:state":null,"addr:postcode":null,"addr:place":null,"addr:country":null,"addr:hamlet":null,"addr:suburb":null,"addr:subdistrict":null,"addr:district":null,"addr:province":null,"website":null,"contact:website":null,"phone":null,"contact:phone":null,"opening_hours":null,"brand":null,"z_order":null}}
,{"type":"Feature","geometry":{"type":"Point","coordinates":[340584.87,6557612.28]},"properties":{"osm_id":674884876,"shop":"supermarket","building":null,"name":"Petit Casino","name:en":null,"addr:housenumber":null,"addr:housename":null,"addr:street":null,"addr:city":null,"addr:state":null,"addr:postcode":null,"addr:place":null,"addr:country":null,"addr:hamlet":null,"addr:suburb":null,"addr:subdistrict":null,"addr:district":null,"addr:province":null,"website":null,"contact:website":null,"phone":null,"contact:phone":null,"opening_hours":null,"brand":null,"z_order":null}}
,{"type":"Feature","geometry":{"type":"Point","coordinates":[340625.66,6558008.05]},"properties":{"osm_id":3183562466,"shop":"clothes","building":null,"name":"Une autre couture","name:en":null,"addr:housenumber":"48","addr:housename":null,"addr:street":"Rue des Trois Mollettes","addr:city":"Lille","addr:state":null,"addr:postcode":"59800","addr:place":null,"addr:country":null,"addr:hamlet":null,"addr:suburb":null,"addr:subdistrict":null,"addr:district":null,"addr:province":null,"website":null,"contact:website":null,"phone":"+33 6 71 44 67 61","contact:phone":null,"opening_hours":null,"brand":null,"z_order":null}}
,{"type":"Feature","geometry":{"type":"Point","coordinates":[340627.63,6557625.76]},"properties":{"osm_id":4161812463,"shop":"cheese","building":null,"name":"Les Bons P√¢turages","name:en":null,"addr:housenumber":"54","addr:housename":null,"addr:street":"Rue Basse","addr:city":"Lille","addr:state":null,"addr:postcode":"59000","addr:place":null,"addr:country":null,"addr:hamlet":null,"addr:suburb":null,"addr:subdistrict":null,"addr:district":null,"addr:province":null,"website":"http://www.mon-fromage.com","contact:website":null,"phone":"+33 3 20 55 60 28","contact:phone":null,"opening_hours":"Mo 14:30-19:30; Tu-Th 10:00-19:30; Fr,Sa 09:30-19:30","brand":null,"z_order":null}}
,{"type":"Feature","geometry":{"type":"Point","coordinates":[340633.67,6557118.14]},"properties":{"osm_id":2876189634,"shop":"confectionery","building":null,"name":"Chocolat passion","name:en":null,"addr:housenumber":null,"addr:housename":null,"addr:street":null,"addr:city":null,"addr:state":null,"addr:postcode":null,"addr:place":null,"addr:country":null,"addr:hamlet":null,"addr:suburb":null,"addr:subdistrict":null,"addr:district":null,"addr:province":null,"website":null,"contact:website":null,"phone":null,"contact:phone":null,"opening_hours":null,"brand":null,"z_order":null}}
,{"type":"Feature","geometry":{"type":"Point","coordinates":[340634.79,6557979.72]},"properties":{"osm_id":2936005615,"shop":"toys","building":null,"name":"Lillojouets","name:en":null,"addr:housenumber":"29","addr:housename":null,"addr:street":"Rue des Trois Mollettes","addr:city":"Lille","addr:state":null,"addr:postcode":"59000","addr:place":null,"addr:country":null,"addr:hamlet":null,"addr:suburb":null,"addr:subdistrict":null,"addr:district":null,"addr:province":null,"website":"http://stores.ebay.fr/LILLOJOUETS-BOUTIQUE","contact:website":null,"phone":null,"contact:phone":null,"opening_hours":null,"brand":null,"z_order":null}}
,{"type":"Feature","geometry":{"type":"Point","coordinates":[340642.85,6558342.72]},"properties":{"osm_id":4482512391,"shop":"bakery","building":null,"name":"Le Concert Gourmand","name:en":null,"addr:housenumber":"7","addr:housename":null,"addr:street":"Rue de la Coll√©giale","addr:city":"Lille","addr:state":null,"addr:postcode":"59000","addr:place":null,"addr:country":null,"addr:hamlet":null,"addr:suburb":null,"addr:subdistrict":null,"addr:district":null,"addr:province":null,"website":null,"contact:website":null,"phone":"03 20 51 08 15","contact:phone":null,"opening_hours":null,"brand":null,"z_order":null}}
,{"type":"Feature","geometry":{"type":"Point","coordinates":[340651.62,6557182.64]},"properties":{"osm_id":2876224629,"shop":"tailor","building":null,"name":"France Retouche","name:en":null,"addr:housenumber":null,"addr:housename":null,"addr:street":null,"addr:city":null,"addr:state":null,"addr:postcode":null,"addr:place":null,"addr:country":null,"addr:hamlet":null,"addr:suburb":null,"addr:subdistrict":null,"addr:district":null,"addr:province":null,"website":null,"contact:website":null,"phone":null,"contact:phone":null,"opening_hours":null,"brand":null,"z_order":null}}
,{"type":"Feature","geometry":{"type":"Point","coordinates":[340681.26,6557151.81]},"properties":{"osm_id":2876189640,"shop":"optician","building":null,"name":"Optical Center","name:en":null,"addr:housenumber":null,"addr:housename":null,"addr:street":null,"addr:city":null,"addr:state":null,"addr:postcode":null,"addr:place":null,"addr:country":null,"addr:hamlet":null,"addr:suburb":null,"addr:subdistrict":null,"addr:district":null,"addr:province":null,"website":null,"contact:website":null,"phone":null,"contact:phone":null,"opening_hours":null,"brand":null,"z_order":null}}
,{"type":"Feature","geometry":{"type":"Point","coordinates":[340788.79,6556662.22]},"properties":{"osm_id":2936010210,"shop":"books","building":null,"name":"Manga No Yume","name:en":null,"addr:housenumber":"8","addr:housename":null,"addr:street":"Rue Georges Maertens","addr:city":"Lille","addr:state":null,"addr:postcode":"59000","addr:place":null,"addr:country":null,"addr:hamlet":null,"addr:suburb":null,"addr:subdistrict":null,"addr:district":null,"addr:province":null,"website":"https://www.facebook.com/pages/Manga-No-Yume/86006312359","contact:website":null,"phone":null,"contact:phone":null,"opening_hours":null,"brand":null,"z_order":null}}
,{"type":"Feature","geometry":{"type":"Point","coordinates":[340798.05,6557230.93]},"properties":{"osm_id":2876189638,"shop":"variety_store","building":null,"name":"Institut Docteur Ricaud","name:en":null,"addr:housenumber":null,"addr:housename":null,"addr:street":null,"addr:city":null,"addr:state":null,"addr:postcode":null,"addr:place":null,"addr:country":null,"addr:hamlet":null,"addr:suburb":null,"addr:subdistrict":null,"addr:district":null,"addr:province":null,"website":null,"contact:website":null,"phone":null,"contact:phone":null,"opening_hours":null,"brand":null,"z_order":null}}
,{"type":"Feature","geometry":{"type":"Point","coordinates":[340804.54,6557234.17]},"properties":{"osm_id":2876177930,"shop":"fabric","building":null,"name":"Les Coupons de Saint-Pierre","name:en":null,"addr:housenumber":null,"addr:housename":null,"addr:street":null,"addr:city":null,"addr:state":null,"addr:postcode":null,"addr:place":null,"addr:country":null,"addr:hamlet":null,"addr:suburb":null,"addr:subdistrict":null,"addr:district":null,"addr:province":null,"website":null,"contact:website":null,"phone":null,"contact:phone":null,"opening_hours":null,"brand":null,"z_order":null}}
,{"type":"Feature","geometry":{"type":"Point","coordinates":[340825.52,6556686.88]},"properties":{"osm_id":3021793003,"shop":"clothes","building":null,"name":"L√©z‚Äôarts du monde","name:en":null,"addr:housenumber":null,"addr:housename":null,"addr:street":null,"addr:city":null,"addr:state":null,"addr:postcode":null,"addr:place":null,"addr:country":null,"addr:hamlet":null,"addr:suburb":null,"addr:subdistrict":null,"addr:district":null,"addr:province":null,"website":null,"contact:website":null,"phone":null,"contact:phone":null,"opening_hours":"Tu-Sa 11:00-19:00","brand":null,"z_order":null}}
,{"type":"Feature","geometry":{"type":"Point","coordinates":[340827.1,6558067.06]},"properties":{"osm_id":1773668075,"shop":"massage","building":null,"name":"L'heure du massage","name:en":null,"addr:housenumber":null,"addr:housename":null,"addr:street":null,"addr:city":null,"addr:state":null,"addr:postcode":null,"addr:place":null,"addr:country":null,"addr:hamlet":null,"addr:suburb":null,"addr:subdistrict":null,"addr:district":null,"addr:province":null,"website":"http://www.lheuredumassage.fr","contact:website":null,"phone":"+33633091271","contact:phone":null,"opening_hours":"Mo-Sa 09:00-20:30","brand":null,"z_order":null}}
,{"type":"Feature","geometry":{"type":"Point","coordinates":[340830.03,6558138.7]},"properties":{"osm_id":4183809473,"shop":"boutique","building":null,"name":"Jeans 1083","name:en":null,"addr:housenumber":"83","addr:housename":null,"addr:street":"Rue de la Monnaie","addr:city":"Lille","addr:state":null,"addr:postcode":"59000","addr:place":null,"addr:country":null,"addr:hamlet":null,"addr:suburb":null,"addr:subdistrict":null,"addr:district":null,"addr:province":null,"website":null,"contact:website":null,"phone":null,"contact:phone":null,"opening_hours":null,"brand":null,"z_order":null}}
,{"type":"Feature","geometry":{"type":"Point","coordinates":[340853.59,6556683.9]},"properties":{"osm_id":3021793005,"shop":"books","building":null,"name":"Oxfam Librairie","name:en":null,"addr:housenumber":null,"addr:housename":null,"addr:street":null,"addr:city":null,"addr:state":null,"addr:postcode":null,"addr:place":null,"addr:country":null,"addr:hamlet":null,"addr:suburb":null,"addr:subdistrict":null,"addr:district":null,"addr:province":null,"website":null,"contact:website":null,"phone":null,"contact:phone":null,"opening_hours":null,"brand":null,"z_order":null}}
,{"type":"Feature","geometry":{"type":"Point","coordinates":[340863.74,6556719.12]},"properties":{"osm_id":3021793006,"shop":"clothes","building":null,"name":"Oxfam Friperie","name:en":null,"addr:housenumber":null,"addr:housename":null,"addr:street":null,"addr:city":null,"addr:state":null,"addr:postcode":null,"addr:place":null,"addr:country":null,"addr:hamlet":null,"addr:suburb":null,"addr:subdistrict":null,"addr:district":null,"addr:province":null,"website":null,"contact:website":null,"phone":null,"contact:phone":null,"opening_hours":null,"brand":null,"z_order":null}}
,{"type":"Feature","geometry":{"type":"Point","coordinates":[340867.71,6558099.82]},"properties":{"osm_id":1402607822,"shop":"butcher","building":null,"name":"Le Barbier qui fume","name:en":null,"addr:housenumber":"69","addr:housename":null,"addr:street":"Rue de la Monnaie","addr:city":"Lille","addr:state":null,"addr:postcode":"59000","addr:place":null,"addr:country":null,"addr:hamlet":null,"addr:suburb":null,"addr:subdistrict":null,"addr:district":null,"addr:province":null,"website":"http://www.le-barbier-lillois.com/","contact:website":null,"phone":"+33 3 20 06 99 35","contact:phone":null,"opening_hours":null,"brand":null,"z_order":null}}
,{"type":"Feature","geometry":{"type":"Point","coordinates":[340877.12,6558090.58]},"properties":{"osm_id":1402607820,"shop":"bakery","building":null,"name":"Aux Merveilleux de Fred","name:en":null,"addr:housenumber":"67","addr:housename":null,"addr:street":"Rue de la Monnaie","addr:city":"Lille","addr:state":null,"addr:postcode":"59000","addr:place":null,"addr:country":null,"addr:hamlet":null,"addr:suburb":null,"addr:subdistrict":null,"addr:district":null,"addr:province":null,"website":"http://www.auxmerveilleux.com/","contact:website":null,"phone":"+33 3 20 51 99 59","contact:phone":null,"opening_hours":"Tu-Su 07:30-19:45","brand":null,"z_order":null}}
,{"type":"Feature","geometry":{"type":"Point","coordinates":[340880.28,6557517.57]},"properties":{"osm_id":4161812462,"shop":"cheese","building":null,"name":"Fromagerie Philippe Olivier","name:en":null,"addr:housenumber":"3","addr:housename":null,"addr:street":"Rue du Cur√© Saint-√âtienne","addr:city":"Lille","addr:state":null,"addr:postcode":"59000","addr:place":null,"addr:country":null,"addr:hamlet":null,"addr:suburb":null,"addr:subdistrict":null,"addr:district":null,"addr:province":null,"website":"http://www.philippeolivier.fr/","contact:website":null,"phone":"+33 3 20 74 96 99","contact:phone":null,"opening_hours":"Mo 14:30-19:15; Tu-Th 10:00-19:15; Fr,Sa 09:00-19:15","brand":null,"z_order":null}}
,{"type":"Feature","geometry":{"type":"Point","coordinates":[340885.42,6557660.97]},"properties":{"osm_id":3475284176,"shop":"bakery","building":null,"name":"Paul","name:en":null,"addr:housenumber":"44","addr:housename":null,"addr:street":"Rue Lepelletier","addr:city":"Lille","addr:state":null,"addr:postcode":"59000","addr:place":null,"addr:country":null,"addr:hamlet":null,"addr:suburb":null,"addr:subdistrict":null,"addr:district":null,"addr:province":null,"website":null,"contact:website":null,"phone":null,"contact:phone":null,"opening_hours":"Mo-Sa 07:30-19:30","brand":null,"z_order":null}}
,{"type":"Feature","geometry":{"type":"Point","coordinates":[340991.82,6556710.77]},"properties":{"osm_id":3021793007,"shop":"electronics","building":null,"name":null,"name:en":null,"addr:housenumber":null,"addr:housename":null,"addr:street":null,"addr:city":null,"addr:state":null,"addr:postcode":null,"addr:place":null,"addr:country":null,"addr:hamlet":null,"addr:suburb":null,"addr:subdistrict":null,"addr:district":null,"addr:province":null,"website":null,"contact:website":null,"phone":null,"contact:phone":null,"opening_hours":null,"brand":null,"z_order":null}}
,{"type":"Feature","geometry":{"type":"Point","coordinates":[340995.15,6557460.95]},"properties":{"osm_id":1102467031,"shop":"kitchen","building":null,"name":"Zara Home","name:en":null,"addr:housenumber":"19","addr:housename":null,"addr:street":"Rue de la Bourse","addr:city":"Lille","addr:state":null,"addr:postcode":"59000","addr:place":null,"addr:country":null,"addr:hamlet":null,"addr:suburb":null,"addr:subdistrict":null,"addr:district":null,"addr:province":null,"website":null,"contact:website":null,"phone":null,"contact:phone":null,"opening_hours":null,"brand":null,"z_order":null}}
,{"type":"Feature","geometry":{"type":"Point","coordinates":[340995.37,6557020.45]},"properties":{"osm_id":2396086515,"shop":"confectionery","building":null,"name":"Zocolata : Bar √† chocolat","name:en":null,"addr:housenumber":null,"addr:housename":null,"addr:street":null,"addr:city":null,"addr:state":null,"addr:postcode":null,"addr:place":null,"addr:country":null,"addr:hamlet":null,"addr:suburb":null,"addr:subdistrict":null,"addr:district":null,"addr:province":null,"website":"http://www.zocolata.com/","contact:website":null,"phone":null,"contact:phone":null,"opening_hours":"Mo-Sa 13:30-19:30; Su 14:00-18:00","brand":null,"z_order":null}}
,{"type":"Feature","geometry":{"type":"Point","coordinates":[341019.99,6558374.01]},"properties":{"osm_id":4469031808,"shop":"supermarket","building":null,"name":"Picard","name:en":null,"addr:housenumber":"46","addr:housename":null,"addr:street":"Avenue du Peuple Belge","addr:city":"Lille","addr:state":null,"addr:postcode":"59000","addr:place":null,"addr:country":null,"addr:hamlet":null,"addr:suburb":null,"addr:subdistrict":null,"addr:district":null,"addr:province":null,"website":null,"contact:website":null,"phone":"+33320437465","contact:phone":null,"opening_hours":"Mo-Fr 09:00-20:00; Su 09:00-12:45","brand":null,"z_order":null}}
,{"type":"Feature","geometry":{"type":"Point","coordinates":[341026.63,6556722.93]},"properties":{"osm_id":1538514281,"shop":"shoes","building":null,"name":null,"name:en":null,"addr:housenumber":null,"addr:housename":null,"addr:street":null,"addr:city":null,"addr:state":null,"addr:postcode":null,"addr:place":null,"addr:country":null,"addr:hamlet":null,"addr:suburb":null,"addr:subdistrict":null,"addr:district":null,"addr:province":null,"website":null,"contact:website":null,"phone":null,"contact:phone":null,"opening_hours":null,"brand":null,"z_order":null}}
,{"type":"Feature","geometry":{"type":"Point","coordinates":[341050.2,6556705.71]},"properties":{"osm_id":1538514322,"shop":"shoes","building":null,"name":null,"name:en":null,"addr:housenumber":null,"addr:housename":null,"addr:street":null,"addr:city":null,"addr:state":null,"addr:postcode":null,"addr:place":null,"addr:country":null,"addr:hamlet":null,"addr:suburb":null,"addr:subdistrict":null,"addr:district":null,"addr:province":null,"website":null,"contact:website":null,"phone":null,"contact:phone":null,"opening_hours":null,"brand":null,"z_order":null}}
,{"type":"Feature","geometry":{"type":"Point","coordinates":[341105.21,6557258.08]},"properties":{"osm_id":583311686,"shop":"bakery","building":null,"name":"Tout Chaud","name:en":null,"addr:housenumber":null,"addr:housename":null,"addr:street":null,"addr:city":null,"addr:state":null,"addr:postcode":null,"addr:place":null,"addr:country":null,"addr:hamlet":null,"addr:suburb":null,"addr:subdistrict":null,"addr:district":null,"addr:province":null,"website":null,"contact:website":null,"phone":null,"contact:phone":null,"opening_hours":null,"brand":null,"z_order":null}}
,{"type":"Feature","geometry":{"type":"Point","coordinates":[341115.38,6557255.68]},"properties":{"osm_id":4206455710,"shop":"general","building":null,"name":"Chic Boissons","name:en":null,"addr:housenumber":"16","addr:housename":null,"addr:street":"Place du G√©n√©ral de Gaulle","addr:city":"Lille","addr:state":null,"addr:postcode":"59000","addr:place":null,"addr:country":null,"addr:hamlet":null,"addr:suburb":null,"addr:subdistrict":null,"addr:district":null,"addr:province":null,"website":"www.chicboissons.com","contact:website":null,"phone":null,"contact:phone":"+33 3 28 04 87 59","opening_hours":"Mo-Fr 10:00-12:00, 14:00-16:00","brand":null,"z_order":null}}
,{"type":"Feature","geometry":{"type":"Point","coordinates":[341143.06,6557292.92]},"properties":{"osm_id":4409310419,"shop":"mobile_phone","building":null,"name":"Free","name:en":null,"addr:housenumber":"6","addr:housename":null,"addr:street":"Rue des Manneliers","addr:city":"Lille","addr:state":null,"addr:postcode":"59000","addr:place":null,"addr:country":null,"addr:hamlet":null,"addr:suburb":null,"addr:subdistrict":null,"addr:district":null,"addr:province":null,"website":null,"contact:website":null,"phone":null,"contact:phone":null,"opening_hours":null,"brand":null,"z_order":null}}
,{"type":"Feature","geometry":{"type":"Point","coordinates":[341188.91,6557709.54]},"properties":{"osm_id":978036773,"shop":"toys","building":null,"name":"Rocambole","name:en":null,"addr:housenumber":null,"addr:housename":null,"addr:street":null,"addr:city":null,"addr:state":null,"addr:postcode":null,"addr:place":null,"addr:country":null,"addr:hamlet":null,"addr:suburb":null,"addr:subdistrict":null,"addr:district":null,"addr:province":null,"website":null,"contact:website":null,"phone":null,"contact:phone":null,"opening_hours":"Mo 14:00-19:00; Tu-Sa 10:00-12:30,14:00-19:00","brand":null,"z_order":null}}
,{"type":"Feature","geometry":{"type":"Point","coordinates":[341189.35,6558159.9]},"properties":{"osm_id":314063069,"shop":"musical_instrument","building":null,"name":"Allegro partition","name:en":null,"addr:housenumber":null,"addr:housename":null,"addr:street":null,"addr:city":null,"addr:state":null,"addr:postcode":null,"addr:place":null,"addr:country":null,"addr:hamlet":null,"addr:suburb":null,"addr:subdistrict":null,"addr:district":null,"addr:province":null,"website":null,"contact:website":null,"phone":null,"contact:phone":null,"opening_hours":null,"brand":null,"z_order":null}}
,{"type":"Feature","geometry":{"type":"Point","coordinates":[341218.08,6557808.33]},"properties":{"osm_id":4401758121,"shop":"musical_instrument","building":null,"name":"Star's Music","name:en":null,"addr:housenumber":"72","addr:housename":null,"addr:street":"Rue des Arts","addr:city":"Lille","addr:state":null,"addr:postcode":"59000","addr:place":null,"addr:country":null,"addr:hamlet":null,"addr:suburb":null,"addr:subdistrict":null,"addr:district":null,"addr:province":null,"website":"http://www.stars-music.fr/magasin-lille.html","contact:website":null,"phone":"+33 3 20 12 00 40","contact:phone":null,"opening_hours":"Tu-Sa 10:00-12:45,14:00-19:00","brand":null,"z_order":null}}
,{"type":"Feature","geometry":{"type":"Point","coordinates":[340110.46,6556425.8]},"properties":{"osm_id":4421868751,"shop":"books","building":null,"name":"Librairie Manga No yume","name:en":null,"addr:housenumber":"28","addr:housename":null,"addr:street":"Rue de Puebla","addr:city":"Lille","addr:state":null,"addr:postcode":"59000","addr:place":null,"addr:country":null,"addr:hamlet":null,"addr:suburb":null,"addr:subdistrict":null,"addr:district":null,"addr:province":null,"website":null,"contact:website":null,"phone":null,"contact:phone":null,"opening_hours":"Mo: 14:00-19:00 Tu - Sat: 11:00-19:00","brand":null,"z_order":null}}
,{"type":"Feature","geometry":{"type":"Point","coordinates":[340411.75,6556265.99]},"properties":{"osm_id":1964243508,"shop":"convenience","building":null,"name":"Asie Gambeta","name:en":null,"addr:housenumber":null,"addr:housename":null,"addr:street":null,"addr:city":null,"addr:state":null,"addr:postcode":null,"addr:place":null,"addr:country":null,"addr:hamlet":null,"addr:suburb":null,"addr:subdistrict":null,"addr:district":null,"addr:province":null,"website":null,"contact:website":null,"phone":null,"contact:phone":null,"opening_hours":null,"brand":null,"z_order":null}}
,{"type":"Feature","geometry":{"type":"Point","coordinates":[340451.67,6556245.23]},"properties":{"osm_id":1643013159,"shop":"supermarket","building":null,"name":"Carrefour Express","name:en":null,"addr:housenumber":null,"addr:housename":null,"addr:street":null,"addr:city":null,"addr:state":null,"addr:postcode":null,"addr:place":null,"addr:country":null,"addr:hamlet":null,"addr:suburb":null,"addr:subdistrict":null,"addr:district":null,"addr:province":null,"website":null,"contact:website":null,"phone":"+33 03 20 77 57 82","contact:phone":null,"opening_hours":"Mo-Sa 08:00-21:00; Su 09:00-13:00","brand":"Carrefour","z_order":null}}
,{"type":"Feature","geometry":{"type":"Point","coordinates":[340485.6,6556015.56]},"properties":{"osm_id":4302854784,"shop":"hairdresser","building":null,"name":"Artist Hair","name:en":null,"addr:housenumber":"53","addr:housename":null,"addr:street":"Rue Inkermann","addr:city":"Lille","addr:state":null,"addr:postcode":"59000","addr:place":null,"addr:country":null,"addr:hamlet":null,"addr:suburb":null,"addr:subdistrict":null,"addr:district":null,"addr:province":null,"website":"http://www.artisthair.fr","contact:website":null,"phone":null,"contact:phone":null,"opening_hours":"Tu-Th 10:00-19:00; Fr 09:00-19:00; Sa 09:00-18:30;","brand":null,"z_order":null}}
,{"type":"Feature","geometry":{"type":"Point","coordinates":[340591.04,6556121.32]},"properties":{"osm_id":1596018537,"shop":"motorcycle","building":null,"name":"Lille Motos Ducroo","name:en":null,"addr:housenumber":null,"addr:housename":null,"addr:street":null,"addr:city":null,"addr:state":null,"addr:postcode":null,"addr:place":null,"addr:country":null,"addr:hamlet":null,"addr:suburb":null,"addr:subdistrict":null,"addr:district":null,"addr:province":null,"website":null,"contact:website":null,"phone":null,"contact:phone":null,"opening_hours":null,"brand":null,"z_order":null}}
,{"type":"Feature","geometry":{"type":"Point","coordinates":[340680.16,6556225.26]},"properties":{"osm_id":3002299471,"shop":"hairdresser","building":null,"name":null,"name:en":null,"addr:housenumber":null,"addr:housename":null,"addr:street":null,"addr:city":null,"addr:state":null,"addr:postcode":null,"addr:place":null,"addr:country":null,"addr:hamlet":null,"addr:suburb":null,"addr:subdistrict":null,"addr:district":null,"addr:province":null,"website":null,"contact:website":null,"phone":null,"contact:phone":null,"opening_hours":null,"brand":null,"z_order":null}}
,{"type":"Feature","geometry":{"type":"Point","coordinates":[340769.19,6556039.77]},"properties":{"osm_id":2995433303,"shop":"hifi","building":null,"name":"Passion Hifi","name:en":null,"addr:housenumber":null,"addr:housename":null,"addr:street":null,"addr:city":null,"addr:state":null,"addr:postcode":null,"addr:place":null,"addr:country":null,"addr:hamlet":null,"addr:suburb":null,"addr:subdistrict":null,"addr:district":null,"addr:province":null,"website":null,"contact:website":null,"phone":null,"contact:phone":null,"opening_hours":null,"brand":null,"z_order":null}}
,{"type":"Feature","geometry":{"type":"Point","coordinates":[340769.61,6555971.96]},"properties":{"osm_id":3009957235,"shop":"bakery","building":null,"name":"Espenada","name:en":null,"addr:housenumber":null,"addr:housename":null,"addr:street":null,"addr:city":null,"addr:state":null,"addr:postcode":null,"addr:place":null,"addr:country":null,"addr:hamlet":null,"addr:suburb":null,"addr:subdistrict":null,"addr:district":null,"addr:province":null,"website":null,"contact:website":null,"phone":null,"contact:phone":null,"opening_hours":null,"brand":null,"z_order":null}}
,{"type":"Feature","geometry":{"type":"Point","coordinates":[340802.94,6556018.27]},"properties":{"osm_id":2995433304,"shop":"hifi","building":null,"name":"Terre de son","name:en":null,"addr:housenumber":null,"addr:housename":null,"addr:street":null,"addr:city":null,"addr:state":null,"addr:postcode":null,"addr:place":null,"addr:country":null,"addr:hamlet":null,"addr:suburb":null,"addr:subdistrict":null,"addr:district":null,"addr:province":null,"website":null,"contact:website":null,"phone":null,"contact:phone":null,"opening_hours":null,"brand":null,"z_order":null}}
,{"type":"Feature","geometry":{"type":"Point","coordinates":[340804.57,6555939.88]},"properties":{"osm_id":2995433307,"shop":"sports","building":null,"name":"Gunshop","name:en":null,"addr:housenumber":null,"addr:housename":null,"addr:street":null,"addr:city":null,"addr:state":null,"addr:postcode":null,"addr:place":null,"addr:country":null,"addr:hamlet":null,"addr:suburb":null,"addr:subdistrict":null,"addr:district":null,"addr:province":null,"website":null,"contact:website":null,"phone":null,"contact:phone":null,"opening_hours":null,"brand":null,"z_order":null}}
,{"type":"Feature","geometry":{"type":"Point","coordinates":[340806.16,6555997.16]},"properties":{"osm_id":3002299470,"shop":"art","building":null,"name":null,"name:en":null,"addr:housenumber":null,"addr:housename":null,"addr:street":null,"addr:city":null,"addr:state":null,"addr:postcode":null,"addr:place":null,"addr:country":null,"addr:hamlet":null,"addr:suburb":null,"addr:subdistrict":null,"addr:district":null,"addr:province":null,"website":null,"contact:website":null,"phone":null,"contact:phone":null,"opening_hours":null,"brand":null,"z_order":null}}
,{"type":"Feature","geometry":{"type":"Point","coordinates":[340944.99,6556438.53]},"properties":{"osm_id":1667694590,"shop":"hairdresser","building":null,"name":"Chez Tonio","name:en":null,"addr:housenumber":null,"addr:housename":null,"addr:street":null,"addr:city":null,"addr:state":null,"addr:postcode":null,"addr:place":null,"addr:country":null,"addr:hamlet":null,"addr:suburb":null,"addr:subdistrict":null,"addr:district":null,"addr:province":null,"website":null,"contact:website":null,"phone":null,"contact:phone":null,"opening_hours":null,"brand":null,"z_order":null}}
,{"type":"Feature","geometry":{"type":"Point","coordinates":[339764.89,6558556.13]},"properties":{"osm_id":4392188481,"shop":"convenience;gas","building":null,"name":null,"name:en":null,"addr:housenumber":null,"addr:housename":null,"addr:street":null,"addr:city":null,"addr:state":null,"addr:postcode":null,"addr:place":null,"addr:country":null,"addr:hamlet":null,"addr:suburb":null,"addr:subdistrict":null,"addr:district":null,"addr:province":null,"website":null,"contact:website":null,"phone":null,"contact:phone":null,"opening_hours":"24/7","brand":null,"z_order":null}}
,{"type":"Feature","geometry":{"type":"Point","coordinates":[340434.5,6559109.5]},"properties":{"osm_id":2013596754,"shop":"bakery","building":null,"name":"Le Petit Fournil","name:en":null,"addr:housenumber":"95","addr:housename":null,"addr:street":"Rue Saint-S√©bastien","addr:city":"Lille","addr:state":null,"addr:postcode":"59000","addr:place":null,"addr:country":null,"addr:hamlet":null,"addr:suburb":null,"addr:subdistrict":null,"addr:district":null,"addr:province":null,"website":null,"contact:website":null,"phone":"03 20 74 45 85","contact:phone":null,"opening_hours":null,"brand":null,"z_order":null}}
,{"type":"Feature","geometry":{"type":"Point","coordinates":[340447.76,6559118.07]},"properties":{"osm_id":2013596750,"shop":"laundry","building":null,"name":"Clean","name:en":null,"addr:housenumber":null,"addr:housename":null,"addr:street":null,"addr:city":null,"addr:state":null,"addr:postcode":null,"addr:place":null,"addr:country":null,"addr:hamlet":null,"addr:suburb":null,"addr:subdistrict":null,"addr:district":null,"addr:province":null,"website":null,"contact:website":null,"phone":null,"contact:phone":null,"opening_hours":null,"brand":null,"z_order":null}}
]}
