{"name":"craft_point","type":"FeatureCollection"
,"crs":{"type":"name","properties":{"name":"EPSG:3857"}}
,"features":[
{"type":"Feature","geometry":{"type":"Point","coordinates":[-8239820.43,4964791.03]},"properties":{"osm_id":4275872432,"craft":"caterer","building":null,"name":"Liberty Warehouse","name:en":null,"addr:housenumber":"260","addr:housename":null,"addr:street":"Conover Street","addr:city":"Brooklyn","addr:state":"NY","addr:postcode":"11231","addr:place":null,"addr:country":null,"addr:hamlet":null,"addr:suburb":null,"addr:subdistrict":null,"addr:district":null,"addr:province":null,"website":"http://www.thelibertywarehouse.com","contact:website":null,"phone":null,"contact:phone":null,"opening_hours":null,"brand":null,"z_order":null}}
,{"type":"Feature","geometry":{"type":"Point","coordinates":[-8238633.09,4969019.54]},"properties":{"osm_id":3453104466,"craft":"shoemaker","building":null,"name":"Minas Shoe Repair","name:en":null,"addr:housenumber":null,"addr:housename":null,"addr:street":null,"addr:city":null,"addr:state":null,"addr:postcode":null,"addr:place":null,"addr:country":null,"addr:hamlet":null,"addr:suburb":null,"addr:subdistrict":null,"addr:district":null,"addr:province":null,"website":null,"contact:website":null,"phone":null,"contact:phone":null,"opening_hours":null,"brand":null,"z_order":null}}
,{"type":"Feature","geometry":{"type":"Point","coordinates":[-8238046.12,4969155.93]},"properties":{"osm_id":2898706754,"craft":"confectionery","building":null,"name":"It'sugar","name:en":null,"addr:housenumber":"10","addr:housename":null,"addr:street":"Fulton Street","addr:city":null,"addr:state":null,"addr:postcode":null,"addr:place":null,"addr:country":null,"addr:hamlet":null,"addr:suburb":null,"addr:subdistrict":null,"addr:district":null,"addr:province":null,"website":null,"contact:website":null,"phone":null,"contact:phone":null,"opening_hours":null,"brand":null,"z_order":null}}
,{"type":"Feature","geometry":{"type":"Point","coordinates":[-8237096.21,4967587.61]},"properties":{"osm_id":2322155481,"craft":"handicraft","building":null,"name":"Brooklyn Womans Exchange","name:en":null,"addr:housenumber":"55","addr:housename":null,"addr:street":"Pierrepont Street","addr:city":"Brooklyn","addr:state":null,"addr:postcode":null,"addr:place":null,"addr:country":null,"addr:hamlet":null,"addr:suburb":null,"addr:subdistrict":null,"addr:district":null,"addr:province":null,"website":null,"contact:website":null,"phone":null,"contact:phone":null,"opening_hours":null,"brand":null,"z_order":null}}
,{"type":"Feature","geometry":{"type":"Point","coordinates":[-8237028.59,4966159.11]},"properties":{"osm_id":2631910905,"craft":"confectionery","building":null,"name":"Sugar Shop","name:en":null,"addr:housenumber":"254","addr:housename":null,"addr:street":"Baltic Street","addr:city":"Brooklyn","addr:state":null,"addr:postcode":"11201","addr:place":null,"addr:country":null,"addr:hamlet":null,"addr:suburb":null,"addr:subdistrict":null,"addr:district":null,"addr:province":null,"website":"http://www.sugarshopbrooklyn.com","contact:website":null,"phone":null,"contact:phone":null,"opening_hours":null,"brand":null,"z_order":null}}
]}
