{"name":"shop_polygon","type":"FeatureCollection"
,"crs":{"type":"name","properties":{"name":"EPSG:3857"}}
,"features":[
{"type":"Feature","geometry":{"type":"Polygon","coordinates":[[[-8238831.14,4968930.97],[-8238814.45,4968932.96],[-8238808.56,4968917.91],[-8238818.51,4968911.01],[-8238822.25,4968908.42],[-8238830.93,4968929.17],[-8238831.14,4968930.97]]]},"properties":{"osm_id":278053472,"shop":"hairdresser","building":"yes","name":"Barber Shop","name:en":null,"addr:housenumber":"48","addr:housename":null,"addr:street":"Beaver Street","addr:city":null,"addr:state":null,"addr:postcode":"10004","addr:place":null,"addr:country":null,"addr:hamlet":null,"addr:suburb":null,"addr:subdistrict":null,"addr:district":null,"addr:province":null,"website":null,"contact:website":null,"phone":null,"contact:phone":null,"opening_hours":null,"brand":null,"z_order":0}}
,{"type":"Feature","geometry":{"type":"Polygon","coordinates":[[[-8237105.16,4967479.19],[-8237096.21,4967503.62],[-8237088.29,4967500.7],[-8237092.39,4967489.48],[-8237090.87,4967488.93],[-8237090.92,4967488.78],[-8237095.71,4967475.7],[-8237105.16,4967479.19]]]},"properties":{"osm_id":241833138,"shop":"bakery","building":"yes","name":"Crumbs Bake Shop","name:en":null,"addr:housenumber":"109","addr:housename":null,"addr:street":"Montague Street","addr:city":"Brooklyn","addr:state":"NY","addr:postcode":"11201","addr:place":null,"addr:country":"US","addr:hamlet":null,"addr:suburb":null,"addr:subdistrict":null,"addr:district":null,"addr:province":null,"website":null,"contact:website":null,"phone":null,"contact:phone":null,"opening_hours":null,"brand":null,"z_order":0}}
,{"type":"Feature","geometry":{"type":"Polygon","coordinates":[[[-8237001.51,4967382.27],[-8236993.14,4967405.41],[-8236983.59,4967401.93],[-8236991.96,4967378.79],[-8237001.51,4967382.27]]]},"properties":{"osm_id":241833086,"shop":"beauty","building":"yes","name":"Dashing Diva","name:en":null,"addr:housenumber":"130","addr:housename":null,"addr:street":"Montague Street","addr:city":"Brooklyn","addr:state":null,"addr:postcode":"11201","addr:place":null,"addr:country":null,"addr:hamlet":null,"addr:suburb":null,"addr:subdistrict":null,"addr:district":null,"addr:province":null,"website":"http://www.dashingdiva.com/","contact:website":null,"phone":null,"contact:phone":null,"opening_hours":null,"brand":null,"z_order":0}}
,{"type":"Feature","geometry":{"type":"Polygon","coordinates":[[[-8236991.96,4967378.79],[-8236983.59,4967401.93],[-8236974.22,4967398.51],[-8236982.59,4967375.37],[-8236991.96,4967378.79]]]},"properties":{"osm_id":241833050,"shop":"optician","building":"yes","name":"Heights Vision Center","name:en":null,"addr:housenumber":"132","addr:housename":null,"addr:street":"Montague Street","addr:city":"Brooklyn","addr:state":null,"addr:postcode":"11201","addr:place":null,"addr:country":null,"addr:hamlet":null,"addr:suburb":null,"addr:subdistrict":null,"addr:district":null,"addr:province":null,"website":"http://www.doctorstuartfriedman.com","contact:website":null,"phone":null,"contact:phone":null,"opening_hours":null,"brand":null,"z_order":0}}
,{"type":"Feature","geometry":{"type":"Polygon","coordinates":[[[-8236981.41,4966118.52],[-8236977.97,4966127.91],[-8236959.88,4966118.69],[-8236956.24,4966116.84],[-8236957.34,4966114.66],[-8236952.61,4966112.25],[-8236951.6,4966114.25],[-8236943.05,4966109.89],[-8236943.56,4966108.86],[-8236947.45,4966101.2],[-8236961.64,4966108.43],[-8236963.43,4966109.36],[-8236981.41,4966118.52]]]},"properties":{"osm_id":241844892,"shop":"beauty","building":"yes","name":"Art of Natural Beauty Center","name:en":null,"addr:housenumber":"239","addr:housename":null,"addr:street":"Court Street","addr:city":"Brooklyn","addr:state":null,"addr:postcode":"11201","addr:place":null,"addr:country":null,"addr:hamlet":null,"addr:suburb":null,"addr:subdistrict":null,"addr:district":null,"addr:province":null,"website":"artofnaturalbeauty.com","contact:website":null,"phone":"(718) 694-2200","contact:phone":null,"opening_hours":"10:00-21:00","brand":null,"z_order":0}}
,{"type":"Feature","geometry":{"type":"Polygon","coordinates":[[[-8236977.4,4967361.19],[-8236977.1,4967362.03],[-8236965.1,4967395.19],[-8236955.54,4967391.7],[-8236967.19,4967359.5],[-8236967.84,4967357.71],[-8236977.4,4967361.19]]]},"properties":{"osm_id":241833064,"shop":"hardware","building":"yes","name":"Variety Mart","name:en":null,"addr:housenumber":"136","addr:housename":null,"addr:street":"Montague Street","addr:city":"Brooklyn","addr:state":null,"addr:postcode":"11201","addr:place":null,"addr:country":null,"addr:hamlet":null,"addr:suburb":null,"addr:subdistrict":null,"addr:district":null,"addr:province":null,"website":null,"contact:website":null,"phone":null,"contact:phone":null,"opening_hours":null,"brand":null,"z_order":0}}
,{"type":"Feature","geometry":{"type":"Polygon","coordinates":[[[-8236972.75,4966332.46],[-8236969.89,4966338.99],[-8236964.91,4966336.79],[-8236963.85,4966335.46],[-8236962.7,4966338.08],[-8236953.73,4966334.11],[-8236954.88,4966331.5],[-8236953.03,4966330.68],[-8236951.89,4966333.29],[-8236948.57,4966331.82],[-8236949.72,4966329.21],[-8236947.9,4966328.4],[-8236946.75,4966331.02],[-8236937.16,4966326.77],[-8236940.9,4966316.54],[-8236949.72,4966320.45],[-8236950.01,4966322.15],[-8236952.15,4966323.1],[-8236952.73,4966321.78],[-8236955.42,4966322.97],[-8236954.84,4966324.29],[-8236956.86,4966325.19],[-8236958.35,4966324.26],[-8236966.41,4966327.83],[-8236967.07,4966328.12],[-8236966.06,4966330.41],[-8236967.78,4966330.25],[-8236972.75,4966332.46]]]},"properties":{"osm_id":248139322,"shop":"hairdresser","building":"yes","name":"Barber Shop","name:en":null,"addr:housenumber":"194","addr:housename":null,"addr:street":"Court Street","addr:city":null,"addr:state":null,"addr:postcode":"11201","addr:place":null,"addr:country":null,"addr:hamlet":null,"addr:suburb":null,"addr:subdistrict":null,"addr:district":null,"addr:province":null,"website":null,"contact:website":null,"phone":null,"contact:phone":null,"opening_hours":null,"brand":null,"z_order":0}}
,{"type":"Feature","geometry":{"type":"Polygon","coordinates":[[[-8236965.31,4966161.99],[-8236962.53,4966169.84],[-8236940.19,4966158.45],[-8236936.42,4966156.54],[-8236940.15,4966149.16],[-8236944.56,4966151.4],[-8236965.31,4966161.99]]]},"properties":{"osm_id":241844827,"shop":"clothes","building":"yes","name":"LF Womens Clothing","name:en":null,"addr:housenumber":"227","addr:housename":null,"addr:street":"Court Street","addr:city":"Brooklyn","addr:state":null,"addr:postcode":"11201","addr:place":null,"addr:country":null,"addr:hamlet":null,"addr:suburb":null,"addr:subdistrict":null,"addr:district":null,"addr:province":null,"website":"http://lfstores.com/","contact:website":null,"phone":"718-797-3626","contact:phone":null,"opening_hours":"Mo-Sa 11:00-19:00; Su 12:00-17:00","brand":null,"z_order":0}}
,{"type":"Feature","geometry":{"type":"Polygon","coordinates":[[[-8236962.53,4966169.84],[-8236959.88,4966177.34],[-8236936.62,4966165.49],[-8236940.19,4966158.45],[-8236962.53,4966169.84]]]},"properties":{"osm_id":241844673,"shop":"stationery","building":"yes","name":"Papel New York","name:en":null,"addr:housenumber":"225","addr:housename":null,"addr:street":"court Street","addr:city":"Brooklyn","addr:state":null,"addr:postcode":"11201","addr:place":null,"addr:country":null,"addr:hamlet":null,"addr:suburb":null,"addr:subdistrict":null,"addr:district":null,"addr:province":null,"website":"papelnewyork.com","contact:website":null,"phone":"(718) 422-0255","contact:phone":null,"opening_hours":"12:00-19:00","brand":null,"z_order":0}}
,{"type":"Feature","geometry":{"type":"Polygon","coordinates":[[[-8236960.43,4966177.62],[-8236956.89,4966185.87],[-8236924.62,4966169.43],[-8236928.67,4966161.44],[-8236936.62,4966165.49],[-8236959.88,4966177.34],[-8236960.43,4966177.62]]]},"properties":{"osm_id":241844807,"shop":"hardware","building":"yes","name":"Creative Lighting","name:en":null,"addr:housenumber":"223","addr:housename":null,"addr:street":"Court Street","addr:city":"Brooklyn","addr:state":null,"addr:postcode":"11201","addr:place":null,"addr:country":null,"addr:hamlet":null,"addr:suburb":null,"addr:subdistrict":null,"addr:district":null,"addr:province":null,"website":null,"contact:website":null,"phone":"(718) 935-0393","contact:phone":null,"opening_hours":null,"brand":null,"z_order":0}}
,{"type":"Feature","geometry":{"type":"Polygon","coordinates":[[[-8236928.9,4966262.41],[-8236926.23,4966269.83],[-8236905.98,4966262.47],[-8236905.56,4966262.33],[-8236908.23,4966254.91],[-8236928.9,4966262.41]]]},"properties":{"osm_id":248153049,"shop":"clothes","building":"yes","name":"Lily","name:en":null,"addr:housenumber":"209","addr:housename":null,"addr:street":"Court Street","addr:city":null,"addr:state":null,"addr:postcode":"11201","addr:place":null,"addr:country":null,"addr:hamlet":null,"addr:suburb":null,"addr:subdistrict":null,"addr:district":null,"addr:province":null,"website":null,"contact:website":null,"phone":null,"contact:phone":null,"opening_hours":null,"brand":null,"z_order":0}}
,{"type":"Feature","geometry":{"type":"Polygon","coordinates":[[[-8236890.63,4966658.79],[-8236885.75,4966672.1],[-8236871.45,4966666.81],[-8236865.64,4966682.65],[-8236814.34,4966663.71],[-8236827.9,4966626.73],[-8236861.87,4966639.28],[-8236860.73,4966642.4],[-8236859,4966647.12],[-8236881.24,4966655.33],[-8236890.63,4966658.79]]]},"properties":{"osm_id":245132461,"shop":"supermarket","building":"yes","name":"Trader Joe's","name:en":null,"addr:housenumber":"130","addr:housename":null,"addr:street":"Court Street","addr:city":null,"addr:state":null,"addr:postcode":null,"addr:place":null,"addr:country":null,"addr:hamlet":null,"addr:suburb":null,"addr:subdistrict":null,"addr:district":null,"addr:province":null,"website":null,"contact:website":null,"phone":null,"contact:phone":null,"opening_hours":null,"brand":null,"z_order":0}}
,{"type":"Feature","geometry":{"type":"Polygon","coordinates":[[[-8236879.36,4966546.75],[-8236869.64,4966573.7],[-8236872.85,4966574.88],[-8236868.9,4966585.85],[-8236847.3,4966577.99],[-8236846.36,4966575.26],[-8236859.26,4966539.45],[-8236860.01,4966539.72],[-8236879.36,4966546.75]]]},"properties":{"osm_id":245132330,"shop":"convenience","building":"yes","name":"CVS","name:en":null,"addr:housenumber":null,"addr:housename":null,"addr:street":null,"addr:city":null,"addr:state":null,"addr:postcode":null,"addr:place":null,"addr:country":null,"addr:hamlet":null,"addr:suburb":null,"addr:subdistrict":null,"addr:district":null,"addr:province":null,"website":null,"contact:website":null,"phone":null,"contact:phone":null,"opening_hours":"Mo-Su 07:00-24:00","brand":"CVS","z_order":0}}
,{"type":"Feature","geometry":{"type":"Polygon","coordinates":[[[-8236870.76,4967765.47],[-8236867.44,4967774.85],[-8236849.08,4967768.29],[-8236852.41,4967758.91],[-8236870.76,4967765.47]]]},"properties":{"osm_id":241836209,"shop":"frame","building":"yes","name":"Jubilee Gallery","name:en":null,"addr:housenumber":"117","addr:housename":null,"addr:street":"Henry Street","addr:city":"Brooklyn","addr:state":null,"addr:postcode":"11201","addr:place":null,"addr:country":null,"addr:hamlet":null,"addr:suburb":null,"addr:subdistrict":null,"addr:district":null,"addr:province":null,"website":"http://jubileegallery.net/","contact:website":null,"phone":null,"contact:phone":null,"opening_hours":null,"brand":null,"z_order":0}}
,{"type":"Feature","geometry":{"type":"Polygon","coordinates":[[[-8236668.88,4968682.04],[-8236667.91,4968702.55],[-8236658,4968702.08],[-8236657.61,4968702.05],[-8236658.58,4968681.54],[-8236668.88,4968682.04]]]},"properties":{"osm_id":250402640,"shop":"bakery","building":"yes","name":"Almondine","name:en":null,"addr:housenumber":"85","addr:housename":null,"addr:street":"Water Street","addr:city":null,"addr:state":null,"addr:postcode":"11201","addr:place":null,"addr:country":null,"addr:hamlet":null,"addr:suburb":null,"addr:subdistrict":null,"addr:district":null,"addr:province":null,"website":null,"contact:website":null,"phone":null,"contact:phone":null,"opening_hours":"Mon- Sat 7am-7pm, Sun 9am- 6pm","brand":null,"z_order":0}}
,{"type":"Feature","geometry":{"type":"Polygon","coordinates":[[[-8236261.42,4966452.32],[-8236259.15,4966456.83],[-8236252.67,4966469.65],[-8236247.46,4966479.94],[-8236239.97,4966476.12],[-8236249.72,4966456.83],[-8236253.92,4966448.51],[-8236261.42,4966452.32]]]},"properties":{"osm_id":248155388,"shop":"alcohol","building":"yes","name":"Free Range Wine & Spirits","name:en":null,"addr:housenumber":"329","addr:housename":null,"addr:street":"Atlantic Avenue","addr:city":"Brooklyn","addr:state":"NY","addr:postcode":"11201","addr:place":null,"addr:country":null,"addr:hamlet":null,"addr:suburb":null,"addr:subdistrict":null,"addr:district":null,"addr:province":null,"website":"http://freerangebrooklyn.com/","contact:website":null,"phone":"+1-718-643-2250","contact:phone":null,"opening_hours":null,"brand":null,"z_order":0}}
,{"type":"Feature","geometry":{"type":"Polygon","coordinates":[[[-8236146.28,4968598.53],[-8236145.34,4968618.46],[-8236102.07,4968616.41],[-8236102.81,4968600.69],[-8236103.01,4968596.49],[-8236111.21,4968596.87],[-8236146.28,4968598.53]]]},"properties":{"osm_id":250386865,"shop":"furniture","building":"yes","name":"From The Source","name:en":null,"addr:housenumber":"65","addr:housename":null,"addr:street":"Jay Street","addr:city":null,"addr:state":null,"addr:postcode":"11201","addr:place":null,"addr:country":null,"addr:hamlet":null,"addr:suburb":null,"addr:subdistrict":null,"addr:district":null,"addr:province":null,"website":null,"contact:website":null,"phone":null,"contact:phone":null,"opening_hours":null,"brand":null,"z_order":0}}
,{"type":"Feature","geometry":{"type":"Polygon","coordinates":[[[-8236115.8,4966528.35],[-8236099.71,4966559.6],[-8236015.01,4966515.76],[-8235995.69,4966506.04],[-8235996.09,4966505.26],[-8235960.29,4966486.85],[-8235959.51,4966488.39],[-8235939.46,4966477.97],[-8235939.91,4966477.02],[-8235952.32,4966451.77],[-8235955.24,4966446.11],[-8235985.99,4966462.13],[-8235979.87,4966473.96],[-8235983.51,4966475.86],[-8235981.16,4966480.41],[-8235984.68,4966482.23],[-8235983.1,4966485.28],[-8235983.91,4966485.82],[-8235983.44,4966486.53],[-8236002.24,4966496.1],[-8236005.2,4966490.24],[-8236003.87,4966489.57],[-8236009.49,4966478.45],[-8236063.29,4966505.88],[-8236065.02,4966502.47],[-8236115.8,4966528.35]]]},"properties":{"osm_id":248165915,"shop":"supermarket","building":"yes","name":"Brooklyn Fare","name:en":null,"addr:housenumber":"200","addr:housename":null,"addr:street":"Schermerhorn Street","addr:city":"Brooklyn","addr:state":null,"addr:postcode":"11201","addr:place":null,"addr:country":null,"addr:hamlet":null,"addr:suburb":null,"addr:subdistrict":null,"addr:district":null,"addr:province":null,"website":"http://www.brooklynfare.com/","contact:website":null,"phone":null,"contact:phone":null,"opening_hours":null,"brand":null,"z_order":0}}
,{"type":"Feature","geometry":{"type":"Polygon","coordinates":[[[-8235810.33,4967406.16],[-8235809.56,4967420.3],[-8235791.87,4967419.33],[-8235792.35,4967410.51],[-8235792.64,4967405.19],[-8235810.33,4967406.16]]]},"properties":{"osm_id":250372646,"shop":"convenience","building":"retail","name":"Bolla Market","name:en":null,"addr:housenumber":"185","addr:housename":null,"addr:street":"Flatbush Avenue Extension","addr:city":null,"addr:state":null,"addr:postcode":"11201","addr:place":null,"addr:country":null,"addr:hamlet":null,"addr:suburb":null,"addr:subdistrict":null,"addr:district":null,"addr:province":null,"website":null,"contact:website":null,"phone":null,"contact:phone":null,"opening_hours":null,"brand":null,"z_order":0}}
,{"type":"Feature","geometry":{"type":"Polygon","coordinates":[[[-8237612.31,4965727.74],[-8237604.25,4965750.08],[-8237596.59,4965747.31],[-8237597.03,4965746.09],[-8237604.65,4965724.96],[-8237612.31,4965727.74]]]},"properties":{"osm_id":241821092,"shop":"bakery","building":"yes","name":"Mazzola Bakery","name:en":null,"addr:housenumber":"192","addr:housename":null,"addr:street":"Union Street","addr:city":"Brooklyn","addr:state":null,"addr:postcode":"11231","addr:place":null,"addr:country":null,"addr:hamlet":null,"addr:suburb":null,"addr:subdistrict":null,"addr:district":null,"addr:province":null,"website":null,"contact:website":null,"phone":"+1 718 643-1719","contact:phone":null,"opening_hours":null,"brand":null,"z_order":0}}
]}
