{"name":"office_point","type":"FeatureCollection"
,"crs":{"type":"name","properties":{"name":"EPSG:3857"}}
,"features":[
{"type":"Feature","geometry":{"type":"Point","coordinates":[-8239301.11,4970185.95]},"properties":{"osm_id":3277678372,"office":"company","name":"American Express","name:en":null,"building":null,"addr:housenumber":null,"addr:housename":null,"addr:street":null,"addr:city":null,"addr:state":null,"addr:postcode":null,"addr:place":null,"addr:country":null,"addr:hamlet":null,"addr:suburb":null,"addr:subdistrict":null,"addr:district":null,"addr:province":null,"website":null,"contact:website":null,"phone":null,"contact:phone":null,"opening_hours":null,"brand":null,"z_order":null}}
,{"type":"Feature","geometry":{"type":"Point","coordinates":[-8238931.9,4969069.68]},"properties":{"osm_id":2609302207,"office":"company","name":"Bitcoin Center NYC","name:en":null,"building":null,"addr:housenumber":"40","addr:housename":null,"addr:street":"Broad Street","addr:city":"New York","addr:state":null,"addr:postcode":"10004","addr:place":null,"addr:country":null,"addr:hamlet":null,"addr:suburb":null,"addr:subdistrict":null,"addr:district":null,"addr:province":null,"website":"http://bitcoincenternyc.com","contact:website":null,"phone":null,"contact:phone":null,"opening_hours":"10:00-22:00","brand":null,"z_order":null}}
,{"type":"Feature","geometry":{"type":"Point","coordinates":[-8238857.75,4969432.86]},"properties":{"osm_id":4680481185,"office":"government","name":"Department of City Planning","name:en":null,"building":null,"addr:housenumber":"120","addr:housename":null,"addr:street":"Broadway","addr:city":"New York","addr:state":"NY","addr:postcode":null,"addr:place":null,"addr:country":null,"addr:hamlet":null,"addr:suburb":null,"addr:subdistrict":null,"addr:district":null,"addr:province":null,"website":null,"contact:website":null,"phone":null,"contact:phone":null,"opening_hours":null,"brand":null,"z_order":null}}
,{"type":"Feature","geometry":{"type":"Point","coordinates":[-8238853.93,4969279.57]},"properties":{"osm_id":2888329151,"office":"lawyer","name":"Robert J. Feldman attorney-at-law","name:en":null,"building":null,"addr:housenumber":"14","addr:housename":null,"addr:street":"Wall Street","addr:city":"New York","addr:state":null,"addr:postcode":"10005","addr:place":null,"addr:country":null,"addr:hamlet":null,"addr:suburb":null,"addr:subdistrict":null,"addr:district":null,"addr:province":null,"website":"http://fireislandlaw.com/","contact:website":null,"phone":"917-657-5177","contact:phone":null,"opening_hours":null,"brand":null,"z_order":null}}
,{"type":"Feature","geometry":{"type":"Point","coordinates":[-8238795.86,4969473.15]},"properties":{"osm_id":2275856089,"office":"company","name":"Brown Brothers Harriman & Trust","name:en":null,"building":null,"addr:housenumber":"140","addr:housename":null,"addr:street":"Broadway","addr:city":null,"addr:state":null,"addr:postcode":null,"addr:place":null,"addr:country":null,"addr:hamlet":null,"addr:suburb":null,"addr:subdistrict":null,"addr:district":null,"addr:province":null,"website":null,"contact:website":null,"phone":null,"contact:phone":null,"opening_hours":null,"brand":null,"z_order":null}}
,{"type":"Feature","geometry":{"type":"Point","coordinates":[-8238742.88,4970962.7]},"properties":{"osm_id":4475004133,"office":"company","name":"Tribeca Language","name:en":null,"building":null,"addr:housenumber":"22","addr:housename":null,"addr:street":"Harrison Street","addr:city":"New York","addr:state":"NY","addr:postcode":"10013","addr:place":null,"addr:country":null,"addr:hamlet":null,"addr:suburb":null,"addr:subdistrict":null,"addr:district":null,"addr:province":null,"website":"http://tribecalanguage.com","contact:website":null,"phone":"+1-212-219-9893","contact:phone":null,"opening_hours":null,"brand":null,"z_order":null}}
,{"type":"Feature","geometry":{"type":"Point","coordinates":[-8238735.09,4969970.86]},"properties":{"osm_id":4402057799,"office":"lawyer","name":"Braschlegal","name:en":null,"building":null,"addr:housenumber":"30","addr:housename":null,"addr:street":"Vesey Street","addr:city":"New York","addr:state":"NY","addr:postcode":"10007","addr:place":null,"addr:country":null,"addr:hamlet":null,"addr:suburb":null,"addr:subdistrict":null,"addr:district":null,"addr:province":null,"website":null,"contact:website":"http://www.braschlegal.com/","phone":null,"contact:phone":"212-267-2500","opening_hours":null,"brand":null,"z_order":null}}
,{"type":"Feature","geometry":{"type":"Point","coordinates":[-8238731.72,4968686.21]},"properties":{"osm_id":1344417127,"office":"accountant","name":"Standard & Poor's","name:en":null,"building":null,"addr:housenumber":null,"addr:housename":null,"addr:street":null,"addr:city":null,"addr:state":null,"addr:postcode":null,"addr:place":null,"addr:country":null,"addr:hamlet":null,"addr:suburb":null,"addr:subdistrict":null,"addr:district":null,"addr:province":null,"website":null,"contact:website":null,"phone":null,"contact:phone":null,"opening_hours":null,"brand":null,"z_order":null}}
,{"type":"Feature","geometry":{"type":"Point","coordinates":[-8238725.92,4969199.58]},"properties":{"osm_id":2790377994,"office":"company","name":"Send A Package Inc.","name:en":null,"building":null,"addr:housenumber":"40","addr:housename":null,"addr:street":"Wall Street","addr:city":null,"addr:state":"NY","addr:postcode":"10005","addr:place":null,"addr:country":null,"addr:hamlet":null,"addr:suburb":null,"addr:subdistrict":null,"addr:district":null,"addr:province":null,"website":"sendapackage.com","contact:website":null,"phone":null,"contact:phone":null,"opening_hours":null,"brand":null,"z_order":null}}
,{"type":"Feature","geometry":{"type":"Point","coordinates":[-8238421.39,4969550.98]},"properties":{"osm_id":3941994114,"office":"government","name":"Social Security Administration","name:en":null,"building":null,"addr:housenumber":"123","addr:housename":null,"addr:street":"William Street","addr:city":null,"addr:state":null,"addr:postcode":null,"addr:place":null,"addr:country":null,"addr:hamlet":null,"addr:suburb":null,"addr:subdistrict":null,"addr:district":null,"addr:province":null,"website":null,"contact:website":null,"phone":null,"contact:phone":null,"opening_hours":null,"brand":null,"z_order":null}}
,{"type":"Feature","geometry":{"type":"Point","coordinates":[-8238418.38,4969470.43]},"properties":{"osm_id":2962522498,"office":"company","name":"Stack Exchange NYC","name:en":null,"building":null,"addr:housenumber":"110","addr:housename":null,"addr:street":"William Street","addr:city":"New York","addr:state":null,"addr:postcode":"10038","addr:place":null,"addr:country":null,"addr:hamlet":null,"addr:suburb":null,"addr:subdistrict":null,"addr:district":null,"addr:province":null,"website":null,"contact:website":null,"phone":null,"contact:phone":null,"opening_hours":null,"brand":null,"z_order":null}}
,{"type":"Feature","geometry":{"type":"Point","coordinates":[-8238345.89,4969365.55]},"properties":{"osm_id":4230862989,"office":"company","name":"90 John Street","name:en":null,"building":null,"addr:housenumber":null,"addr:housename":null,"addr:street":"90 John Street","addr:city":"New York","addr:state":null,"addr:postcode":"10038","addr:place":null,"addr:country":null,"addr:hamlet":null,"addr:suburb":null,"addr:subdistrict":null,"addr:district":null,"addr:province":null,"website":null,"contact:website":null,"phone":null,"contact:phone":null,"opening_hours":null,"brand":null,"z_order":null}}
,{"type":"Feature","geometry":{"type":"Point","coordinates":[-8238318.77,4970382]},"properties":{"osm_id":4465973688,"office":"architect","name":"HG Lee Architects PC","name:en":null,"building":null,"addr:housenumber":"291","addr:housename":null,"addr:street":"Broadway","addr:city":"New York","addr:state":"NY","addr:postcode":"10007","addr:place":null,"addr:country":null,"addr:hamlet":null,"addr:suburb":null,"addr:subdistrict":null,"addr:district":null,"addr:province":null,"website":"http://heginleearchitect.com","contact:website":null,"phone":"+1-212-247-0200","contact:phone":null,"opening_hours":null,"brand":null,"z_order":null}}
,{"type":"Feature","geometry":{"type":"Point","coordinates":[-8238298.8,4974003.54]},"properties":{"osm_id":3883432040,"office":"coworking","name":"WeWork","name:en":null,"building":null,"addr:housenumber":"1","addr:housename":null,"addr:street":"Little West 12th Street","addr:city":"New York","addr:state":"NY","addr:postcode":null,"addr:place":null,"addr:country":null,"addr:hamlet":null,"addr:suburb":null,"addr:subdistrict":null,"addr:district":null,"addr:province":null,"website":null,"contact:website":null,"phone":null,"contact:phone":null,"opening_hours":null,"brand":null,"z_order":null}}
,{"type":"Feature","geometry":{"type":"Point","coordinates":[-8238285.69,4972203.89]},"properties":{"osm_id":3270458561,"office":"company","name":"WeWork SoHo West","name:en":null,"building":null,"addr:housenumber":"175","addr:housename":null,"addr:street":"Varick Street","addr:city":"New York","addr:state":null,"addr:postcode":"10014","addr:place":null,"addr:country":null,"addr:hamlet":null,"addr:suburb":null,"addr:subdistrict":null,"addr:district":null,"addr:province":null,"website":"https://www.wework.com","contact:website":null,"phone":null,"contact:phone":null,"opening_hours":null,"brand":null,"z_order":null}}
,{"type":"Feature","geometry":{"type":"Point","coordinates":[-8238256.9,4972038.84]},"properties":{"osm_id":2551316458,"office":"company","name":"Adafruit Industries","name:en":null,"building":null,"addr:housenumber":"150","addr:housename":null,"addr:street":"Varick Street","addr:city":"New York","addr:state":"NY","addr:postcode":"10013","addr:place":null,"addr:country":"US","addr:hamlet":null,"addr:suburb":null,"addr:subdistrict":null,"addr:district":null,"addr:province":null,"website":"http://www.adafruit.com/","contact:website":null,"phone":null,"contact:phone":null,"opening_hours":null,"brand":null,"z_order":null}}
,{"type":"Feature","geometry":{"type":"Point","coordinates":[-8237907,4972290.39]},"properties":{"osm_id":2562450557,"office":"notary","name":"Something Special","name:en":null,"building":null,"addr:housenumber":"51","addr:housename":null,"addr:street":"Mac Dougal Street","addr:city":null,"addr:state":null,"addr:postcode":"10014","addr:place":null,"addr:country":null,"addr:hamlet":null,"addr:suburb":null,"addr:subdistrict":null,"addr:district":null,"addr:province":null,"website":null,"contact:website":null,"phone":null,"contact:phone":null,"opening_hours":null,"brand":null,"z_order":null}}
,{"type":"Feature","geometry":{"type":"Point","coordinates":[-8237782.44,4975917.7]},"properties":{"osm_id":4590997819,"office":"startup","name":"Sidewalk Labs","name:en":null,"building":null,"addr:housenumber":"10","addr:housename":null,"addr:street":"Hudson Yards","addr:city":"New York","addr:state":"NY","addr:postcode":"10001","addr:place":null,"addr:country":null,"addr:hamlet":null,"addr:suburb":null,"addr:subdistrict":null,"addr:district":null,"addr:province":null,"website":null,"contact:website":null,"phone":null,"contact:phone":null,"opening_hours":null,"brand":null,"z_order":null}}
,{"type":"Feature","geometry":{"type":"Point","coordinates":[-8237364.35,4971775.49]},"properties":{"osm_id":2547109290,"office":"company","name":"Armani Exchange","name:en":null,"building":null,"addr:housenumber":null,"addr:housename":null,"addr:street":null,"addr:city":null,"addr:state":null,"addr:postcode":null,"addr:place":null,"addr:country":null,"addr:hamlet":null,"addr:suburb":null,"addr:subdistrict":null,"addr:district":null,"addr:province":null,"website":"https://www.coinsetter.com/","contact:website":null,"phone":null,"contact:phone":null,"opening_hours":null,"brand":null,"z_order":null}}
,{"type":"Feature","geometry":{"type":"Point","coordinates":[-8237323.2,4971400.73]},"properties":{"osm_id":3214617215,"office":"company","name":"Bitcoin Center NYC","name:en":null,"building":null,"addr:housenumber":"25","addr:housename":null,"addr:street":"Cleveland Place","addr:city":"New York","addr:state":"NY","addr:postcode":"10012","addr:place":null,"addr:country":null,"addr:hamlet":null,"addr:suburb":null,"addr:subdistrict":null,"addr:district":null,"addr:province":null,"website":"http://bitcoincenternyc.com","contact:website":null,"phone":null,"contact:phone":null,"opening_hours":"10:00-22:00","brand":null,"z_order":null}}
,{"type":"Feature","geometry":{"type":"Point","coordinates":[-8237011.04,4971991.96]},"properties":{"osm_id":2578562385,"office":"company","name":"Turtle Conservancy","name:en":null,"building":null,"addr:housenumber":"49","addr:housename":null,"addr:street":"Bleecker Street","addr:city":"New York","addr:state":null,"addr:postcode":"10012","addr:place":null,"addr:country":null,"addr:hamlet":null,"addr:suburb":null,"addr:subdistrict":null,"addr:district":null,"addr:province":null,"website":"http://www.turtleconservancy.org/","contact:website":null,"phone":"+1 (212) 353-5060","contact:phone":null,"opening_hours":"Mo-Fr 10:00-18:00","brand":null,"z_order":null}}
,{"type":"Feature","geometry":{"type":"Point","coordinates":[-8236995.99,4975397.8]},"properties":{"osm_id":4680778157,"office":"company","name":"Blippar","name:en":null,"building":null,"addr:housenumber":"236","addr:housename":null,"addr:street":"West 30 Street","addr:city":"New York","addr:state":"NY","addr:postcode":"10001","addr:place":null,"addr:country":null,"addr:hamlet":null,"addr:suburb":null,"addr:subdistrict":null,"addr:district":null,"addr:province":null,"website":"https://blippar.com","contact:website":null,"phone":null,"contact:phone":null,"opening_hours":null,"brand":null,"z_order":null}}
,{"type":"Feature","geometry":{"type":"Point","coordinates":[-8236975.42,4968469.65]},"properties":{"osm_id":567511526,"office":"religion","name":"Watchtower Bible and Tract Society","name:en":null,"building":null,"addr:housenumber":"25","addr:housename":null,"addr:street":"Columbia Heights","addr:city":null,"addr:state":null,"addr:postcode":"11201-2483","addr:place":null,"addr:country":null,"addr:hamlet":null,"addr:suburb":null,"addr:subdistrict":null,"addr:district":null,"addr:province":null,"website":null,"contact:website":null,"phone":null,"contact:phone":null,"opening_hours":null,"brand":null,"z_order":null}}
,{"type":"Feature","geometry":{"type":"Point","coordinates":[-8236876.19,4975994.38]},"properties":{"osm_id":2635631924,"office":"accountant","name":"Morse & Company - Tax and Accounting Firm","name:en":null,"building":null,"addr:housenumber":null,"addr:housename":"Morse & Company","addr:street":"505th 8th Avenue Suite 1801","addr:city":"New York","addr:state":"NY","addr:postcode":"10018-4527","addr:place":null,"addr:country":"US","addr:hamlet":null,"addr:suburb":null,"addr:subdistrict":null,"addr:district":null,"addr:province":null,"website":"www.morsetax.com","contact:website":null,"phone":"212-765-2200","contact:phone":null,"opening_hours":"Mo-Fr 8:00-20:00","brand":null,"z_order":null}}
,{"type":"Feature","geometry":{"type":"Point","coordinates":[-8236854.28,4975163.38]},"properties":{"osm_id":4021259442,"office":"ngo","name":"Doctors Without Borders","name:en":null,"building":null,"addr:housenumber":"333","addr:housename":null,"addr:street":"7th Avenue","addr:city":"New York","addr:state":null,"addr:postcode":"10001","addr:place":null,"addr:country":null,"addr:hamlet":null,"addr:suburb":null,"addr:subdistrict":null,"addr:district":null,"addr:province":null,"website":null,"contact:website":null,"phone":null,"contact:phone":null,"opening_hours":null,"brand":null,"z_order":null}}
,{"type":"Feature","geometry":{"type":"Point","coordinates":[-8236780.13,4975320.81]},"properties":{"osm_id":2380045819,"office":"lawyer","name":"Nesenoff & Miltenberg LLP","name:en":null,"building":null,"addr:housenumber":"363","addr:housename":null,"addr:street":"7th Avenue","addr:city":"New York","addr:state":"NY","addr:postcode":null,"addr:place":null,"addr:country":"US","addr:hamlet":null,"addr:suburb":null,"addr:subdistrict":null,"addr:district":null,"addr:province":null,"website":"http://nmllplaw.com/","contact:website":null,"phone":null,"contact:phone":null,"opening_hours":null,"brand":null,"z_order":null}}
,{"type":"Feature","geometry":{"type":"Point","coordinates":[-8236661.1,4974252.12]},"properties":{"osm_id":1883802649,"office":"company","name":"XVIO","name:en":null,"building":null,"addr:housenumber":"20","addr:housename":null,"addr:street":"West 22nd Street","addr:city":null,"addr:state":"NY","addr:postcode":"10010","addr:place":null,"addr:country":"US","addr:hamlet":null,"addr:suburb":null,"addr:subdistrict":null,"addr:district":null,"addr:province":null,"website":null,"contact:website":null,"phone":null,"contact:phone":null,"opening_hours":null,"brand":null,"z_order":null}}
,{"type":"Feature","geometry":{"type":"Point","coordinates":[-8236633.55,4972144.5]},"properties":{"osm_id":4113144391,"office":"government","name":"Manhattan Community Board 3","name:en":null,"building":null,"addr:housenumber":"59","addr:housename":null,"addr:street":"East 4th Street","addr:city":null,"addr:state":null,"addr:postcode":"10003","addr:place":null,"addr:country":null,"addr:hamlet":null,"addr:suburb":null,"addr:subdistrict":null,"addr:district":null,"addr:province":null,"website":null,"contact:website":null,"phone":null,"contact:phone":null,"opening_hours":null,"brand":null,"z_order":null}}
,{"type":"Feature","geometry":{"type":"Point","coordinates":[-8236570.61,4974685.65]},"properties":{"osm_id":2688438317,"office":"company","name":"Samsung Accelerator","name:en":null,"building":null,"addr:housenumber":"30","addr:housename":null,"addr:street":"West 26th Street","addr:city":"New York","addr:state":"NY","addr:postcode":"10010","addr:place":null,"addr:country":null,"addr:hamlet":null,"addr:suburb":null,"addr:subdistrict":null,"addr:district":null,"addr:province":null,"website":"http://samsungaccelerator.com","contact:website":null,"phone":null,"contact:phone":null,"opening_hours":null,"brand":null,"z_order":null}}
,{"type":"Feature","geometry":{"type":"Point","coordinates":[-8236568.25,4974689.45]},"properties":{"osm_id":3958246944,"office":"company","name":"Mapzen","name:en":null,"building":null,"addr:housenumber":"30","addr:housename":null,"addr:street":"West 26th Street","addr:city":"New York","addr:state":"NY","addr:postcode":"10010","addr:place":null,"addr:country":null,"addr:hamlet":null,"addr:suburb":null,"addr:subdistrict":null,"addr:district":null,"addr:province":null,"website":"https://mapzen.com","contact:website":null,"phone":null,"contact:phone":null,"opening_hours":null,"brand":null,"z_order":null}}
,{"type":"Feature","geometry":{"type":"Point","coordinates":[-8236503.87,4974024.41]},"properties":{"osm_id":4338775634,"office":"company","name":"Sonobi","name:en":null,"building":null,"addr:housenumber":"915","addr:housename":null,"addr:street":"Broadway","addr:city":"New York","addr:state":"NY","addr:postcode":"10010","addr:place":null,"addr:country":null,"addr:hamlet":null,"addr:suburb":null,"addr:subdistrict":null,"addr:district":null,"addr:province":null,"website":"http://sonobi.com","contact:website":null,"phone":"212-796-4579","contact:phone":null,"opening_hours":null,"brand":null,"z_order":null}}
,{"type":"Feature","geometry":{"type":"Point","coordinates":[-8236380.37,4972240.74]},"properties":{"osm_id":2563653916,"office":"company","name":"Glasnost Precious Metals","name:en":null,"building":null,"addr:housenumber":null,"addr:housename":null,"addr:street":null,"addr:city":null,"addr:state":null,"addr:postcode":null,"addr:place":null,"addr:country":null,"addr:hamlet":null,"addr:suburb":null,"addr:subdistrict":null,"addr:district":null,"addr:province":null,"website":null,"contact:website":null,"phone":null,"contact:phone":null,"opening_hours":null,"brand":null,"z_order":null}}
,{"type":"Feature","geometry":{"type":"Point","coordinates":[-8236295.93,4970318.03]},"properties":{"osm_id":2841380838,"office":"company","name":"BrieHost","name:en":null,"building":null,"addr:housenumber":null,"addr:housename":null,"addr:street":null,"addr:city":null,"addr:state":null,"addr:postcode":null,"addr:place":null,"addr:country":null,"addr:hamlet":null,"addr:suburb":null,"addr:subdistrict":null,"addr:district":null,"addr:province":null,"website":"https://www.briehost.com/","contact:website":null,"phone":null,"contact:phone":null,"opening_hours":null,"brand":null,"z_order":null}}
,{"type":"Feature","geometry":{"type":"Point","coordinates":[-8236281.04,4974750.34]},"properties":{"osm_id":2555992944,"office":"company","name":"BKLTD.co","name:en":null,"building":null,"addr:housenumber":"244","addr:housename":null,"addr:street":"5th Avenue","addr:city":"New York","addr:state":"NY","addr:postcode":"10001","addr:place":null,"addr:country":"US","addr:hamlet":null,"addr:suburb":null,"addr:subdistrict":null,"addr:district":null,"addr:province":null,"website":"http://bkltd.co/","contact:website":null,"phone":null,"contact:phone":null,"opening_hours":null,"brand":null,"z_order":null}}
,{"type":"Feature","geometry":{"type":"Point","coordinates":[-8236276.92,4975815.52]},"properties":{"osm_id":3501487382,"office":"company","name":"NICE Actimize","name:en":null,"building":null,"addr:housenumber":null,"addr:housename":null,"addr:street":null,"addr:city":null,"addr:state":null,"addr:postcode":null,"addr:place":null,"addr:country":null,"addr:hamlet":null,"addr:suburb":null,"addr:subdistrict":null,"addr:district":null,"addr:province":null,"website":null,"contact:website":null,"phone":null,"contact:phone":null,"opening_hours":null,"brand":null,"z_order":null}}
,{"type":"Feature","geometry":{"type":"Point","coordinates":[-8236158.95,4968817.73]},"properties":{"osm_id":2903008059,"office":"company","name":"Brooklyn United","name:en":null,"building":null,"addr:housenumber":"20","addr:housename":null,"addr:street":"Jay Street","addr:city":"Brooklyn","addr:state":null,"addr:postcode":"11201","addr:place":null,"addr:country":null,"addr:hamlet":null,"addr:suburb":null,"addr:subdistrict":null,"addr:district":null,"addr:province":null,"website":null,"contact:website":null,"phone":null,"contact:phone":null,"opening_hours":"10am - 6pm","brand":null,"z_order":null}}
,{"type":"Feature","geometry":{"type":"Point","coordinates":[-8236063.57,4976059.67]},"properties":{"osm_id":2489419027,"office":"yes","name":"The Verge New York Office","name:en":null,"building":null,"addr:housenumber":"104","addr:housename":null,"addr:street":"West 40th Street","addr:city":"New York","addr:state":"NY","addr:postcode":"10018","addr:place":null,"addr:country":"US","addr:hamlet":null,"addr:suburb":null,"addr:subdistrict":null,"addr:district":null,"addr:province":null,"website":null,"contact:website":null,"phone":null,"contact:phone":null,"opening_hours":null,"brand":null,"z_order":null}}
,{"type":"Feature","geometry":{"type":"Point","coordinates":[-8236020.7,4974676.05]},"properties":{"osm_id":2706918079,"office":"coworking","name":"WeWork","name:en":null,"building":null,"addr:housenumber":"79","addr:housename":null,"addr:street":"Madison Avenue","addr:city":"New York","addr:state":"NY","addr:postcode":"10016","addr:place":null,"addr:country":null,"addr:hamlet":null,"addr:suburb":null,"addr:subdistrict":null,"addr:district":null,"addr:province":null,"website":null,"contact:website":null,"phone":null,"contact:phone":null,"opening_hours":null,"brand":null,"z_order":null}}
,{"type":"Feature","geometry":{"type":"Point","coordinates":[-8235971.3,4974766.61]},"properties":{"osm_id":2554250887,"office":"company","name":"DG Interactive","name:en":null,"building":null,"addr:housenumber":"9*9","addr:housename":null,"addr:street":"Madison Avenue","addr:city":"New York","addr:state":"NY","addr:postcode":"10016","addr:place":null,"addr:country":"US","addr:hamlet":null,"addr:suburb":null,"addr:subdistrict":null,"addr:district":null,"addr:province":null,"website":"http://dg-interactive.com/","contact:website":null,"phone":null,"contact:phone":null,"opening_hours":null,"brand":null,"z_order":null}}
,{"type":"Feature","geometry":{"type":"Point","coordinates":[-8235960.38,4972373.92]},"properties":{"osm_id":2555203223,"office":"lawyer","name":"Jonathan Lefkowitz Attorney at Law","name:en":null,"building":null,"addr:housenumber":"151","addr:housename":null,"addr:street":"1st Avenue","addr:city":"New York","addr:state":null,"addr:postcode":"10003","addr:place":null,"addr:country":null,"addr:hamlet":null,"addr:suburb":null,"addr:subdistrict":null,"addr:district":null,"addr:province":null,"website":"http://www.lefkowitz-law.com/","contact:website":null,"phone":null,"contact:phone":null,"opening_hours":null,"brand":null,"z_order":null}}
,{"type":"Feature","geometry":{"type":"Point","coordinates":[-8235867.32,4975052.55]},"properties":{"osm_id":2878095264,"office":"company","name":"SchiffGold","name:en":null,"building":null,"addr:housenumber":"152","addr:housename":null,"addr:street":"Madison Avenue","addr:city":"New York","addr:state":"NY","addr:postcode":"10016","addr:place":null,"addr:country":"US","addr:hamlet":null,"addr:suburb":null,"addr:subdistrict":null,"addr:district":null,"addr:province":null,"website":"http://www.schiffgold.com","contact:website":null,"phone":"1-888-465-3160 / 212-481-0310","contact:phone":null,"opening_hours":null,"brand":null,"z_order":null}}
,{"type":"Feature","geometry":{"type":"Point","coordinates":[-8235576.78,4975909.95]},"properties":{"osm_id":2569497878,"office":"lawyer","name":"The Forefront Law Group","name:en":null,"building":null,"addr:housenumber":"489","addr:housename":"Suite 3100","addr:street":"5th Avenue","addr:city":"New York","addr:state":null,"addr:postcode":"10017","addr:place":null,"addr:country":null,"addr:hamlet":null,"addr:suburb":null,"addr:subdistrict":null,"addr:district":null,"addr:province":null,"website":"http://www.the-forefront.com/","contact:website":null,"phone":null,"contact:phone":null,"opening_hours":null,"brand":null,"z_order":null}}
,{"type":"Feature","geometry":{"type":"Point","coordinates":[-8235538.08,4976097.45]},"properties":{"osm_id":4418672239,"office":"it","name":"Don Peterson","name:en":null,"building":null,"addr:housenumber":"500","addr:housename":null,"addr:street":"5th Avenue","addr:city":"New York","addr:state":"NY","addr:postcode":"10110","addr:place":null,"addr:country":null,"addr:hamlet":null,"addr:suburb":null,"addr:subdistrict":null,"addr:district":null,"addr:province":null,"website":"https://newark1.com","contact:website":null,"phone":null,"contact:phone":null,"opening_hours":null,"brand":null,"z_order":null}}
,{"type":"Feature","geometry":{"type":"Point","coordinates":[-8235529.76,4975644.93]},"properties":{"osm_id":2885548500,"office":"lawyer","name":"McLaughlin & Stern LLP - New York, NY","name:en":null,"building":null,"addr:housenumber":"260","addr:housename":null,"addr:street":"Madison Avenue","addr:city":"New York","addr:state":null,"addr:postcode":"10016","addr:place":null,"addr:country":null,"addr:hamlet":null,"addr:suburb":null,"addr:subdistrict":null,"addr:district":null,"addr:province":null,"website":"http://www.mclaughlinstern.com/","contact:website":null,"phone":"(212) 448-1100","contact:phone":null,"opening_hours":null,"brand":null,"z_order":null}}
,{"type":"Feature","geometry":{"type":"Point","coordinates":[-8235454.6,4975784.36]},"properties":{"osm_id":3661019455,"office":"company","name":"RJS Pest Management","name:en":null,"building":null,"addr:housenumber":"286","addr:housename":null,"addr:street":"Madison Avenue","addr:city":"New York","addr:state":"NY","addr:postcode":null,"addr:place":null,"addr:country":null,"addr:hamlet":null,"addr:suburb":null,"addr:subdistrict":null,"addr:district":null,"addr:province":null,"website":"http://www.rjspest.com/","contact:website":null,"phone":"(212) 896-1299","contact:phone":null,"opening_hours":null,"brand":null,"z_order":null}}
,{"type":"Feature","geometry":{"type":"Point","coordinates":[-8235423.82,4975730.28]},"properties":{"osm_id":3938667582,"office":"ngo","name":"Rosa Luxemburg Foundation, New York Office","name:en":null,"building":null,"addr:housenumber":"275","addr:housename":null,"addr:street":"Madison Avenue","addr:city":"New York","addr:state":"NY","addr:postcode":"10016","addr:place":null,"addr:country":null,"addr:hamlet":null,"addr:suburb":null,"addr:subdistrict":null,"addr:district":null,"addr:province":null,"website":"http://rosalux-nyc.org/","contact:website":null,"phone":null,"contact:phone":null,"opening_hours":"Mo-Fr 09:00-17:00","brand":null,"z_order":null}}
,{"type":"Feature","geometry":{"type":"Point","coordinates":[-8234847.08,4975786.9]},"properties":{"osm_id":4217644287,"office":"company","name":"Record Nations","name:en":null,"building":null,"addr:housenumber":"132","addr:housename":null,"addr:street":"E 43rd St","addr:city":"New York","addr:state":"NY","addr:postcode":"10017","addr:place":null,"addr:country":null,"addr:hamlet":null,"addr:suburb":null,"addr:subdistrict":null,"addr:district":null,"addr:province":null,"website":"https://www.recordnations.com/featured/new-york-city","contact:website":null,"phone":"(917) 633-4642","contact:phone":null,"opening_hours":null,"brand":null,"z_order":null}}
,{"type":"Feature","geometry":{"type":"Point","coordinates":[-8234691.26,4975887.85]},"properties":{"osm_id":2706772156,"office":"company","name":"Awesomeness Reminders, LLC","name:en":null,"building":null,"addr:housenumber":"708","addr:housename":null,"addr:street":"3rd Avenue","addr:city":"New York","addr:state":null,"addr:postcode":"10017","addr:place":null,"addr:country":null,"addr:hamlet":null,"addr:suburb":null,"addr:subdistrict":null,"addr:district":null,"addr:province":null,"website":"http://www.awesomenessreminders.com/","contact:website":null,"phone":"+1 800 381 6478","contact:phone":null,"opening_hours":null,"brand":null,"z_order":null}}
,{"type":"Feature","geometry":{"type":"Point","coordinates":[-8234640.19,4975777.95]},"properties":{"osm_id":3843687176,"office":"government","name":"Oficina de empadronamiento electoral de Bolivia en el exterior","name:en":null,"building":null,"addr:housenumber":"1004","addr:housename":null,"addr:street":"East 44th Street","addr:city":"New York","addr:state":null,"addr:postcode":null,"addr:place":null,"addr:country":null,"addr:hamlet":null,"addr:suburb":null,"addr:subdistrict":null,"addr:district":null,"addr:province":null,"website":"http://yoparticipo.oep.org.bo/","contact:website":null,"phone":null,"contact:phone":null,"opening_hours":null,"brand":null,"z_order":null}}
,{"type":"Feature","geometry":{"type":"Point","coordinates":[-8234141.67,4975670.93]},"properties":{"osm_id":2711628474,"office":"government","name":"UN Visitors Check-in Office","name:en":null,"building":null,"addr:housenumber":"801","addr:housename":null,"addr:street":"1st Avenue","addr:city":null,"addr:state":null,"addr:postcode":"10017","addr:place":null,"addr:country":null,"addr:hamlet":null,"addr:suburb":null,"addr:subdistrict":null,"addr:district":null,"addr:province":null,"website":"http://visit.un.org/","contact:website":null,"phone":null,"contact:phone":null,"opening_hours":null,"brand":null,"z_order":null}}
,{"type":"Feature","geometry":{"type":"Point","coordinates":[-8238360.98,4976354]},"properties":{"osm_id":4205806451,"office":"company","name":"BLADE Operations","name:en":null,"building":null,"addr:housenumber":null,"addr:housename":null,"addr:street":null,"addr:city":null,"addr:state":null,"addr:postcode":null,"addr:place":null,"addr:country":null,"addr:hamlet":null,"addr:suburb":null,"addr:subdistrict":null,"addr:district":null,"addr:province":null,"website":null,"contact:website":null,"phone":"(844)-359-2523","contact:phone":null,"opening_hours":"24/7","brand":null,"z_order":null}}
,{"type":"Feature","geometry":{"type":"Point","coordinates":[-8237187.08,4977523.31]},"properties":{"osm_id":2538336710,"office":"company","name":"Ogilvy & Mather","name:en":null,"building":null,"addr:housenumber":"636","addr:housename":null,"addr:street":"11th Avenue","addr:city":"New York","addr:state":null,"addr:postcode":"10036","addr:place":null,"addr:country":null,"addr:hamlet":null,"addr:suburb":null,"addr:subdistrict":null,"addr:district":null,"addr:province":null,"website":null,"contact:website":null,"phone":null,"contact:phone":null,"opening_hours":null,"brand":null,"z_order":null}}
,{"type":"Feature","geometry":{"type":"Point","coordinates":[-8235735.39,4976227.66]},"properties":{"osm_id":4503855910,"office":"company","name":"Bain & Company","name:en":null,"building":null,"addr:housenumber":"1114","addr:housename":null,"addr:street":"6th Avenue","addr:city":"New York","addr:state":"NY","addr:postcode":"10036","addr:place":null,"addr:country":null,"addr:hamlet":null,"addr:suburb":null,"addr:subdistrict":null,"addr:district":null,"addr:province":null,"website":"http://www.bain.com/offices/newyork/en_us/index.aspx","contact:website":null,"phone":"+16465628000","contact:phone":null,"opening_hours":null,"brand":null,"z_order":null}}
,{"type":"Feature","geometry":{"type":"Point","coordinates":[-8235127.38,4977199.31]},"properties":{"osm_id":3054623864,"office":"architect","name":"Cesar Pelli Architect","name:en":null,"building":null,"addr:housenumber":null,"addr:housename":null,"addr:street":null,"addr:city":null,"addr:state":null,"addr:postcode":null,"addr:place":null,"addr:country":null,"addr:hamlet":null,"addr:suburb":null,"addr:subdistrict":null,"addr:district":null,"addr:province":null,"website":null,"contact:website":null,"phone":null,"contact:phone":null,"opening_hours":null,"brand":null,"z_order":null}}
,{"type":"Feature","geometry":{"type":"Point","coordinates":[-8235078.79,4976516.02]},"properties":{"osm_id":2542518429,"office":"psychiatrist","name":"Pradeep Atluri, MD, PhD (Psychiatrist)","name:en":null,"building":null,"addr:housenumber":"Suite 1202","addr:housename":"Mindsci Psychiatric","addr:street":"18th East 48th Street","addr:city":"New York","addr:state":null,"addr:postcode":"10017","addr:place":null,"addr:country":null,"addr:hamlet":null,"addr:suburb":null,"addr:subdistrict":null,"addr:district":null,"addr:province":null,"website":"http://dr.mindsci.com","contact:website":null,"phone":"+1 212 682 7777","contact:phone":null,"opening_hours":"9:00-20:00","brand":null,"z_order":null}}
,{"type":"Feature","geometry":{"type":"Point","coordinates":[-8235070.4,4976516.37]},"properties":{"osm_id":2616102259,"office":"physician","name":"Cosmetic & Implant Dental Associates","name:en":null,"building":null,"addr:housenumber":"18","addr:housename":null,"addr:street":"East 48th Street","addr:city":"New York","addr:state":null,"addr:postcode":"10017","addr:place":null,"addr:country":null,"addr:hamlet":null,"addr:suburb":null,"addr:subdistrict":null,"addr:district":null,"addr:province":null,"website":"http://www.drmagner.com/","contact:website":null,"phone":"+1 212 223 3800","contact:phone":null,"opening_hours":null,"brand":null,"z_order":null}}
,{"type":"Feature","geometry":{"type":"Point","coordinates":[-8234729.72,4976843.18]},"properties":{"osm_id":2275805031,"office":"company","name":"BlackRock Headquarters","name:en":null,"building":null,"addr:housenumber":null,"addr:housename":null,"addr:street":null,"addr:city":null,"addr:state":null,"addr:postcode":null,"addr:place":null,"addr:country":null,"addr:hamlet":null,"addr:suburb":null,"addr:subdistrict":null,"addr:district":null,"addr:province":null,"website":null,"contact:website":null,"phone":null,"contact:phone":null,"opening_hours":null,"brand":null,"z_order":null}}
,{"type":"Feature","geometry":{"type":"Point","coordinates":[-8234615.83,4976694.03]},"properties":{"osm_id":2275805032,"office":"company","name":"The Blackstone Group","name:en":null,"building":null,"addr:housenumber":"345","addr:housename":null,"addr:street":"Park Avenue","addr:city":null,"addr:state":null,"addr:postcode":null,"addr:place":null,"addr:country":null,"addr:hamlet":null,"addr:suburb":null,"addr:subdistrict":null,"addr:district":null,"addr:province":null,"website":null,"contact:website":null,"phone":null,"contact:phone":null,"opening_hours":null,"brand":null,"z_order":null}}
,{"type":"Feature","geometry":{"type":"Point","coordinates":[-8234377.4,4977343.23]},"properties":{"osm_id":3908413579,"office":"ngo","name":"Council on Foreign Relations","name:en":"Council on Foreign Relations","building":null,"addr:housenumber":null,"addr:housename":null,"addr:street":null,"addr:city":null,"addr:state":null,"addr:postcode":null,"addr:place":null,"addr:country":null,"addr:hamlet":null,"addr:suburb":null,"addr:subdistrict":null,"addr:district":null,"addr:province":null,"website":"http://www.cfr.org/","contact:website":null,"phone":null,"contact:phone":null,"opening_hours":null,"brand":null,"z_order":null}}
,{"type":"Feature","geometry":{"type":"Point","coordinates":[-8234364.19,4976344.21]},"properties":{"osm_id":4531545716,"office":"lawyer","name":"Egan Law Firm","name:en":null,"building":null,"addr:housenumber":"805","addr:housename":null,"addr:street":"3rd Avenue","addr:city":"New York","addr:state":"NY","addr:postcode":"10022","addr:place":null,"addr:country":null,"addr:hamlet":null,"addr:suburb":null,"addr:subdistrict":null,"addr:district":null,"addr:province":null,"website":"http://eganlawfirm.com","contact:website":null,"phone":"+1-212-619-8456","contact:phone":null,"opening_hours":"Mo-Fr 09:00-19:00","brand":null,"z_order":null}}
,{"type":"Feature","geometry":{"type":"Point","coordinates":[-8234317.63,4977092.36]},"properties":{"osm_id":4586571779,"office":"estate_agent","name":"Eduard Zaytsev Real Estate","name:en":null,"building":null,"addr:housenumber":"125","addr:housename":null,"addr:street":"East 56th Street","addr:city":"New York","addr:state":null,"addr:postcode":"10022","addr:place":null,"addr:country":null,"addr:hamlet":null,"addr:suburb":null,"addr:subdistrict":null,"addr:district":null,"addr:province":null,"website":null,"contact:website":null,"phone":null,"contact:phone":null,"opening_hours":null,"brand":null,"z_order":null}}
,{"type":"Feature","geometry":{"type":"Point","coordinates":[-8233144.92,4984252.69]},"properties":{"osm_id":4004385973,"office":"research","name":"Sustainable Engineering Lab","name:en":null,"building":null,"addr:housenumber":"500","addr:housename":null,"addr:street":"West 120th Street","addr:city":null,"addr:state":null,"addr:postcode":null,"addr:place":null,"addr:country":null,"addr:hamlet":null,"addr:suburb":null,"addr:subdistrict":null,"addr:district":null,"addr:province":null,"website":null,"contact:website":null,"phone":null,"contact:phone":null,"opening_hours":null,"brand":null,"z_order":null}}
,{"type":"Feature","geometry":{"type":"Point","coordinates":[-8231684.36,4985374.69]},"properties":{"osm_id":3545220717,"office":"financial","name":"RiteCheck","name:en":null,"building":null,"addr:housenumber":"2533","addr:housename":null,"addr:street":"Frederick Douglass Boulevard","addr:city":"New York","addr:state":null,"addr:postcode":null,"addr:place":null,"addr:country":null,"addr:hamlet":null,"addr:suburb":null,"addr:subdistrict":null,"addr:district":null,"addr:province":null,"website":null,"contact:website":null,"phone":null,"contact:phone":null,"opening_hours":"24/7","brand":null,"z_order":null}}
,{"type":"Feature","geometry":{"type":"Point","coordinates":[-8231350.4,4985268.25]},"properties":{"osm_id":3545220723,"office":"estate_agent","name":"Real Estate","name:en":null,"building":null,"addr:housenumber":"201","addr:housename":null,"addr:street":"West 136th Street","addr:city":"New York","addr:state":null,"addr:postcode":null,"addr:place":null,"addr:country":null,"addr:hamlet":null,"addr:suburb":null,"addr:subdistrict":null,"addr:district":null,"addr:province":null,"website":null,"contact:website":null,"phone":"+1 212 380 6620","contact:phone":null,"opening_hours":null,"brand":null,"z_order":null}}
,{"type":"Feature","geometry":{"type":"Point","coordinates":[-8231140.46,4986255.07]},"properties":{"osm_id":4450329793,"office":"telecommunication","name":"T-Mobile","name:en":"T-Mobile","building":null,"addr:housenumber":null,"addr:housename":null,"addr:street":null,"addr:city":null,"addr:state":null,"addr:postcode":null,"addr:place":null,"addr:country":null,"addr:hamlet":null,"addr:suburb":null,"addr:subdistrict":null,"addr:district":null,"addr:province":null,"website":null,"contact:website":null,"phone":null,"contact:phone":null,"opening_hours":null,"brand":null,"z_order":null}}
,{"type":"Feature","geometry":{"type":"Point","coordinates":[-8230525.59,4989593.62]},"properties":{"osm_id":4269472702,"office":"company","name":"Signs R Us","name:en":null,"building":null,"addr:housenumber":"575","addr:housename":null,"addr:street":"West 175th Street","addr:city":"New York","addr:state":"NY","addr:postcode":"10033","addr:place":null,"addr:country":null,"addr:hamlet":null,"addr:suburb":null,"addr:subdistrict":null,"addr:district":null,"addr:province":null,"website":"http://signsofallkind.com","contact:website":null,"phone":"+1 212 3467850","contact:phone":null,"opening_hours":null,"brand":null,"z_order":null}}
,{"type":"Feature","geometry":{"type":"Point","coordinates":[-8235809.79,4978197.12]},"properties":{"osm_id":1383910297,"office":"company","name":"Time Warner","name:en":null,"building":null,"addr:housenumber":null,"addr:housename":null,"addr:street":null,"addr:city":null,"addr:state":null,"addr:postcode":null,"addr:place":null,"addr:country":null,"addr:hamlet":null,"addr:suburb":null,"addr:subdistrict":null,"addr:district":null,"addr:province":null,"website":null,"contact:website":null,"phone":null,"contact:phone":null,"opening_hours":null,"brand":null,"z_order":null}}
,{"type":"Feature","geometry":{"type":"Point","coordinates":[-8235801.61,4977956.94]},"properties":{"osm_id":1383905311,"office":"company","name":"The Hearst Corporation","name:en":null,"building":null,"addr:housenumber":null,"addr:housename":null,"addr:street":null,"addr:city":null,"addr:state":null,"addr:postcode":null,"addr:place":null,"addr:country":null,"addr:hamlet":null,"addr:suburb":null,"addr:subdistrict":null,"addr:district":null,"addr:province":null,"website":null,"contact:website":null,"phone":null,"contact:phone":null,"opening_hours":null,"brand":null,"z_order":null}}
,{"type":"Feature","geometry":{"type":"Point","coordinates":[-8235718.61,4978222.64]},"properties":{"osm_id":3785207157,"office":"company","name":"CNN Headquarters","name:en":null,"building":null,"addr:housenumber":"10","addr:housename":null,"addr:street":"Columbus Circle","addr:city":"New York","addr:state":"NY","addr:postcode":"10019","addr:place":null,"addr:country":null,"addr:hamlet":null,"addr:suburb":null,"addr:subdistrict":null,"addr:district":null,"addr:province":null,"website":null,"contact:website":null,"phone":"212-275-7800","contact:phone":null,"opening_hours":"24/7","brand":null,"z_order":null}}
,{"type":"Feature","geometry":{"type":"Point","coordinates":[-8235713.74,4978080.83]},"properties":{"osm_id":1383921230,"office":"company","name":"Steelcase","name:en":null,"building":null,"addr:housenumber":null,"addr:housename":null,"addr:street":null,"addr:city":null,"addr:state":null,"addr:postcode":null,"addr:place":null,"addr:country":null,"addr:hamlet":null,"addr:suburb":null,"addr:subdistrict":null,"addr:district":null,"addr:province":null,"website":null,"contact:website":null,"phone":null,"contact:phone":null,"opening_hours":null,"brand":null,"z_order":null}}
,{"type":"Feature","geometry":{"type":"Point","coordinates":[-8235358.44,4977810.18]},"properties":{"osm_id":4141759368,"office":"telecommunication","name":"T-Mobile","name:en":null,"building":null,"addr:housenumber":"167","addr:housename":null,"addr:street":"West 57th Street","addr:city":null,"addr:state":null,"addr:postcode":null,"addr:place":null,"addr:country":null,"addr:hamlet":null,"addr:suburb":null,"addr:subdistrict":null,"addr:district":null,"addr:province":null,"website":null,"contact:website":null,"phone":null,"contact:phone":null,"opening_hours":null,"brand":null,"z_order":null}}
,{"type":"Feature","geometry":{"type":"Point","coordinates":[-8234921.02,4980271.61]},"properties":{"osm_id":2439240909,"office":"estate_agent","name":"Halstead Property","name:en":null,"building":null,"addr:housenumber":"408","addr:housename":null,"addr:street":"Columbus Avenue","addr:city":null,"addr:state":null,"addr:postcode":"10024","addr:place":null,"addr:country":null,"addr:hamlet":null,"addr:suburb":null,"addr:subdistrict":null,"addr:district":null,"addr:province":null,"website":"www.halstead.com","contact:website":null,"phone":"+1 212 769-3000","contact:phone":null,"opening_hours":null,"brand":null,"z_order":null}}
,{"type":"Feature","geometry":{"type":"Point","coordinates":[-8234484.43,4981061.67]},"properties":{"osm_id":2438940208,"office":"ngo","name":"Common Cents","name:en":null,"building":null,"addr:housenumber":"570","addr:housename":null,"addr:street":"Columbus Avenue","addr:city":null,"addr:state":"NY","addr:postcode":null,"addr:place":null,"addr:country":"US","addr:hamlet":null,"addr:suburb":null,"addr:subdistrict":null,"addr:district":null,"addr:province":null,"website":"http://commoncents.org/","contact:website":null,"phone":"+1 212 579 0579","contact:phone":null,"opening_hours":null,"brand":null,"z_order":null}}
,{"type":"Feature","geometry":{"type":"Point","coordinates":[-8234356.21,4982198.65]},"properties":{"osm_id":4133640121,"office":"company","name":"Shred Nations","name:en":null,"building":null,"addr:housenumber":"2576","addr:housename":null,"addr:street":"Broadway","addr:city":"New York","addr:state":"NY","addr:postcode":"10025","addr:place":null,"addr:country":null,"addr:hamlet":null,"addr:suburb":null,"addr:subdistrict":null,"addr:district":null,"addr:province":null,"website":"https://www.shrednations.com/new-york","contact:website":null,"phone":"(646) 593-8584","contact:phone":null,"opening_hours":null,"brand":null,"z_order":null}}
,{"type":"Feature","geometry":{"type":"Point","coordinates":[-8233855.82,4978415.89]},"properties":{"osm_id":4549080332,"office":"government","name":"Consulate General of Austria","name:en":null,"building":null,"addr:housenumber":"31","addr:housename":null,"addr:street":"East 69th Street","addr:city":"New York","addr:state":"NY","addr:postcode":"10021","addr:place":null,"addr:country":null,"addr:hamlet":null,"addr:suburb":null,"addr:subdistrict":null,"addr:district":null,"addr:province":null,"website":null,"contact:website":null,"phone":"+1 (212) 737 6400","contact:phone":null,"opening_hours":null,"brand":null,"z_order":null}}
,{"type":"Feature","geometry":{"type":"Point","coordinates":[-8233812.35,4978346.74]},"properties":{"osm_id":2723866677,"office":"government","name":"Consulate General of Italy","name:en":null,"building":null,"addr:housenumber":"690","addr:housename":null,"addr:street":"Park Avenue","addr:city":"New York","addr:state":"NY","addr:postcode":"10065","addr:place":null,"addr:country":null,"addr:hamlet":null,"addr:suburb":null,"addr:subdistrict":null,"addr:district":null,"addr:province":null,"website":null,"contact:website":null,"phone":"(212) 737-9100","contact:phone":null,"opening_hours":null,"brand":null,"z_order":null}}
,{"type":"Feature","geometry":{"type":"Point","coordinates":[-8233611.73,4979446.81]},"properties":{"osm_id":3278932330,"office":"educational_institution","name":"Cultural Services of the French Embassy","name:en":null,"building":null,"addr:housenumber":"972","addr:housename":null,"addr:street":"5th Avenue","addr:city":"New York","addr:state":"NY","addr:postcode":"10021","addr:place":null,"addr:country":null,"addr:hamlet":null,"addr:suburb":null,"addr:subdistrict":null,"addr:district":null,"addr:province":null,"website":null,"contact:website":null,"phone":null,"contact:phone":null,"opening_hours":null,"brand":null,"z_order":null}}
,{"type":"Feature","geometry":{"type":"Point","coordinates":[-8233519.61,4982079.24]},"properties":{"osm_id":2307188434,"office":"accountant","name":"Prudent Vanguard","name:en":null,"building":null,"addr:housenumber":"405","addr:housename":null,"addr:street":"Central Park West","addr:city":"New York","addr:state":null,"addr:postcode":null,"addr:place":null,"addr:country":null,"addr:hamlet":null,"addr:suburb":null,"addr:subdistrict":null,"addr:district":null,"addr:province":null,"website":null,"contact:website":null,"phone":"+1 212-749-9000","contact:phone":null,"opening_hours":null,"brand":null,"z_order":null}}
,{"type":"Feature","geometry":{"type":"Point","coordinates":[-8233459.13,4978698.2]},"properties":{"osm_id":2723920630,"office":"company","name":"New York Carpet Cleaning","name:en":null,"building":null,"addr:housenumber":"113","addr:housename":null,"addr:street":"East 73rd Street","addr:city":"New York","addr:state":"NY","addr:postcode":"10021","addr:place":null,"addr:country":"US","addr:hamlet":null,"addr:suburb":null,"addr:subdistrict":null,"addr:district":null,"addr:province":null,"website":null,"contact:website":null,"phone":null,"contact:phone":null,"opening_hours":null,"brand":null,"z_order":null}}
,{"type":"Feature","geometry":{"type":"Point","coordinates":[-8233267.02,4979414.63]},"properties":{"osm_id":2625642634,"office":"physician","name":"HM Acupuncture in Upper East Side NYC","name:en":null,"building":null,"addr:housenumber":"66e","addr:housename":null,"addr:street":"East 80th Street","addr:city":"New York","addr:state":null,"addr:postcode":"NY 10075","addr:place":null,"addr:country":null,"addr:hamlet":null,"addr:suburb":null,"addr:subdistrict":null,"addr:district":null,"addr:province":null,"website":"http://www.acubetter.com/","contact:website":null,"phone":"+1 212 744 0704","contact:phone":null,"opening_hours":null,"brand":null,"z_order":null}}
,{"type":"Feature","geometry":{"type":"Point","coordinates":[-8231918.59,4978577.42]},"properties":{"osm_id":2706768774,"office":"company","name":"World Class Domina","name:en":null,"building":null,"addr:housenumber":"508","addr:housename":null,"addr:street":"East 79th Street","addr:city":"New York","addr:state":null,"addr:postcode":"NY 10075","addr:place":null,"addr:country":null,"addr:hamlet":null,"addr:suburb":null,"addr:subdistrict":null,"addr:district":null,"addr:province":null,"website":"http://www.worldclassdomina.com/","contact:website":null,"phone":"+1 646 807 5467","contact:phone":null,"opening_hours":null,"brand":null,"z_order":null}}
,{"type":"Feature","geometry":{"type":"Point","coordinates":[-8231065.28,4983719.78]},"properties":{"osm_id":3661038142,"office":"accountant","name":"R&G Brenner Income Tax","name:en":null,"building":null,"addr:housenumber":null,"addr:housename":null,"addr:street":null,"addr:city":null,"addr:state":null,"addr:postcode":null,"addr:place":null,"addr:country":null,"addr:hamlet":null,"addr:suburb":null,"addr:subdistrict":null,"addr:district":null,"addr:province":null,"website":null,"contact:website":null,"phone":null,"contact:phone":null,"opening_hours":null,"brand":null,"z_order":null}}
]}
