{"name":"office_polygon","type":"FeatureCollection"
,"crs":{"type":"name","properties":{"name":"EPSG:3857"}}
,"features":[
{"type":"Feature","geometry":{"type":"Polygon","coordinates":[[[-8238860.11,4974052.28],[-8238859.03,4974070.02],[-8238856.23,4974116.92],[-8238833.98,4974115.57],[-8238832.74,4974135.83],[-8238819.45,4974135.02],[-8238776.62,4974132.42],[-8238754.59,4974131.09],[-8238759.39,4974052.26],[-8238781.42,4974053.6],[-8238800.65,4974054.77],[-8238805.2,4974055.04],[-8238804.59,4974065.13],[-8238835.41,4974067.01],[-8238836.4,4974050.82],[-8238860.11,4974052.28]]]},"properties":{"osm_id":250490292,"office":"administration","name":"Department of Sanitation","name:en":null,"building":"office","addr:housenumber":"2","addr:housename":null,"addr:street":"Bloomfield Street","addr:city":null,"addr:state":null,"addr:postcode":"10014","addr:place":null,"addr:country":null,"addr:hamlet":null,"addr:suburb":null,"addr:subdistrict":null,"addr:district":null,"addr:province":null,"website":null,"contact:website":null,"phone":null,"contact:phone":null,"opening_hours":null,"brand":null,"z_order":0}}
,{"type":"Feature","geometry":{"type":"Polygon","coordinates":[[[-8236544.38,4975300.38],[-8236540.64,4975307.17],[-8236528.09,4975330.31],[-8236526.07,4975333.9],[-8236525.04,4975335.71],[-8236523.21,4975338.97],[-8236520.41,4975343.92],[-8236517.56,4975348.97],[-8236515.4,4975352.79],[-8236505.84,4975370.22],[-8236489.48,4975361.13],[-8236483.21,4975357.64],[-8236481.36,4975356.62],[-8236494.15,4975333.44],[-8236503.35,4975316.78],[-8236506.14,4975311.72],[-8236519.91,4975286.77],[-8236544.38,4975300.38]]]},"properties":{"osm_id":264685228,"office":"yes","name":null,"name:en":null,"building":"commercial","addr:housenumber":null,"addr:housename":null,"addr:street":null,"addr:city":null,"addr:state":null,"addr:postcode":null,"addr:place":null,"addr:country":null,"addr:hamlet":null,"addr:suburb":null,"addr:subdistrict":null,"addr:district":null,"addr:province":null,"website":null,"contact:website":null,"phone":null,"contact:phone":null,"opening_hours":null,"brand":null,"z_order":0}}
,{"type":"Feature","geometry":{"type":"Polygon","coordinates":[[[-8236479.08,4973721.94],[-8236461.49,4973753.59],[-8236453.98,4973749.39],[-8236452.93,4973748.8],[-8236455.1,4973744.91],[-8236437.79,4973735.23],[-8236453.22,4973707.46],[-8236479.08,4973721.94]]]},"properties":{"osm_id":248773549,"office":"company","name":"Dstillery","name:en":null,"building":"yes","addr:housenumber":"37","addr:housename":null,"addr:street":"East 18th Street","addr:city":"New York","addr:state":null,"addr:postcode":"10003","addr:place":null,"addr:country":null,"addr:hamlet":null,"addr:suburb":null,"addr:subdistrict":null,"addr:district":null,"addr:province":null,"website":"www.dstillery.com","contact:website":null,"phone":null,"contact:phone":null,"opening_hours":null,"brand":null,"z_order":0}}
,{"type":"Feature","geometry":{"type":"Polygon","coordinates":[[[-8236108.42,4976405.95],[-8236108.42,4976409.02],[-8236107.98,4976412.89],[-8236107.42,4976417.5],[-8236094.23,4976471.23],[-8236093.56,4976473.39],[-8236092.68,4976475.08],[-8236090.72,4976477.4],[-8236088.47,4976478.94],[-8236085.75,4976479.93],[-8236083.82,4976480.19],[-8236081.41,4976480.03],[-8236078.91,4976479.28],[-8236076.9,4976478.15],[-8235996.6,4976430.48],[-8236012.24,4976402.14],[-8236035.89,4976359.3],[-8236064.7,4976374.19],[-8236065.19,4976373.32],[-8236086.47,4976385.26],[-8236096.57,4976391.86],[-8236102.67,4976396.21],[-8236106.05,4976399.66],[-8236107.6,4976402.38],[-8236108.42,4976405.95]]]},"properties":{"osm_id":86121620,"office":"company","name":"Cond√© Nast Building","name:en":null,"building":"yes","addr:housenumber":"4","addr:housename":null,"addr:street":"Times Square","addr:city":null,"addr:state":null,"addr:postcode":null,"addr:place":null,"addr:country":null,"addr:hamlet":null,"addr:suburb":null,"addr:subdistrict":null,"addr:district":null,"addr:province":null,"website":null,"contact:website":null,"phone":null,"contact:phone":null,"opening_hours":null,"brand":null,"z_order":0}}
,{"type":"Feature","geometry":{"type":"Polygon","coordinates":[[[-8234700.9,4977063.09],[-8234691.82,4977078.92],[-8234676.72,4977105.84],[-8234644.86,4977087.78],[-8234669.06,4977045.07],[-8234682.95,4977052.8],[-8234700.9,4977063.09]]]},"properties":{"osm_id":146109229,"office":"company","name":"Dillon, Read & Company Building","name:en":null,"building":"yes","addr:housenumber":"535","addr:housename":null,"addr:street":"Madison Avenue","addr:city":"New York","addr:state":null,"addr:postcode":"10022","addr:place":null,"addr:country":null,"addr:hamlet":null,"addr:suburb":null,"addr:subdistrict":null,"addr:district":null,"addr:province":null,"website":"http://www.535mad.com/","contact:website":null,"phone":null,"contact:phone":null,"opening_hours":null,"brand":null,"z_order":0}}
,{"type":"Feature","geometry":{"type":"Polygon","coordinates":[[[-8234533.21,4975645.11],[-8234530.94,4975649.19],[-8234528.81,4975653.1],[-8234518.44,4975672.07],[-8234513.63,4975680.88],[-8234519.87,4975684.27],[-8234515.46,4975692.35],[-8234508.17,4975688.37],[-8234507.04,4975687.75],[-8234499.03,4975683.29],[-8234481.42,4975673.57],[-8234505.41,4975629.75],[-8234533.21,4975645.11]]]},"properties":{"osm_id":265516429,"office":"religion","name":"The Episcopal Church Center","name:en":null,"building":"commercial","addr:housenumber":null,"addr:housename":null,"addr:street":null,"addr:city":null,"addr:state":null,"addr:postcode":null,"addr:place":null,"addr:country":null,"addr:hamlet":null,"addr:suburb":null,"addr:subdistrict":null,"addr:district":null,"addr:province":null,"website":null,"contact:website":null,"phone":null,"contact:phone":null,"opening_hours":null,"brand":null,"z_order":0}}
,{"type":"Feature","geometry":{"type":"Polygon","coordinates":[[[-8234481.96,4975501.1],[-8234481.21,4975502.48],[-8234449.49,4975560.1],[-8234448.75,4975561.45],[-8234386.43,4975526.88],[-8234388.05,4975523.94],[-8234394,4975513.12],[-8234399.18,4975503.72],[-8234399.43,4975503.28],[-8234419.65,4975466.53],[-8234481.96,4975501.1]]]},"properties":{"osm_id":265517922,"office":"foundation","name":"Ford Foundation","name:en":null,"building":"commercial","addr:housenumber":null,"addr:housename":null,"addr:street":null,"addr:city":null,"addr:state":null,"addr:postcode":null,"addr:place":null,"addr:country":null,"addr:hamlet":null,"addr:suburb":null,"addr:subdistrict":null,"addr:district":null,"addr:province":null,"website":"http://www.fordfoundation.org","contact:website":null,"phone":null,"contact:phone":null,"opening_hours":null,"brand":null,"z_order":0}}
,{"type":"Feature","geometry":{"type":"Polygon","coordinates":[[[-8234134.7,4975904.07],[-8234115.17,4975939.49],[-8234107.15,4975935.23],[-8234083.21,4975921.72],[-8234080.26,4975920.08],[-8234099.24,4975885.69],[-8234099.79,4975884.68],[-8234134.7,4975904.07]]]},"properties":{"osm_id":265512015,"office":"educational_institution","name":"Japan Society","name:en":null,"building":"yes","addr:housenumber":"333","addr:housename":null,"addr:street":"East 47th Street","addr:city":"New York","addr:state":"NY","addr:postcode":"10017","addr:place":null,"addr:country":null,"addr:hamlet":null,"addr:suburb":null,"addr:subdistrict":null,"addr:district":null,"addr:province":null,"website":"http://www.japansociety.org","contact:website":null,"phone":"(212) 832-1155","contact:phone":null,"opening_hours":null,"brand":null,"z_order":0}}
,{"type":"Feature","geometry":{"type":"Polygon","coordinates":[[[-8232287.61,4986209.85],[-8232285.18,4986214.19],[-8232282.58,4986215.09],[-8232266.79,4986206.19],[-8232269.44,4986201.45],[-8232271.68,4986200.86],[-8232287.61,4986209.85]]]},"properties":{"osm_id":271908077,"office":"company","name":"bitegraphics","name:en":null,"building":"yes","addr:housenumber":"52","addr:housename":null,"addr:street":"Hamilton Place","addr:city":"New York","addr:state":null,"addr:postcode":"10031","addr:place":null,"addr:country":null,"addr:hamlet":null,"addr:suburb":null,"addr:subdistrict":null,"addr:district":null,"addr:province":null,"website":"https://www.facebook.com/bite.graphics","contact:website":null,"phone":"+1 787 242 4671","contact:phone":null,"opening_hours":null,"brand":null,"z_order":0}}
,{"type":"Feature","geometry":{"type":"Polygon","coordinates":[[[-8235566.82,4979006.24],[-8235547.84,4979040.67],[-8235495.14,4979011.37],[-8235514.12,4978976.96],[-8235566.82,4979006.24]]]},"properties":{"osm_id":269219555,"office":"company","name":null,"name:en":null,"building":"yes","addr:housenumber":"147","addr:housename":null,"addr:street":"Columbus Avenue","addr:city":null,"addr:state":null,"addr:postcode":"10023","addr:place":null,"addr:country":null,"addr:hamlet":null,"addr:suburb":null,"addr:subdistrict":null,"addr:district":null,"addr:province":null,"website":null,"contact:website":null,"phone":null,"contact:phone":null,"opening_hours":null,"brand":null,"z_order":0}}
,{"type":"Feature","geometry":{"type":"Polygon","coordinates":[[[-8235547.84,4979040.67],[-8235528.4,4979075.89],[-8235475.71,4979046.59],[-8235479.56,4979039.6],[-8235495.14,4979011.37],[-8235547.84,4979040.67]]]},"properties":{"osm_id":269219599,"office":"company","name":null,"name:en":null,"building":"yes","addr:housenumber":null,"addr:housename":null,"addr:street":null,"addr:city":null,"addr:state":null,"addr:postcode":null,"addr:place":null,"addr:country":null,"addr:hamlet":null,"addr:suburb":null,"addr:subdistrict":null,"addr:district":null,"addr:province":null,"website":null,"contact:website":null,"phone":null,"contact:phone":null,"opening_hours":null,"brand":null,"z_order":0}}
,{"type":"Feature","geometry":{"type":"Polygon","coordinates":[[[-8235452.16,4978942.52],[-8235437.25,4978969.52],[-8235393.57,4978945.24],[-8235389.19,4978953.18],[-8235354.63,4978933.96],[-8235373.91,4978899.02],[-8235452.16,4978942.52]]]},"properties":{"osm_id":269219550,"office":"company","name":"ABC News Headquarters","name:en":null,"building":"yes","addr:housenumber":"47","addr:housename":null,"addr:street":"West 66th Street","addr:city":null,"addr:state":null,"addr:postcode":"10023","addr:place":null,"addr:country":null,"addr:hamlet":null,"addr:suburb":null,"addr:subdistrict":null,"addr:district":null,"addr:province":null,"website":null,"contact:website":null,"phone":null,"contact:phone":null,"opening_hours":null,"brand":null,"z_order":0}}
,{"type":"Feature","geometry":{"type":"Polygon","coordinates":[[[-8231829.81,4984251.76],[-8231819.09,4984271.26],[-8231815.98,4984269.54],[-8231814.87,4984271.56],[-8231812.2,4984270.09],[-8231810.94,4984272.37],[-8231808.31,4984270.91],[-8231809.37,4984268.99],[-8231807.39,4984267.9],[-8231806.5,4984269.51],[-8231801.56,4984266.78],[-8231802.59,4984264.88],[-8231800.64,4984263.81],[-8231799.83,4984265.28],[-8231791.17,4984260.48],[-8231791.43,4984260.03],[-8231789.12,4984258.75],[-8231788.67,4984259.59],[-8231773.29,4984251.07],[-8231773.59,4984250.51],[-8231763.03,4984244.66],[-8231763.76,4984243.34],[-8231761.76,4984242.22],[-8231760.7,4984244.16],[-8231755.96,4984241.54],[-8231757.13,4984239.41],[-8231755.07,4984238.26],[-8231754.01,4984240.19],[-8231751.4,4984238.73],[-8231752.62,4984236.48],[-8231749.95,4984235.01],[-8231751.05,4984233.01],[-8231748,4984231.32],[-8231758.59,4984212.07],[-8231761.86,4984213.88],[-8231762.85,4984212.07],[-8231765.47,4984213.51],[-8231766.73,4984211.23],[-8231769.1,4984212.54],[-8231768.09,4984214.38],[-8231770.21,4984215.55],[-8231771.04,4984214.02],[-8231775.78,4984216.64],[-8231775.09,4984217.89],[-8231777.48,4984219.22],[-8231778.05,4984218.19],[-8231780.92,4984219.77],[-8231780.26,4984220.97],[-8231782.65,4984222.29],[-8231783.9,4984220.02],[-8231809.77,4984234.35],[-8231808.53,4984236.61],[-8231811,4984237.98],[-8231811.66,4984236.76],[-8231814.44,4984238.29],[-8231813.77,4984239.51],[-8231815.91,4984240.7],[-8231816.56,4984239.51],[-8231821.72,4984242.36],[-8231820.78,4984244.07],[-8231822.6,4984245.07],[-8231823.78,4984242.94],[-8231826.48,4984244.44],[-8231825.4,4984246.41],[-8231827.9,4984247.79],[-8231826.67,4984250.01],[-8231829.81,4984251.76]]]},"properties":{"osm_id":271798907,"office":"government","name":"Adam Clayton Powell Jr. State Office Building","name:en":null,"building":"yes","addr:housenumber":"163","addr:housename":null,"addr:street":"West 126th Street","addr:city":"New York","addr:state":null,"addr:postcode":"10027","addr:place":null,"addr:country":null,"addr:hamlet":null,"addr:suburb":null,"addr:subdistrict":null,"addr:district":null,"addr:province":null,"website":null,"contact:website":null,"phone":null,"contact:phone":null,"opening_hours":null,"brand":null,"z_order":0}}
,{"type":"Feature","geometry":{"type":"Polygon","coordinates":[[[-8236137.89,4975313.49],[-8236135.98,4975317.09],[-8236120.37,4975345.43],[-8236118.47,4975348.89],[-8236100.83,4975380.92],[-8235953.14,4975297.35],[-8235989.82,4975231.1],[-8236137.89,4975313.49]]]},"properties":{"osm_id":34633854,"office":"yes","name":"Empire State Building","name:en":null,"building":"office","addr:housenumber":"350","addr:housename":null,"addr:street":"5th Avenue","addr:city":"New York City","addr:state":"NY","addr:postcode":"10018","addr:place":null,"addr:country":null,"addr:hamlet":null,"addr:suburb":null,"addr:subdistrict":null,"addr:district":null,"addr:province":null,"website":"http://www.esbnyc.com/explore","contact:website":null,"phone":null,"contact:phone":null,"opening_hours":null,"brand":null,"z_order":0}}
,{"type":"Feature","geometry":{"type":"Polygon","coordinates":[[[-8236585.18,4976417.19],[-8236583.55,4976420.1],[-8236584.28,4976420.62],[-8236556.13,4976470.89],[-8236555.56,4976470.46],[-8236554.59,4976472.2],[-8236551.93,4976470.73],[-8236541.74,4976465.06],[-8236538.36,4976471.1],[-8236538,4976471.74],[-8236508.43,4976455.31],[-8236508.8,4976454.67],[-8236512.17,4976448.63],[-8236497.4,4976440.41],[-8236492.85,4976448.27],[-8236409.72,4976401.7],[-8236410.47,4976400.14],[-8236409.39,4976399.56],[-8236425.4,4976370.31],[-8236429.55,4976362.71],[-8236445.55,4976333.53],[-8236530.69,4976380.33],[-8236527.99,4976385.39],[-8236542.77,4976393.6],[-8236546.11,4976387.59],[-8236546.44,4976386.98],[-8236576.01,4976403.42],[-8236575.7,4976403.98],[-8236572.33,4976410.03],[-8236582.78,4976415.85],[-8236585.18,4976417.19]],[[-8236517.57,4976402.44],[-8236492.68,4976388.43],[-8236478.41,4976413.91],[-8236503.3,4976427.98],[-8236517.57,4976402.44]]]},"properties":{"osm_id":-1860567,"office":"newspaper","name":"The New York Times Building","name:en":null,"building":"yes","addr:housenumber":"620","addr:housename":null,"addr:street":"8th Avenue","addr:city":null,"addr:state":null,"addr:postcode":null,"addr:place":null,"addr:country":null,"addr:hamlet":null,"addr:suburb":null,"addr:subdistrict":null,"addr:district":null,"addr:province":null,"website":null,"contact:website":null,"phone":null,"contact:phone":null,"opening_hours":null,"brand":null,"z_order":0}}
,{"type":"Feature","geometry":{"type":"Polygon","coordinates":[[[-8238673.32,4969458.4],[-8238632.01,4969505.61],[-8238583.81,4969431.35],[-8238543.49,4969365.44],[-8238562.67,4969340.36],[-8238673.32,4969458.4]]]},"properties":{"osm_id":474024826,"office":"government","name":"Federal Reserve Bank","name:en":null,"building":"yes","addr:housenumber":null,"addr:housename":null,"addr:street":null,"addr:city":null,"addr:state":null,"addr:postcode":null,"addr:place":null,"addr:country":null,"addr:hamlet":null,"addr:suburb":null,"addr:subdistrict":null,"addr:district":null,"addr:province":null,"website":null,"contact:website":null,"phone":null,"contact:phone":null,"opening_hours":null,"brand":null,"z_order":0}}
]}
