{"name":"shop_polygon","type":"FeatureCollection"
,"crs":{"type":"name","properties":{"name":"EPSG:3857"}}
,"features":[
{"type":"Feature","geometry":{"type":"Polygon","coordinates":[[[-8235032,4980869.86],[-8235028.15,4980876.83],[-8235023.49,4980874.23],[-8235024.02,4980873.25],[-8235021.41,4980871.8],[-8235020.52,4980873.4],[-8235001.52,4980862.83],[-8235006.29,4980854.2],[-8235025.29,4980864.77],[-8235024.43,4980866.32],[-8235027.06,4980867.77],[-8235027.34,4980867.26],[-8235032,4980869.86]]]},"properties":{"osm_id":270901659,"shop":"bicycle","building":"yes","name":"Eddie's Bicycles","name:en":null,"addr:housenumber":"490","addr:housename":null,"addr:street":"Amsterdam Avenue","addr:city":"New York","addr:state":"NY","addr:postcode":"10024","addr:place":null,"addr:country":"US","addr:hamlet":null,"addr:suburb":null,"addr:subdistrict":null,"addr:district":null,"addr:province":null,"website":"http://eddiesbicycles.net","contact:website":null,"phone":null,"contact:phone":null,"opening_hours":"Mo-Fr 09:00-19:00; Sa,Su 09:30-18:00","brand":null,"z_order":0}}
,{"type":"Feature","geometry":{"type":"Polygon","coordinates":[[[-8235027.23,4980878.5],[-8235023.39,4980885.46],[-8235018.72,4980882.87],[-8235019.26,4980881.9],[-8235016.63,4980880.44],[-8235015.75,4980882.05],[-8235008.7,4980878.12],[-8235002.48,4980874.67],[-8234996.75,4980871.48],[-8235001.52,4980862.83],[-8235020.52,4980873.4],[-8235019.67,4980874.95],[-8235022.29,4980876.4],[-8235022.56,4980875.9],[-8235027.23,4980878.5]]]},"properties":{"osm_id":270901658,"shop":"boutique","building":"yes","name":"Darryl's","name:en":null,"addr:housenumber":"492","addr:housename":null,"addr:street":"Amsterdam Avenue","addr:city":"New York","addr:state":"NY","addr:postcode":"10024","addr:place":null,"addr:country":"US","addr:hamlet":null,"addr:suburb":null,"addr:subdistrict":null,"addr:district":null,"addr:province":null,"website":null,"contact:website":null,"phone":null,"contact:phone":null,"opening_hours":null,"brand":null,"z_order":0}}
,{"type":"Feature","geometry":{"type":"Polygon","coordinates":[[[-8234910.24,4981556.72],[-8234900.17,4981575.01],[-8234845.25,4981544.52],[-8234844.2,4981542.43],[-8234862.94,4981508.42],[-8234881.04,4981518.46],[-8234877.85,4981524.26],[-8234894.61,4981533.56],[-8234890.16,4981541.66],[-8234905.48,4981550.18],[-8234903.83,4981553.16],[-8234910.24,4981556.72]]]},"properties":{"osm_id":270967853,"shop":"supermarket","building":"yes","name":"Food Emporium","name:en":null,"addr:housenumber":"2415","addr:housename":null,"addr:street":"Broadway","addr:city":"New York","addr:state":"NY","addr:postcode":"10024","addr:place":null,"addr:country":"US","addr:hamlet":null,"addr:suburb":null,"addr:subdistrict":null,"addr:district":null,"addr:province":null,"website":null,"contact:website":null,"phone":"+1 212 873 4031","contact:phone":null,"opening_hours":"Mo-Sa 07:00-23:00; Su 07:00-22:00","brand":null,"z_order":0}}
,{"type":"Feature","geometry":{"type":"Polygon","coordinates":[[[-8234657.48,4981514.51],[-8234638.24,4981549.44],[-8234626.13,4981542.74],[-8234645.37,4981507.79],[-8234656.37,4981513.89],[-8234657.48,4981514.51]]]},"properties":{"osm_id":270967894,"shop":"funeral_directors","building":"yes","name":"Plaza Jewish Community Chapel","name:en":null,"addr:housenumber":"630","addr:housename":null,"addr:street":"Amsterdam Avenue","addr:city":"New York","addr:state":"NY","addr:postcode":"10024","addr:place":null,"addr:country":"US","addr:hamlet":null,"addr:suburb":null,"addr:subdistrict":null,"addr:district":null,"addr:province":null,"website":"http://www.plazajewishcommunitychapel.org","contact:website":null,"phone":null,"contact:phone":null,"opening_hours":null,"brand":null,"z_order":0}}
,{"type":"Feature","geometry":{"type":"Polygon","coordinates":[[[-8234623.52,4981618.27],[-8234620.33,4981624.14],[-8234616.38,4981621.96],[-8234615.41,4981621.75],[-8234609.3,4981618.33],[-8234607.38,4981618.68],[-8234600.44,4981614.87],[-8234601.45,4981613.02],[-8234599.21,4981611.78],[-8234598.19,4981613.65],[-8234589.09,4981608.65],[-8234593.88,4981599.86],[-8234602.98,4981604.84],[-8234602.13,4981606.4],[-8234604.39,4981607.64],[-8234605.24,4981606.08],[-8234612.31,4981609.96],[-8234613.09,4981611.52],[-8234619.2,4981614.93],[-8234620.13,4981616.42],[-8234623.52,4981618.27]]]},"properties":{"osm_id":270969987,"shop":"laundry","building":"yes","name":"N.Y. Wash & Laundry","name:en":null,"addr:housenumber":"648","addr:housename":null,"addr:street":"Amsterdam Avenue","addr:city":"New York","addr:state":"NY","addr:postcode":"10025","addr:place":null,"addr:country":"US","addr:hamlet":null,"addr:suburb":null,"addr:subdistrict":null,"addr:district":null,"addr:province":null,"website":null,"contact:website":null,"phone":null,"contact:phone":null,"opening_hours":null,"brand":null,"z_order":0}}
,{"type":"Feature","geometry":{"type":"Polygon","coordinates":[[[-8234618.39,4981454.15],[-8234615.55,4981459.24],[-8234616.68,4981459.87],[-8234589.61,4981508.41],[-8234588.47,4981507.77],[-8234585.42,4981513.23],[-8234566.41,4981502.54],[-8234569.3,4981497.36],[-8234567.91,4981496.58],[-8234581.37,4981472.46],[-8234583.44,4981473.62],[-8234586.99,4981467.27],[-8234584.62,4981465.93],[-8234594.71,4981447.83],[-8234596.11,4981448.62],[-8234599.08,4981443.3],[-8234618.39,4981454.15]]]},"properties":{"osm_id":270969992,"shop":"beauty","building":"yes","name":"Lux Nail & Spa","name:en":null,"addr:housenumber":"175","addr:housename":null,"addr:street":"West 90th Street","addr:city":"New York","addr:state":"NY","addr:postcode":"10024","addr:place":null,"addr:country":"US","addr:hamlet":null,"addr:suburb":null,"addr:subdistrict":null,"addr:district":null,"addr:province":null,"website":"www.luxnailspa.com","contact:website":null,"phone":null,"contact:phone":null,"opening_hours":"Mo-Fr 10:00-17:30; Sa 10:00-20:00; Su 10:00-19:00","brand":null,"z_order":0}}
,{"type":"Feature","geometry":{"type":"Polygon","coordinates":[[[-8234523.12,4981998.7],[-8234500.52,4982040.08],[-8234498.72,4982040.48],[-8234491.17,4982036.3],[-8234457.13,4982017.49],[-8234473.2,4981985.54],[-8234477.08,4981977.84],[-8234486.22,4981982.82],[-8234488.38,4981978.87],[-8234490.19,4981978.28],[-8234522.38,4981996],[-8234523.12,4981998.7]]]},"properties":{"osm_id":270991632,"shop":"mobile_phone","building":"yes","name":"AT&T","name:en":null,"addr:housenumber":"2540","addr:housename":null,"addr:street":"Broadway","addr:city":"New York","addr:state":"NY","addr:postcode":"10025","addr:place":null,"addr:country":"US","addr:hamlet":null,"addr:suburb":null,"addr:subdistrict":null,"addr:district":null,"addr:province":null,"website":null,"contact:website":null,"phone":null,"contact:phone":null,"opening_hours":"Mo-Sa 10:00-21:00; Su 10:00-18:00","brand":null,"z_order":0}}
,{"type":"Feature","geometry":{"type":"Polygon","coordinates":[[[-8234514.69,4981817.27],[-8234509.99,4981825.91],[-8234500.99,4981820.99],[-8234501.56,4981819.94],[-8234496.25,4981817.03],[-8234495.12,4981819.08],[-8234491.14,4981816.9],[-8234490.72,4981815.43],[-8234487.07,4981813.43],[-8234485.6,4981813.62],[-8234478.45,4981809.7],[-8234483.71,4981800.04],[-8234490.92,4981803.99],[-8234491.46,4981805.84],[-8234494.73,4981807.64],[-8234496.45,4981807.42],[-8234500.46,4981809.62],[-8234499.36,4981811.67],[-8234504.13,4981814.28],[-8234505.31,4981812.12],[-8234514.69,4981817.27]]]},"properties":{"osm_id":270977375,"shop":"convenience","building":"yes","name":"New Amsterdam Drug Mart","name:en":null,"addr:housenumber":"698","addr:housename":null,"addr:street":"Amsterdam Avenue","addr:city":"New York","addr:state":"NY","addr:postcode":"10025","addr:place":null,"addr:country":"US","addr:hamlet":null,"addr:suburb":null,"addr:subdistrict":null,"addr:district":null,"addr:province":null,"website":null,"contact:website":null,"phone":"+1 212-865-9700","contact:phone":null,"opening_hours":null,"brand":null,"z_order":0}}
,{"type":"Feature","geometry":{"type":"Polygon","coordinates":[[[-8234435.75,4982085.63],[-8234430.46,4982093.22],[-8234429.26,4982092.38],[-8234410.69,4982119.06],[-8234401.81,4982112.82],[-8234405.11,4982108.1],[-8234424.36,4982080.47],[-8234425.01,4982079.53],[-8234435.75,4982085.63]]]},"properties":{"osm_id":271003196,"shop":"florist","building":"yes","name":"Plant Shed New York Flowers","name:en":null,"addr:housenumber":"209","addr:housename":null,"addr:street":"West 96th Street","addr:city":"New York","addr:state":"NY","addr:postcode":"10025","addr:place":null,"addr:country":"US","addr:hamlet":null,"addr:suburb":null,"addr:subdistrict":null,"addr:district":null,"addr:province":null,"website":"http://www.plantshed.com/","contact:website":null,"phone":"+1 212 662 4400","contact:phone":null,"opening_hours":null,"brand":null,"z_order":0}}
,{"type":"Feature","geometry":{"type":"Polygon","coordinates":[[[-8233786.9,4982975.62],[-8233782.06,4982984.53],[-8233776.36,4982981.41],[-8233775.43,4982979.49],[-8233772.5,4982977.9],[-8233770.84,4982978.12],[-8233768.83,4982977.03],[-8233768.51,4982975.71],[-8233752.6,4982967.01],[-8233756.43,4982959.96],[-8233772.33,4982968.65],[-8233773.55,4982968.32],[-8233775.56,4982969.43],[-8233776.33,4982970.84],[-8233779.26,4982972.44],[-8233781.2,4982972.5],[-8233782.26,4982973.09],[-8233786.9,4982975.62]]]},"properties":{"osm_id":271194787,"shop":"convenience","building":"yes","name":"Columbia Deli","name:en":null,"addr:housenumber":"945","addr:housename":null,"addr:street":"Amsterdam Avenue","addr:city":"New York","addr:state":"NY","addr:postcode":"10025","addr:place":null,"addr:country":"US","addr:hamlet":null,"addr:suburb":null,"addr:subdistrict":null,"addr:district":null,"addr:province":null,"website":null,"contact:website":null,"phone":null,"contact:phone":null,"opening_hours":null,"brand":null,"z_order":0}}
,{"type":"Feature","geometry":{"type":"Polygon","coordinates":[[[-8233530.13,4982693.48],[-8233525.07,4982702.61],[-8233517.62,4982698.45],[-8233517.25,4982696.66],[-8233510.14,4982692.7],[-8233504.83,4982689.73],[-8233503.22,4982690.41],[-8233495.36,4982686.02],[-8233500.41,4982676.91],[-8233507.45,4982680.83],[-8233507.74,4982682.25],[-8233521.13,4982689.73],[-8233522.31,4982689.13],[-8233530.13,4982693.48]]]},"properties":{"osm_id":271192155,"shop":"alcohol","building":"yes","name":"Adel Wines & Liquors","name:en":null,"addr:housenumber":"925","addr:housename":null,"addr:street":"Columbus Avenue","addr:city":"New York","addr:state":"NY","addr:postcode":"10025","addr:place":null,"addr:country":"US","addr:hamlet":null,"addr:suburb":null,"addr:subdistrict":null,"addr:district":null,"addr:province":null,"website":null,"contact:website":null,"phone":"+1 212-222-4157","contact:phone":null,"opening_hours":null,"brand":null,"z_order":0}}
,{"type":"Feature","geometry":{"type":"Polygon","coordinates":[[[-8232621.36,4983530.3],[-8232611.42,4983548.25],[-8232609.68,4983547.27],[-8232608.89,4983548.7],[-8232609.75,4983550.56],[-8232607.94,4983553.83],[-8232606.44,4983554.24],[-8232604.17,4983558.33],[-8232602.93,4983557.64],[-8232601.35,4983560.51],[-8232596.96,4983558.05],[-8232598.47,4983555.3],[-8232597.55,4983554.78],[-8232599.88,4983550.58],[-8232599.61,4983549.18],[-8232601.41,4983545.9],[-8232603.48,4983545.68],[-8232604.27,4983544.25],[-8232602.19,4983543.09],[-8232612.13,4983525.15],[-8232621.36,4983530.3]]]},"properties":{"osm_id":271291933,"shop":"alcohol","building":"yes","name":"The Winery","name:en":null,"addr:housenumber":"257","addr:housename":null,"addr:street":"West 116th Street","addr:city":null,"addr:state":null,"addr:postcode":"10026","addr:place":null,"addr:country":null,"addr:hamlet":null,"addr:suburb":null,"addr:subdistrict":null,"addr:district":null,"addr:province":null,"website":null,"contact:website":null,"phone":null,"contact:phone":null,"opening_hours":null,"brand":null,"z_order":0}}
,{"type":"Feature","geometry":{"type":"Polygon","coordinates":[[[-8232488.74,4983830.67],[-8232483.92,4983839.37],[-8232476.78,4983835.37],[-8232476.02,4983833.64],[-8232472.82,4983831.86],[-8232470.79,4983832.03],[-8232467.44,4983830.17],[-8232468.41,4983828.42],[-8232462.26,4983824.99],[-8232461.29,4983826.74],[-8232451.92,4983821.49],[-8232456.1,4983813.95],[-8232464.88,4983818.84],[-8232464.43,4983819.65],[-8232471.18,4983823.42],[-8232472.17,4983821.64],[-8232475.76,4983823.65],[-8232476.51,4983825.2],[-8232479.54,4983826.89],[-8232481.5,4983826.62],[-8232488.74,4983830.67]]]},"properties":{"osm_id":271626419,"shop":"laundry","building":"yes","name":"Baby Girls Bubbles Cleaners","name:en":null,"addr:housenumber":"2212","addr:housename":null,"addr:street":"Frederick Douglass Boulevard","addr:city":null,"addr:state":null,"addr:postcode":"10026","addr:place":null,"addr:country":null,"addr:hamlet":null,"addr:suburb":null,"addr:subdistrict":null,"addr:district":null,"addr:province":null,"website":null,"contact:website":null,"phone":null,"contact:phone":null,"opening_hours":null,"brand":null,"z_order":0}}
,{"type":"Feature","geometry":{"type":"Polygon","coordinates":[[[-8230064.09,4982225.72],[-8230042.63,4982265.51],[-8230046.61,4982267.67],[-8230044.48,4982271.63],[-8230046.66,4982272.8],[-8230043.61,4982278.52],[-8230039.02,4982287.16],[-8230036.03,4982292.76],[-8230031.45,4982301.35],[-8229990.23,4982278.94],[-8229992.26,4982275.17],[-8229988.76,4982273.26],[-8229990.87,4982269.36],[-8229962.55,4982253.97],[-8229932.51,4982309.64],[-8229925.06,4982305.99],[-8229918.77,4982318.71],[-8229918.68,4982318.87],[-8229913.65,4982327.92],[-8229908.58,4982337],[-8229902.97,4982347.08],[-8229901.64,4982349.46],[-8229824.37,4982307.77],[-8229818.61,4982304.67],[-8229823.65,4982295.24],[-8229821.63,4982294.16],[-8229845.53,4982235.22],[-8229863.12,4982202.24],[-8229868.61,4982193.8],[-8229898,4982152.51],[-8229899.92,4982153.52],[-8229904.04,4982145.07],[-8229907.67,4982141.16],[-8229917.59,4982131.35],[-8229986.79,4982170.02],[-8229983.77,4982175.67],[-8230027.53,4982199.46],[-8230030.16,4982194.58],[-8230042.75,4982201.41],[-8230037.45,4982211.24],[-8230064.09,4982225.72]]]},"properties":{"osm_id":271596000,"shop":"mall","building":"retail","name":null,"name:en":null,"addr:housenumber":"517","addr:housename":null,"addr:street":"East 117th Street","addr:city":null,"addr:state":null,"addr:postcode":"10035","addr:place":null,"addr:country":null,"addr:hamlet":null,"addr:suburb":null,"addr:subdistrict":null,"addr:district":null,"addr:province":null,"website":null,"contact:website":null,"phone":null,"contact:phone":null,"opening_hours":null,"brand":null,"z_order":0}}
,{"type":"Feature","geometry":{"type":"Polygon","coordinates":[[[-8229940.63,4986478.42],[-8229802.3,4986487.94],[-8229750.81,4986395.18],[-8229747.67,4986352.62],[-8229746,4986352.74],[-8229744.96,4986338.63],[-8229746.62,4986338.5],[-8229746.51,4986336.95],[-8229815.63,4986331.8],[-8229825.12,4986331.1],[-8229892.78,4986326.06],[-8229902.96,4986325.3],[-8229927.04,4986323.51],[-8229927.47,4986329.37],[-8229931.1,4986329.11],[-8229932.1,4986342.6],[-8229928.47,4986342.86],[-8229930.81,4986374.61],[-8229933.84,4986374.39],[-8229934.85,4986388.1],[-8229931.82,4986388.33],[-8229934.18,4986420.21],[-8229936.83,4986420.01],[-8229937.82,4986433.44],[-8229935.17,4986433.63],[-8229937.55,4986465.71],[-8229939.67,4986465.57],[-8229940.63,4986478.42]]]},"properties":{"osm_id":275300099,"shop":"mall","building":"retail","name":"Bronx Terminal Market","name:en":null,"addr:housenumber":"610","addr:housename":null,"addr:street":"Exterior Street","addr:city":null,"addr:state":null,"addr:postcode":"10451","addr:place":null,"addr:country":null,"addr:hamlet":null,"addr:suburb":null,"addr:subdistrict":null,"addr:district":null,"addr:province":null,"website":null,"contact:website":null,"phone":null,"contact:phone":null,"opening_hours":null,"brand":null,"z_order":0}}
,{"type":"Feature","geometry":{"type":"Polygon","coordinates":[[[-8229922.19,4986139.68],[-8229915.33,4986140.15],[-8229915.64,4986144.71],[-8229889.29,4986146.52],[-8229879.31,4986147.2],[-8229813.6,4986151.7],[-8229804.01,4986153.67],[-8229778.48,4986155.42],[-8229778.66,4986157.89],[-8229768.71,4986158.57],[-8229766.5,4986126.21],[-8229768.72,4986126.06],[-8229767.85,4986113.41],[-8229802.73,4985995.33],[-8229812.96,4985960.32],[-8229841.62,4985969.13],[-8229838.78,4985978.43],[-8229913,4985974.96],[-8229914.17,4986000.32],[-8229911.06,4986000.47],[-8229914.41,4986049.7],[-8229916.06,4986049.6],[-8229922.19,4986139.68]]]},"properties":{"osm_id":275300098,"shop":"mall","building":"retail","name":"Bronx Terminal Market","name:en":null,"addr:housenumber":"610","addr:housename":null,"addr:street":"Exterior Street","addr:city":null,"addr:state":null,"addr:postcode":"10451","addr:place":null,"addr:country":null,"addr:hamlet":null,"addr:suburb":null,"addr:subdistrict":null,"addr:district":null,"addr:province":null,"website":null,"contact:website":null,"phone":null,"contact:phone":null,"opening_hours":null,"brand":null,"z_order":0}}
,{"type":"Feature","geometry":{"type":"Polygon","coordinates":[[[-8231333.32,4988801.28],[-8231331.47,4988804.05],[-8231327.14,4988800.9],[-8231328.85,4988798.29],[-8231333.32,4988801.28]]]},"properties":{"osm_id":282991410,"shop":"kiosk","building":null,"name":null,"name:en":null,"addr:housenumber":null,"addr:housename":null,"addr:street":null,"addr:city":null,"addr:state":null,"addr:postcode":null,"addr:place":null,"addr:country":null,"addr:hamlet":null,"addr:suburb":null,"addr:subdistrict":null,"addr:district":null,"addr:province":null,"website":null,"contact:website":null,"phone":null,"contact:phone":null,"opening_hours":null,"brand":null,"z_order":0}}
,{"type":"Feature","geometry":{"type":"Polygon","coordinates":[[[-8235626.85,4980104.91],[-8235621.2,4980115.18],[-8235592.66,4980099.35],[-8235596.93,4980079.8],[-8235625.24,4980095.51],[-8235622.79,4980099.95],[-8235615.36,4980095.84],[-8235614.97,4980096.54],[-8235611.05,4980094.37],[-8235610.31,4980095.72],[-8235626.85,4980104.91]]]},"properties":{"osm_id":269297858,"shop":"supermarket","building":"yes","name":"Citarella","name:en":null,"addr:housenumber":"2135","addr:housename":null,"addr:street":"Broadway","addr:city":"New York","addr:state":"NY","addr:postcode":"10023","addr:place":null,"addr:country":null,"addr:hamlet":null,"addr:suburb":null,"addr:subdistrict":null,"addr:district":null,"addr:province":null,"website":"http://www.citarella.com/","contact:website":null,"phone":null,"contact:phone":null,"opening_hours":null,"brand":null,"z_order":0}}
,{"type":"Feature","geometry":{"type":"Polygon","coordinates":[[[-8235621.08,4979826.85],[-8235619.85,4979834.97],[-8235615.65,4979834.32],[-8235616.88,4979826.22],[-8235621.08,4979826.85]]]},"properties":{"osm_id":329988113,"shop":"kiosk","building":"yes","name":null,"name:en":null,"addr:housenumber":null,"addr:housename":null,"addr:street":null,"addr:city":null,"addr:state":null,"addr:postcode":null,"addr:place":null,"addr:country":null,"addr:hamlet":null,"addr:suburb":null,"addr:subdistrict":null,"addr:district":null,"addr:province":null,"website":null,"contact:website":null,"phone":null,"contact:phone":null,"opening_hours":null,"brand":null,"z_order":0}}
,{"type":"Feature","geometry":{"type":"Polygon","coordinates":[[[-8235458.6,4979931.11],[-8235452.66,4979941.83],[-8235451.67,4979943.62],[-8235447.56,4979941.33],[-8235444.85,4979939.81],[-8235451.79,4979927.3],[-8235458.6,4979931.11]]]},"properties":{"osm_id":269296203,"shop":"bakery","building":"yes","name":"Levain Bakery","name:en":null,"addr:housenumber":"167","addr:housename":null,"addr:street":"West 74th Street","addr:city":"New York","addr:state":"NY","addr:postcode":"10023","addr:place":null,"addr:country":"US","addr:hamlet":null,"addr:suburb":null,"addr:subdistrict":null,"addr:district":null,"addr:province":null,"website":null,"contact:website":null,"phone":null,"contact:phone":null,"opening_hours":null,"brand":null,"z_order":0}}
,{"type":"Feature","geometry":{"type":"Polygon","coordinates":[[[-8235395.76,4980065.07],[-8235375.94,4980100.84],[-8235355.05,4980089.16],[-8235361.2,4980078.08],[-8235374.88,4980053.39],[-8235395.76,4980065.07]]]},"properties":{"osm_id":269297230,"shop":"funeral_directors","building":"yes","name":"Riverside Memorial Chapel","name:en":null,"addr:housenumber":"180","addr:housename":null,"addr:street":"West 76th Street","addr:city":"New York","addr:state":null,"addr:postcode":"10023","addr:place":null,"addr:country":null,"addr:hamlet":null,"addr:suburb":null,"addr:subdistrict":null,"addr:district":null,"addr:province":null,"website":"http://www.riversidememorialchapel.com/","contact:website":null,"phone":null,"contact:phone":null,"opening_hours":null,"brand":null,"z_order":0}}
,{"type":"Feature","geometry":{"type":"Polygon","coordinates":[[[-8235394.88,4980669.47],[-8235389.91,4980678.45],[-8235362.79,4980663.32],[-8235367.77,4980654.34],[-8235394.88,4980669.47]]]},"properties":{"osm_id":269318166,"shop":"supermarket","building":"yes","name":"Zabar's","name:en":null,"addr:housenumber":"2245","addr:housename":null,"addr:street":"Broadway","addr:city":"New York","addr:state":"NY","addr:postcode":"10024","addr:place":null,"addr:country":"US","addr:hamlet":null,"addr:suburb":null,"addr:subdistrict":null,"addr:district":null,"addr:province":null,"website":"http://www.zabars.com/","contact:website":null,"phone":"(212) 787-2000","contact:phone":null,"opening_hours":"Mo-Fr 08:00-19:30; Sa 08:00-20:00; Su 09:00-18:00","brand":null,"z_order":0}}
,{"type":"Feature","geometry":{"type":"Polygon","coordinates":[[[-8235377.76,4980514.29],[-8235357.83,4980550.54],[-8235356.33,4980549.72],[-8235322.77,4980531.12],[-8235323.05,4980530.62],[-8235342.72,4980494.85],[-8235377.76,4980514.29]]]},"properties":{"osm_id":269313803,"shop":"shoes","building":"yes","name":"Designer Shoe Warehouse","name:en":null,"addr:housenumber":"2220","addr:housename":null,"addr:street":"Broadway","addr:city":"New York","addr:state":"NY","addr:postcode":"10024","addr:place":null,"addr:country":"US","addr:hamlet":null,"addr:suburb":null,"addr:subdistrict":null,"addr:district":null,"addr:province":null,"website":null,"contact:website":null,"phone":null,"contact:phone":null,"opening_hours":"Mo-Sa 10:00-21:00; Su 11:00-19:00","brand":null,"z_order":0}}
,{"type":"Feature","geometry":{"type":"Polygon","coordinates":[[[-8235356.33,4980549.72],[-8235337.06,4980584.77],[-8235302.57,4980565.64],[-8235320.23,4980533.52],[-8235321.84,4980530.59],[-8235322.77,4980531.12],[-8235356.33,4980549.72]]]},"properties":{"osm_id":269313810,"shop":"clothes","building":"yes","name":"Fox's","name:en":null,"addr:housenumber":"2234","addr:housename":null,"addr:street":"Broadway","addr:city":"New York","addr:state":"NY","addr:postcode":"10024","addr:place":null,"addr:country":"US","addr:hamlet":null,"addr:suburb":null,"addr:subdistrict":null,"addr:district":null,"addr:province":null,"website":null,"contact:website":null,"phone":null,"contact:phone":null,"opening_hours":"Mo-Sa 10:00-21:00; Su 11:00-19:00","brand":null,"z_order":0}}
,{"type":"Feature","geometry":{"type":"Polygon","coordinates":[[[-8235218.44,4979741.38],[-8235214.2,4979749.16],[-8235205.48,4979744.53],[-8235209.74,4979736.85],[-8235218.44,4979741.38]]]},"properties":{"osm_id":204876211,"shop":"boutique","building":"yes","name":"A Tempo","name:en":null,"addr:housenumber":"290","addr:housename":null,"addr:street":"Columbus Avenue","addr:city":null,"addr:state":null,"addr:postcode":null,"addr:place":null,"addr:country":null,"addr:hamlet":null,"addr:suburb":null,"addr:subdistrict":null,"addr:district":null,"addr:province":null,"website":null,"contact:website":null,"phone":null,"contact:phone":null,"opening_hours":null,"brand":null,"z_order":0}}
,{"type":"Feature","geometry":{"type":"Polygon","coordinates":[[[-8235214.2,4979749.16],[-8235206.8,4979762.57],[-8235198.22,4979757.79],[-8235200.64,4979753.35],[-8235205.48,4979744.53],[-8235214.2,4979749.16]]]},"properties":{"osm_id":204876214,"shop":"shoes","building":"yes","name":"Footlights Shoes","name:en":null,"addr:housenumber":"294","addr:housename":null,"addr:street":"Columbus Avenue","addr:city":null,"addr:state":null,"addr:postcode":null,"addr:place":null,"addr:country":null,"addr:hamlet":null,"addr:suburb":null,"addr:subdistrict":null,"addr:district":null,"addr:province":null,"website":null,"contact:website":null,"phone":null,"contact:phone":null,"opening_hours":null,"brand":null,"z_order":0}}
,{"type":"Feature","geometry":{"type":"Polygon","coordinates":[[[-8235139.57,4980674.3],[-8235136.15,4980680.48],[-8235129.89,4980676.98],[-8235128.24,4980677.77],[-8235120.78,4980673.61],[-8235121.66,4980672.02],[-8235119.53,4980670.83],[-8235118.66,4980672.42],[-8235109.64,4980667.39],[-8235114.59,4980658.44],[-8235123.61,4980663.47],[-8235122.54,4980665.41],[-8235124.67,4980666.6],[-8235125.74,4980664.66],[-8235133.19,4980668.82],[-8235133.3,4980670.8],[-8235139.57,4980674.3]]]},"properties":{"osm_id":270899474,"shop":"hairdresser","building":"yes","name":"Cozy's Cuts for Kids","name:en":null,"addr:housenumber":"448","addr:housename":null,"addr:street":"Amsterdam Avenue","addr:city":"New York","addr:state":"NY","addr:postcode":"10024","addr:place":null,"addr:country":"US","addr:hamlet":null,"addr:suburb":null,"addr:subdistrict":null,"addr:district":null,"addr:province":null,"website":"www.cozycuts.com","contact:website":null,"phone":null,"contact:phone":null,"opening_hours":null,"brand":null,"z_order":0}}
,{"type":"Feature","geometry":{"type":"Polygon","coordinates":[[[-8234901.76,4980370.96],[-8234892.21,4980388.18],[-8234886.54,4980385.01],[-8234887.96,4980382.46],[-8234878.43,4980377.13],[-8234877.8,4980378.25],[-8234876.18,4980377.34],[-8234876.8,4980376.22],[-8234871.59,4980373.31],[-8234869.79,4980376.56],[-8234859.64,4980370.9],[-8234869.57,4980352.98],[-8234901.76,4980370.96]]]},"properties":{"osm_id":269307312,"shop":"convenience","building":"yes","name":"Andi's Deli","name:en":null,"addr:housenumber":"418","addr:housename":null,"addr:street":"Columbus Avenue","addr:city":"New York","addr:state":"NY","addr:postcode":"10024","addr:place":null,"addr:country":"US","addr:hamlet":null,"addr:suburb":null,"addr:subdistrict":null,"addr:district":null,"addr:province":null,"website":null,"contact:website":null,"phone":null,"contact:phone":null,"opening_hours":null,"brand":null,"z_order":0}}
,{"type":"Feature","geometry":{"type":"Polygon","coordinates":[[[-8234894.08,4980390.13],[-8234888.8,4980399.64],[-8234875.13,4980392.01],[-8234854.36,4980380.41],[-8234859.64,4980370.9],[-8234869.79,4980376.56],[-8234894.08,4980390.13]]]},"properties":{"osm_id":269307472,"shop":"shoes","building":"yes","name":"Medici","name:en":null,"addr:housenumber":"420","addr:housename":null,"addr:street":"Columbus Avenue","addr:city":null,"addr:state":null,"addr:postcode":"10024","addr:place":null,"addr:country":null,"addr:hamlet":null,"addr:suburb":null,"addr:subdistrict":null,"addr:district":null,"addr:province":null,"website":"www.medicishoes.com","contact:website":null,"phone":null,"contact:phone":null,"opening_hours":null,"brand":null,"z_order":0}}
,{"type":"Feature","geometry":{"type":"Polygon","coordinates":[[[-8234888.12,4980400.88],[-8234883.99,4980408.33],[-8234882.56,4980407.52],[-8234849.55,4980389.09],[-8234854.36,4980380.41],[-8234875.13,4980392.01],[-8234874.45,4980393.23],[-8234888.12,4980400.88]]]},"properties":{"osm_id":269307479,"shop":"outdoor","building":"yes","name":"Patagonia","name:en":null,"addr:housenumber":"426","addr:housename":null,"addr:street":"Columbus Avenue","addr:city":"New York","addr:state":"NY","addr:postcode":"10024","addr:place":null,"addr:country":"US","addr:hamlet":null,"addr:suburb":null,"addr:subdistrict":null,"addr:district":null,"addr:province":null,"website":null,"contact:website":null,"phone":null,"contact:phone":null,"opening_hours":"Mo-Sa 11:00-19:00; Su 11:00-18:00","brand":null,"z_order":0}}
,{"type":"Feature","geometry":{"type":"Polygon","coordinates":[[[-8234885.7,4980422.46],[-8234881.85,4980429.41],[-8234870.96,4980423.33],[-8234872.41,4980420.71],[-8234867.35,4980417.89],[-8234866,4980420.31],[-8234848.57,4980410.58],[-8234846.72,4980411.14],[-8234839.55,4980407.14],[-8234844.64,4980397.95],[-8234851.81,4980401.97],[-8234852.39,4980403.7],[-8234869.82,4980413.43],[-8234869.2,4980414.55],[-8234873.14,4980416.74],[-8234873.7,4980415.74],[-8234885.7,4980422.46]]]},"properties":{"osm_id":269307314,"shop":"bicycle","building":"yes","name":"Bicycle Renaissance","name:en":null,"addr:housenumber":"430","addr:housename":null,"addr:street":"Columbus Avenue","addr:city":"New York","addr:state":"NY","addr:postcode":"10024","addr:place":null,"addr:country":"US","addr:hamlet":null,"addr:suburb":null,"addr:subdistrict":null,"addr:district":null,"addr:province":null,"website":"http://bicyclerenaissance.com/","contact:website":null,"phone":null,"contact:phone":null,"opening_hours":"Mo-Fr 10:30-19:00; Sa-Su 10:00-17:00","brand":null,"z_order":0}}
,{"type":"Feature","geometry":{"type":"Polygon","coordinates":[[[-8234882.56,4980407.52],[-8234877.64,4980416.39],[-8234851.81,4980401.97],[-8234844.64,4980397.95],[-8234849.55,4980389.09],[-8234882.56,4980407.52]]]},"properties":{"osm_id":269307482,"shop":"clothes","building":"yes","name":"Polarn O. Pyret","name:en":null,"addr:housenumber":"428","addr:housename":null,"addr:street":"Columbus Avenue","addr:city":"New York","addr:state":"NY","addr:postcode":"10024","addr:place":null,"addr:country":"US","addr:hamlet":null,"addr:suburb":null,"addr:subdistrict":null,"addr:district":null,"addr:province":null,"website":null,"contact:website":null,"phone":null,"contact:phone":null,"opening_hours":"Mo-Sa 10:00-19:00; Su 11:00-18:00;","brand":null,"z_order":0}}
,{"type":"Feature","geometry":{"type":"Polygon","coordinates":[[[-8233253.01,4979821.24],[-8233245.98,4979833.88],[-8233244.76,4979833.19],[-8233241.27,4979839.47],[-8233236,4979836.51],[-8233227.4,4979851.99],[-8233225.57,4979850.96],[-8233206.31,4979840.19],[-8233208.51,4979836.22],[-8233207.33,4979833.91],[-8233209.94,4979829.22],[-8233211.9,4979828.9],[-8233214.05,4979830.1],[-8233215.46,4979827.54],[-8233213.31,4979826.35],[-8233212.61,4979824.41],[-8233223.23,4979805.29],[-8233225.68,4979804.39],[-8233238.17,4979811.37],[-8233238.74,4979813.09],[-8233237.38,4979815.53],[-8233239.93,4979816.96],[-8233241.22,4979814.64],[-8233243.13,4979814.15],[-8233252.14,4979819.19],[-8233253.01,4979821.24]]]},"properties":{"osm_id":266932807,"shop":"boutique","building":"commercial","name":"ANIK","name:en":null,"addr:housenumber":"1122","addr:housename":null,"addr:street":"Madison Avenue","addr:city":"New York","addr:state":"NY","addr:postcode":"10028","addr:place":null,"addr:country":null,"addr:hamlet":null,"addr:suburb":null,"addr:subdistrict":null,"addr:district":null,"addr:province":null,"website":"http://www.anikny.com/","contact:website":null,"phone":null,"contact:phone":"+1 (212) 249-2417","opening_hours":null,"brand":null,"z_order":0}}
,{"type":"Feature","geometry":{"type":"Polygon","coordinates":[[[-8233241.11,4979874.01],[-8233227.07,4979899.28],[-8233216.93,4979893.61],[-8233222.84,4979882.97],[-8233225.42,4979884.41],[-8233227.57,4979880.54],[-8233224.99,4979879.1],[-8233230.97,4979868.34],[-8233241.11,4979874.01]]]},"properties":{"osm_id":266932854,"shop":"art","building":"yes","name":"Koreana Art and Antiques","name:en":null,"addr:housenumber":"18","addr:housename":null,"addr:street":"East 84th Street","addr:city":"New York","addr:state":"NY","addr:postcode":"10028","addr:place":null,"addr:country":null,"addr:hamlet":null,"addr:suburb":null,"addr:subdistrict":null,"addr:district":null,"addr:province":null,"website":"koreanaartandantiques.com","contact:website":null,"phone":null,"contact:phone":"+1 (212) 249-0400","opening_hours":null,"brand":null,"z_order":0}}
,{"type":"Feature","geometry":{"type":"Polygon","coordinates":[[[-8233230.97,4979868.34],[-8233224.99,4979879.1],[-8233222.84,4979882.97],[-8233216.93,4979893.61],[-8233207.15,4979888.14],[-8233220.32,4979864.43],[-8233221.18,4979862.85],[-8233230.97,4979868.34]]]},"properties":{"osm_id":266932853,"shop":"art","building":"yes","name":"Koreana Art and Antiques","name:en":null,"addr:housenumber":"20","addr:housename":null,"addr:street":"East 84th Street","addr:city":"New York","addr:state":"NY","addr:postcode":"10028","addr:place":null,"addr:country":null,"addr:hamlet":null,"addr:suburb":null,"addr:subdistrict":null,"addr:district":null,"addr:province":null,"website":"koreanaartandantiques.com","contact:website":null,"phone":null,"contact:phone":"+1 (212) 249-0400","opening_hours":null,"brand":null,"z_order":0}}
,{"type":"Feature","geometry":{"type":"Polygon","coordinates":[[[-8233225.57,4979850.96],[-8233218.62,4979863.47],[-8233215.85,4979861.91],[-8233209.76,4979858.5],[-8233203.83,4979855.2],[-8233197.48,4979851.64],[-8233204.43,4979839.13],[-8233206.31,4979840.19],[-8233225.57,4979850.96]]]},"properties":{"osm_id":266932808,"shop":"boutique","building":"commercial","name":"ANIK","name:en":null,"addr:housenumber":"1122","addr:housename":null,"addr:street":"Madison Avenue","addr:city":"New York","addr:state":"NY","addr:postcode":"10028","addr:place":null,"addr:country":null,"addr:hamlet":null,"addr:suburb":null,"addr:subdistrict":null,"addr:district":null,"addr:province":null,"website":"http://www.anikny.com/","contact:website":null,"phone":null,"contact:phone":"+1 (212) 249-2417","opening_hours":null,"brand":null,"z_order":0}}
,{"type":"Feature","geometry":{"type":"Polygon","coordinates":[[[-8233220.32,4979864.43],[-8233207.15,4979888.14],[-8233202.68,4979885.63],[-8233213.39,4979866.35],[-8233215.85,4979861.91],[-8233218.62,4979863.47],[-8233220.32,4979864.43]]]},"properties":{"osm_id":266932809,"shop":"art","building":"commercial","name":"Bernard & S Dean Levy Inc.","name:en":null,"addr:housenumber":"22","addr:housename":null,"addr:street":"East 84th Street","addr:city":"New York","addr:state":"NY","addr:postcode":"10028","addr:place":null,"addr:country":null,"addr:hamlet":null,"addr:suburb":null,"addr:subdistrict":null,"addr:district":null,"addr:province":null,"website":"levygalleries.com","contact:website":null,"phone":null,"contact:phone":"+1 (212) 628-7088","opening_hours":null,"brand":null,"z_order":0}}
,{"type":"Feature","geometry":{"type":"Polygon","coordinates":[[[-8233069.52,4978735.57],[-8233064.03,4978745.49],[-8233056.66,4978741.39],[-8233055.68,4978739.98],[-8233031.79,4978726.67],[-8233036.47,4978718.24],[-8233060.49,4978731.61],[-8233062.15,4978731.45],[-8233069.52,4978735.57]]]},"properties":{"osm_id":266876431,"shop":"supermarket","building":"yes","name":"Citarella","name:en":null,"addr:housenumber":"1313","addr:housename":null,"addr:street":"3rd Avenue","addr:city":null,"addr:state":null,"addr:postcode":"10021","addr:place":null,"addr:country":null,"addr:hamlet":null,"addr:suburb":null,"addr:subdistrict":null,"addr:district":null,"addr:province":null,"website":"http://www.citarella.com/","contact:website":null,"phone":"(212) 874-0383","contact:phone":null,"opening_hours":null,"brand":null,"z_order":0}}
,{"type":"Feature","geometry":{"type":"Polygon","coordinates":[[[-8232408.82,4979640.33],[-8232388.96,4979675.7],[-8232371.51,4979665.83],[-8232372.01,4979664.94],[-8232368.55,4979662.97],[-8232368.04,4979663.87],[-8232363.07,4979661.06],[-8232363.58,4979660.16],[-8232359.86,4979658.06],[-8232359.36,4979658.96],[-8232333.49,4979644.31],[-8232335.03,4979641.56],[-8232332.86,4979640.33],[-8232335.52,4979635.58],[-8232334.88,4979635.21],[-8232342.21,4979622.14],[-8232344.61,4979623.5],[-8232349.28,4979615.19],[-8232352.92,4979608.71],[-8232400,4979635.35],[-8232408.82,4979640.33]]]},"properties":{"osm_id":266910936,"shop":"supermarket","building":"yes","name":"Fairway Market","name:en":null,"addr:housenumber":"240","addr:housename":null,"addr:street":"East 86th Street","addr:city":null,"addr:state":null,"addr:postcode":"10028","addr:place":null,"addr:country":null,"addr:hamlet":null,"addr:suburb":null,"addr:subdistrict":null,"addr:district":null,"addr:province":null,"website":"http://www.fairwaymarket.com/","contact:website":null,"phone":null,"contact:phone":null,"opening_hours":"07:00-24:00","brand":null,"z_order":0}}
,{"type":"Feature","geometry":{"type":"Polygon","coordinates":[[[-8235624.79,4974671.53],[-8235624.38,4974672.29],[-8235617.56,4974684.75],[-8235614.52,4974683.08],[-8235609.49,4974680.3],[-8235589.18,4974669.09],[-8235596.42,4974655.88],[-8235610.93,4974663.89],[-8235624.79,4974671.53]]]},"properties":{"osm_id":265261848,"shop":"department_store","building":"retail","name":"Dover Street Market","name:en":null,"addr:housenumber":null,"addr:housename":null,"addr:street":null,"addr:city":null,"addr:state":null,"addr:postcode":null,"addr:place":null,"addr:country":null,"addr:hamlet":null,"addr:suburb":null,"addr:subdistrict":null,"addr:district":null,"addr:province":null,"website":"http://newyork.doverstreetmarket.com","contact:website":null,"phone":null,"contact:phone":null,"opening_hours":null,"brand":null,"z_order":0}}
,{"type":"Feature","geometry":{"type":"Polygon","coordinates":[[[-8235456.42,4976960.84],[-8235451.27,4976970],[-8235427.19,4976956.44],[-8235427.91,4976955.13],[-8235431.28,4976949.16],[-8235432.33,4976947.25],[-8235456.42,4976960.84]]]},"properties":{"osm_id":266170564,"shop":"clothes","building":"yes","name":"Nine West","name:en":null,"addr:housenumber":"1258","addr:housename":null,"addr:street":"Avenue Of The Americas","addr:city":null,"addr:state":null,"addr:postcode":"10020","addr:place":null,"addr:country":null,"addr:hamlet":null,"addr:suburb":null,"addr:subdistrict":null,"addr:district":null,"addr:province":null,"website":null,"contact:website":null,"phone":null,"contact:phone":null,"opening_hours":null,"brand":null,"z_order":0}}
,{"type":"Feature","geometry":{"type":"Polygon","coordinates":[[[-8235130.87,4976701.84],[-8235095.03,4976767.91],[-8235090.54,4976769.19],[-8235020.75,4976730.71],[-8235022.04,4976728.38],[-8235022.92,4976726.57],[-8235026.25,4976720.47],[-8235033.73,4976707.61],[-8235036.81,4976702.14],[-8235044.78,4976688.07],[-8235047.82,4976682.55],[-8235054.84,4976669.78],[-8235057.99,4976664.39],[-8235059,4976662.51],[-8235060.74,4976659.48],[-8235129.75,4976697.31],[-8235130.87,4976701.84]]]},"properties":{"osm_id":118116797,"shop":"department_store","building":"yes","name":"Saks Fifth Avenue","name:en":null,"addr:housenumber":"611","addr:housename":null,"addr:street":"5th Avenue","addr:city":null,"addr:state":null,"addr:postcode":null,"addr:place":null,"addr:country":null,"addr:hamlet":null,"addr:suburb":null,"addr:subdistrict":null,"addr:district":null,"addr:province":null,"website":"http://www.saksfifthavenue.com","contact:website":null,"phone":null,"contact:phone":null,"opening_hours":null,"brand":null,"z_order":0}}
,{"type":"Feature","geometry":{"type":"Polygon","coordinates":[[[-8235036.03,4972109.2],[-8235016.96,4972143.67],[-8234995.35,4972131.63],[-8235004.96,4972114.24],[-8234999.05,4972110.95],[-8235008.52,4972093.85],[-8235036.03,4972109.2]]]},"properties":{"osm_id":250264474,"shop":"supermarket","building":"yes","name":"C-Town","name:en":null,"addr:housenumber":"188","addr:housename":null,"addr:street":"Avenue C","addr:city":"New York","addr:state":"NY","addr:postcode":"10009","addr:place":null,"addr:country":"US","addr:hamlet":null,"addr:suburb":null,"addr:subdistrict":null,"addr:district":null,"addr:province":null,"website":"http://www.ctownsupermarkets.com/","contact:website":null,"phone":"+1-212-505-7577","contact:phone":null,"opening_hours":"Su 8:30-18:00; Mo-Th 8:00-20:00; Fr 8:00-20:30; Sa 8:00-20:00; Dec 25 8:00-17:00","brand":null,"z_order":0}}
,{"type":"Feature","geometry":{"type":"Polygon","coordinates":[[[-8234753.33,4977383.86],[-8234736.8,4977414.02],[-8234693.55,4977390.32],[-8234695.02,4977387.64],[-8234710.08,4977360.16],[-8234750.88,4977382.53],[-8234753.33,4977383.86]]]},"properties":{"osm_id":265345382,"shop":"jewelry","building":"yes","name":"Tiffany & Co.","name:en":null,"addr:housenumber":null,"addr:housename":null,"addr:street":null,"addr:city":"New York","addr:state":null,"addr:postcode":null,"addr:place":null,"addr:country":null,"addr:hamlet":null,"addr:suburb":null,"addr:subdistrict":null,"addr:district":null,"addr:province":null,"website":"http://www.tiffany.com/","contact:website":null,"phone":null,"contact:phone":null,"opening_hours":null,"brand":null,"z_order":0}}
,{"type":"Feature","geometry":{"type":"Polygon","coordinates":[[[-8234642.91,4977567.9],[-8234636.31,4977579.79],[-8234624.19,4977573.05],[-8234630.8,4977561.17],[-8234642.91,4977567.9]]]},"properties":{"osm_id":156958129,"shop":"electronics","building":"yes","name":"Apple Fifth Avenue","name:en":null,"addr:housenumber":"767","addr:housename":null,"addr:street":"5th Avenue","addr:city":"New York","addr:state":null,"addr:postcode":"10153","addr:place":null,"addr:country":"US","addr:hamlet":null,"addr:suburb":null,"addr:subdistrict":null,"addr:district":null,"addr:province":null,"website":"http://www.apple.com/retail/fifthavenue/","contact:website":null,"phone":"(212) 336-1440","contact:phone":null,"opening_hours":"24/7","brand":"Apple Store","z_order":0}}
,{"type":"Feature","geometry":{"type":"Polygon","coordinates":[[[-8234610.46,4978248.14],[-8234607.06,4978252.9],[-8234602.18,4978253.45],[-8234597.29,4978249.77],[-8234597.15,4978244.48],[-8234600.41,4978240.54],[-8234605.37,4978240.11],[-8234609.51,4978243.11],[-8234610.46,4978248.14]]]},"properties":{"osm_id":321166649,"shop":"gift","building":"yes","name":null,"name:en":null,"addr:housenumber":null,"addr:housename":null,"addr:street":null,"addr:city":null,"addr:state":null,"addr:postcode":null,"addr:place":null,"addr:country":null,"addr:hamlet":null,"addr:suburb":null,"addr:subdistrict":null,"addr:district":null,"addr:province":null,"website":null,"contact:website":null,"phone":null,"contact:phone":null,"opening_hours":null,"brand":null,"z_order":0}}
,{"type":"Feature","geometry":{"type":"Polygon","coordinates":[[[-8234510.51,4978025.08],[-8234494.85,4978053.09],[-8234487.23,4978048.8],[-8234502.88,4978020.79],[-8234510.51,4978025.08]]]},"properties":{"osm_id":265347584,"shop":"ticket","building":"office","name":"Zoo Tickets","name:en":null,"addr:housenumber":null,"addr:housename":null,"addr:street":null,"addr:city":null,"addr:state":null,"addr:postcode":null,"addr:place":null,"addr:country":null,"addr:hamlet":null,"addr:suburb":null,"addr:subdistrict":null,"addr:district":null,"addr:province":null,"website":null,"contact:website":null,"phone":null,"contact:phone":null,"opening_hours":null,"brand":null,"z_order":0}}
,{"type":"Feature","geometry":{"type":"Polygon","coordinates":[[[-8234081.06,4977336.52],[-8234042.62,4977406.73],[-8233963.74,4977363.2],[-8233965,4977360.91],[-8233941.93,4977348.18],[-8233929.77,4977341.46],[-8233928.69,4977343.42],[-8233895.29,4977324.99],[-8233933.86,4977254.53],[-8233983.74,4977282.06],[-8233984.49,4977280.7],[-8234060.66,4977322.74],[-8234059.61,4977324.68],[-8234081.06,4977336.52]]]},"properties":{"osm_id":266217086,"shop":"department_store","building":"yes","name":"Bloomingdale's","name:en":null,"addr:housenumber":null,"addr:housename":null,"addr:street":null,"addr:city":null,"addr:state":null,"addr:postcode":null,"addr:place":null,"addr:country":null,"addr:hamlet":null,"addr:suburb":null,"addr:subdistrict":null,"addr:district":null,"addr:province":null,"website":null,"contact:website":null,"phone":null,"contact:phone":null,"opening_hours":null,"brand":null,"z_order":10}}
,{"type":"Feature","geometry":{"type":"Polygon","coordinates":[[[-8233360.96,4976938.56],[-8233351.45,4976955.49],[-8233312.71,4976933.57],[-8233322.23,4976916.62],[-8233360.96,4976938.56]]]},"properties":{"osm_id":266195296,"shop":"clothes","building":"yes","name":"TJ Maxx","name:en":null,"addr:housenumber":null,"addr:housename":null,"addr:street":null,"addr:city":null,"addr:state":null,"addr:postcode":null,"addr:place":null,"addr:country":null,"addr:hamlet":null,"addr:suburb":null,"addr:subdistrict":null,"addr:district":null,"addr:province":null,"website":null,"contact:website":null,"phone":null,"contact:phone":null,"opening_hours":null,"brand":null,"z_order":0}}
,{"type":"Feature","geometry":{"type":"Polygon","coordinates":[[[-8233233.62,4977225.21],[-8233228.8,4977233.95],[-8233200.54,4977218.27],[-8233205.36,4977209.53],[-8233233.62,4977225.21]]]},"properties":{"osm_id":266199258,"shop":"convenience","building":"yes","name":"Space Market","name:en":null,"addr:housenumber":null,"addr:housename":null,"addr:street":null,"addr:city":null,"addr:state":null,"addr:postcode":null,"addr:place":null,"addr:country":null,"addr:hamlet":null,"addr:suburb":null,"addr:subdistrict":null,"addr:district":null,"addr:province":null,"website":null,"contact:website":null,"phone":null,"contact:phone":null,"opening_hours":null,"brand":null,"z_order":0}}
,{"type":"Feature","geometry":{"type":"Polygon","coordinates":[[[-8230990.85,4978106.54],[-8230976.57,4978136.87],[-8230961.79,4978129.86],[-8230956.69,4978136.84],[-8230943.76,4978164.3],[-8230901.38,4978144.19],[-8230899.65,4978147.87],[-8230883.72,4978140.31],[-8230880.64,4978146.84],[-8230864.14,4978139],[-8230861.45,4978144.69],[-8230798.46,4978114.8],[-8230801.37,4978108.61],[-8230767.28,4978092.42],[-8230751.97,4978099.95],[-8230716.53,4978149.26],[-8230649.18,4978100.48],[-8230711.44,4978070.58],[-8230737.5,4978089.47],[-8230773.19,4978072.07],[-8230786.32,4978078.3],[-8230795.94,4978057.87],[-8230804.55,4978061.96],[-8230803.5,4978064.16],[-8230810.44,4978067.45],[-8230828.35,4978029.43],[-8230990.85,4978106.54]]]},"properties":{"osm_id":280641697,"shop":"hypermarket","building":"yes","name":"Costco","name:en":null,"addr:housenumber":"32-50","addr:housename":null,"addr:street":"Vernon Boulevard","addr:city":"Astoria","addr:state":null,"addr:postcode":"11106","addr:place":null,"addr:country":null,"addr:hamlet":null,"addr:suburb":null,"addr:subdistrict":null,"addr:district":null,"addr:province":null,"website":null,"contact:website":null,"phone":null,"contact:phone":null,"opening_hours":"Mo-Fr 08:30-20:30; Sa 09:30-18:00; Su 10:00-18:00","brand":null,"z_order":0}}
,{"type":"Feature","geometry":{"type":"Polygon","coordinates":[[[-8235164.08,4975970.5],[-8235152.82,4975990.5],[-8235146.5,4975986.92],[-8235148.21,4975983.88],[-8235152.1,4975977.01],[-8235157.76,4975966.94],[-8235164.08,4975970.5]]]},"properties":{"osm_id":473560414,"shop":"bakery","building":null,"name":"Zaro's Family Backery","name:en":null,"addr:housenumber":null,"addr:housename":null,"addr:street":null,"addr:city":null,"addr:state":null,"addr:postcode":null,"addr:place":null,"addr:country":null,"addr:hamlet":null,"addr:suburb":null,"addr:subdistrict":null,"addr:district":null,"addr:province":null,"website":null,"contact:website":null,"phone":null,"contact:phone":null,"opening_hours":null,"brand":null,"z_order":0}}
,{"type":"Feature","geometry":{"type":"Polygon","coordinates":[[[-8235152.1,4975977.01],[-8235148.21,4975983.88],[-8235139.32,4975978.87],[-8235143.19,4975971.98],[-8235152.1,4975977.01]]]},"properties":{"osm_id":473560416,"shop":"ticket","building":null,"name":"Metro-North Railroad","name:en":null,"addr:housenumber":null,"addr:housename":null,"addr:street":null,"addr:city":null,"addr:state":null,"addr:postcode":null,"addr:place":null,"addr:country":null,"addr:hamlet":null,"addr:suburb":null,"addr:subdistrict":null,"addr:district":null,"addr:province":null,"website":null,"contact:website":null,"phone":null,"contact:phone":null,"opening_hours":null,"brand":null,"z_order":0}}
,{"type":"Feature","geometry":{"type":"Polygon","coordinates":[[[-8235142.36,4975943.88],[-8235140.61,4975947],[-8235140.5,4975947.12],[-8235140.35,4975947.17],[-8235140.2,4975947.19],[-8235140.05,4975947.13],[-8235116.95,4975934.1],[-8235116.89,4975933.95],[-8235116.87,4975933.79],[-8235116.93,4975933.64],[-8235118.67,4975930.55],[-8235122.51,4975932.71],[-8235132.34,4975938.24],[-8235136.08,4975940.36],[-8235142.36,4975943.88]]]},"properties":{"osm_id":473560419,"shop":"ticket","building":null,"name":"MTA Metro-North","name:en":null,"addr:housenumber":null,"addr:housename":null,"addr:street":null,"addr:city":null,"addr:state":null,"addr:postcode":null,"addr:place":null,"addr:country":null,"addr:hamlet":null,"addr:suburb":null,"addr:subdistrict":null,"addr:district":null,"addr:province":null,"website":null,"contact:website":null,"phone":null,"contact:phone":null,"opening_hours":null,"brand":null,"z_order":0}}
,{"type":"Feature","geometry":{"type":"Polygon","coordinates":[[[-8235081.85,4975909.82],[-8235081.29,4975910.83],[-8235078.61,4975915.57],[-8235075.94,4975920.31],[-8235074.76,4975922.41],[-8235072.66,4975926.15],[-8235071.69,4975927.87],[-8235066.31,4975924.84],[-8235064.74,4975927.63],[-8235063.11,4975930.54],[-8235068.48,4975933.57],[-8235067.55,4975935.24],[-8235065.48,4975938.9],[-8235064.69,4975940.3],[-8235058.77,4975950.57],[-8235058.21,4975951.51],[-8235046.89,4975945.18],[-8235044.62,4975949.2],[-8235043.44,4975948.54],[-8235045.69,4975944.52],[-8235048.89,4975938.95],[-8235044.07,4975936.24],[-8235048.08,4975929.06],[-8235052.91,4975931.76],[-8235055.48,4975927.15],[-8235050.65,4975924.46],[-8235054.64,4975917.33],[-8235059.46,4975920.02],[-8235062,4975915.46],[-8235057.17,4975912.77],[-8235061.14,4975905.68],[-8235065.96,4975908.37],[-8235069.22,4975902.71],[-8235081.85,4975909.82]]]},"properties":{"osm_id":473560444,"shop":"computer","building":null,"name":"Apple Store, Grand Central","name:en":null,"addr:housenumber":"45","addr:housename":null,"addr:street":"Grand Central Terminal","addr:city":null,"addr:state":null,"addr:postcode":null,"addr:place":null,"addr:country":null,"addr:hamlet":null,"addr:suburb":null,"addr:subdistrict":null,"addr:district":null,"addr:province":null,"website":"http://www.apple.com/retail/grandcentral/","contact:website":null,"phone":"(212) 284-1800","contact:phone":null,"opening_hours":"Mo-Fr 07:00-21:00; Sa 10:00-19:00; Su 11:00-19:00","brand":null,"z_order":0}}
,{"type":"Feature","geometry":{"type":"Polygon","coordinates":[[[-8238803.5,4970339.86],[-8238803.04,4970340.63],[-8238785.09,4970371.1],[-8238784.13,4970372.73],[-8238775.29,4970367.47],[-8238777.08,4970364.43],[-8238794.65,4970334.61],[-8238803.5,4970339.86]]]},"properties":{"osm_id":277890500,"shop":"dry_cleaning","building":"yes","name":"Pure Green Cleaners","name:en":null,"addr:housenumber":"69","addr:housename":null,"addr:street":"Murray Street","addr:city":"New York","addr:state":null,"addr:postcode":"10007","addr:place":null,"addr:country":null,"addr:hamlet":null,"addr:suburb":null,"addr:subdistrict":null,"addr:district":null,"addr:province":null,"website":null,"contact:website":null,"phone":"+1 212 227-8871","contact:phone":null,"opening_hours":null,"brand":null,"z_order":0}}
,{"type":"Feature","geometry":{"type":"Polygon","coordinates":[[[-8238786.05,4970329.51],[-8238772.43,4970352.64],[-8238764,4970348.04],[-8238777.8,4970324.62],[-8238786.05,4970329.51]]]},"properties":{"osm_id":277890473,"shop":"convenience","building":"yes","name":"Corner Gourmet 2","name:en":null,"addr:housenumber":"66","addr:housename":null,"addr:street":"West Broadway","addr:city":null,"addr:state":null,"addr:postcode":null,"addr:place":null,"addr:country":null,"addr:hamlet":null,"addr:suburb":null,"addr:subdistrict":null,"addr:district":null,"addr:province":null,"website":null,"contact:website":null,"phone":null,"contact:phone":null,"opening_hours":null,"brand":null,"z_order":0}}
,{"type":"Feature","geometry":{"type":"Polygon","coordinates":[[[-8238783.8,4970489.45],[-8238769.17,4970514.37],[-8238768.71,4970515.15],[-8238760.33,4970510.19],[-8238773.82,4970487.2],[-8238775.42,4970484.48],[-8238783.8,4970489.45]]]},"properties":{"osm_id":277890502,"shop":"hardware","building":"yes","name":"TriBeCa Hardware","name:en":null,"addr:housenumber":"154","addr:housename":null,"addr:street":"Chambers Street","addr:city":"New York","addr:state":"NY","addr:postcode":"10007","addr:place":null,"addr:country":"US","addr:hamlet":null,"addr:suburb":null,"addr:subdistrict":null,"addr:district":null,"addr:province":null,"website":null,"contact:website":null,"phone":"+1 202-240-9792","contact:phone":null,"opening_hours":"Mo-Fr 07:00-19:00; Sa 09:00-18:00; Su 10:00-18:00","brand":null,"z_order":0}}
,{"type":"Feature","geometry":{"type":"Polygon","coordinates":[[[-8238396.85,4973390.23],[-8238395.34,4973398.64],[-8238374.45,4973394.65],[-8238366.77,4973393.18],[-8238368.36,4973384.78],[-8238379.93,4973386.99],[-8238396.85,4973390.23]]]},"properties":{"osm_id":250489824,"shop":"car_repair","building":"yes","name":"Greenwich Electra Auto Repair","name:en":null,"addr:housenumber":"743","addr:housename":null,"addr:street":"Greenwich Street","addr:city":null,"addr:state":null,"addr:postcode":"10014","addr:place":null,"addr:country":null,"addr:hamlet":null,"addr:suburb":null,"addr:subdistrict":null,"addr:district":null,"addr:province":null,"website":null,"contact:website":null,"phone":null,"contact:phone":"+1 212 6912020","opening_hours":null,"brand":null,"z_order":0}}
,{"type":"Feature","geometry":{"type":"Polygon","coordinates":[[[-8237815.88,4973890.97],[-8237807.57,4973906.19],[-8237802.98,4973914.6],[-8237791.94,4973934.8],[-8237756.98,4973915.7],[-8237771.49,4973889.17],[-8237772.57,4973887.18],[-8237778.65,4973876.03],[-8237780.93,4973871.86],[-8237815.88,4973890.97]]]},"properties":{"osm_id":250490717,"shop":"Medical Center","building":"apartments","name":"The Sequoia Building","name:en":null,"addr:housenumber":"222","addr:housename":null,"addr:street":"West 14th Street","addr:city":"New York","addr:state":"NY","addr:postcode":"10011","addr:place":null,"addr:country":null,"addr:hamlet":null,"addr:suburb":null,"addr:subdistrict":null,"addr:district":null,"addr:province":null,"website":null,"contact:website":null,"phone":null,"contact:phone":null,"opening_hours":null,"brand":null,"z_order":0}}
,{"type":"Feature","geometry":{"type":"Polygon","coordinates":[[[-8237122.81,4977687.23],[-8237115.85,4977699.83],[-8237110.25,4977709.97],[-8237103.37,4977722.43],[-8237097.57,4977732.93],[-8237084.13,4977725.45],[-8237089.95,4977714.94],[-8237068.98,4977703.27],[-8237088.41,4977668.1],[-8237109.63,4977679.91],[-8237122.81,4977687.23]]]},"properties":{"osm_id":265318779,"shop":"car","building":"yes","name":"Manhattan Jeep Chrysler Dodge Ram","name:en":null,"addr:housenumber":"678","addr:housename":null,"addr:street":"11th Avenue","addr:city":"New York","addr:state":null,"addr:postcode":"10019","addr:place":null,"addr:country":null,"addr:hamlet":null,"addr:suburb":null,"addr:subdistrict":null,"addr:district":null,"addr:province":null,"website":"http://www.manhattanjeepchryslerdodge.com/","contact:website":null,"phone":null,"contact:phone":null,"opening_hours":null,"brand":"Jeep;Dodge;Ram;Chrysler","z_order":0}}
,{"type":"Feature","geometry":{"type":"Polygon","coordinates":[[[-8237017.83,4972312.56],[-8237006.56,4972329.8],[-8236963.45,4972302.45],[-8236973.79,4972284.87],[-8237017.83,4972312.56]]]},"properties":{"osm_id":75136865,"shop":"market","building":null,"name":"NoHo Shop","name:en":null,"addr:housenumber":null,"addr:housename":null,"addr:street":null,"addr:city":null,"addr:state":null,"addr:postcode":null,"addr:place":null,"addr:country":null,"addr:hamlet":null,"addr:suburb":null,"addr:subdistrict":null,"addr:district":null,"addr:province":null,"website":null,"contact:website":null,"phone":null,"contact:phone":null,"opening_hours":null,"brand":null,"z_order":0}}
,{"type":"Feature","geometry":{"type":"Polygon","coordinates":[[[-8236770.14,4973934.39],[-8236766.54,4973940.87],[-8236715.52,4973912.32],[-8236720.41,4973903.52],[-8236759.09,4973925.16],[-8236757.8,4973927.5],[-8236770.14,4973934.39]]]},"properties":{"osm_id":264645684,"shop":"clothes","building":"yes","name":"White/Black","name:en":null,"addr:housenumber":"136","addr:housename":null,"addr:street":"5th Avenue","addr:city":null,"addr:state":null,"addr:postcode":"10011","addr:place":null,"addr:country":null,"addr:hamlet":null,"addr:suburb":null,"addr:subdistrict":null,"addr:district":null,"addr:province":null,"website":null,"contact:website":null,"phone":null,"contact:phone":null,"opening_hours":null,"brand":null,"z_order":0}}
,{"type":"Feature","geometry":{"type":"Polygon","coordinates":[[[-8236584.77,4975560.94],[-8236565.72,4975595.49],[-8236561.8,4975593.31],[-8236548.51,4975585.93],[-8236529.36,4975620.66],[-8236502.97,4975606.01],[-8236520.1,4975574.91],[-8236526.03,4975564.14],[-8236541.15,4975536.71],[-8236584.77,4975560.94]]]},"properties":{"osm_id":265302051,"shop":"clothes","building":"yes","name":"Old Navy","name:en":null,"addr:housenumber":null,"addr:housename":null,"addr:street":null,"addr:city":null,"addr:state":null,"addr:postcode":null,"addr:place":null,"addr:country":null,"addr:hamlet":null,"addr:suburb":null,"addr:subdistrict":null,"addr:district":null,"addr:province":null,"website":"http://www.oldnavy.com/","contact:website":null,"phone":null,"contact:phone":null,"opening_hours":null,"brand":null,"z_order":0}}
,{"type":"Feature","geometry":{"type":"Polygon","coordinates":[[[-8236571.23,4975694.54],[-8236538.55,4975753.31],[-8236518.15,4975741.76],[-8236513.98,4975749.31],[-8236338.66,4975651.09],[-8236311.51,4975637.26],[-8236311.94,4975634.13],[-8236301.8,4975633.5],[-8236312.16,4975562],[-8236332.18,4975565.79],[-8236335.71,4975558.81],[-8236487.05,4975643.61],[-8236570.73,4975690.5],[-8236571.23,4975694.54]]]},"properties":{"osm_id":265302069,"shop":"department_store","building":"yes","name":"Macy's","name:en":null,"addr:housenumber":"151","addr:housename":null,"addr:street":"West 34th Street","addr:city":"New York","addr:state":"NY","addr:postcode":"10001","addr:place":null,"addr:country":"US","addr:hamlet":null,"addr:suburb":null,"addr:subdistrict":null,"addr:district":null,"addr:province":null,"website":"http://www.macys.com","contact:website":null,"phone":"+1-212-695-4400","contact:phone":null,"opening_hours":"Mo-Sa 10:00-22:00; Su 11:00-21:00","brand":null,"z_order":0}}
,{"type":"Feature","geometry":{"type":"Polygon","coordinates":[[[-8236561.8,4975593.31],[-8236542.67,4975628.05],[-8236529.36,4975620.66],[-8236548.51,4975585.93],[-8236561.8,4975593.31]]]},"properties":{"osm_id":265301819,"shop":"clothes","building":"yes","name":"crocs","name:en":null,"addr:housenumber":"154","addr:housename":null,"addr:street":"West 34th Street","addr:city":null,"addr:state":null,"addr:postcode":"10001","addr:place":null,"addr:country":null,"addr:hamlet":null,"addr:suburb":null,"addr:subdistrict":null,"addr:district":null,"addr:province":null,"website":null,"contact:website":null,"phone":null,"contact:phone":null,"opening_hours":null,"brand":null,"z_order":0}}
,{"type":"Feature","geometry":{"type":"Polygon","coordinates":[[[-8236552.51,4972216.25],[-8236541.87,4972235.94],[-8236537.46,4972233.53],[-8236548.16,4972213.89],[-8236552.51,4972216.25]]]},"properties":{"osm_id":241833301,"shop":"music","building":"yes","name":"Good Records NYC","name:en":null,"addr:housenumber":"218","addr:housename":null,"addr:street":"East 5th street","addr:city":null,"addr:state":null,"addr:postcode":null,"addr:place":null,"addr:country":null,"addr:hamlet":null,"addr:suburb":null,"addr:subdistrict":null,"addr:district":null,"addr:province":null,"website":null,"contact:website":null,"phone":null,"contact:phone":null,"opening_hours":null,"brand":null,"z_order":0}}
,{"type":"Feature","geometry":{"type":"Polygon","coordinates":[[[-8236538.65,4975415.61],[-8236499.91,4975485.91],[-8236359.17,4975407.75],[-8236397.92,4975337.45],[-8236471.97,4975378.13],[-8236478.27,4975381.58],[-8236538.65,4975415.61]]]},"properties":{"osm_id":264685191,"shop":"mall","building":"yes","name":"Manhattan Mall","name:en":null,"addr:housenumber":"100","addr:housename":null,"addr:street":"West 33rd Street","addr:city":"New York","addr:state":"NY","addr:postcode":"10001","addr:place":null,"addr:country":null,"addr:hamlet":null,"addr:suburb":null,"addr:subdistrict":null,"addr:district":null,"addr:province":null,"website":"http://www.manhattanmallny.com/","contact:website":null,"phone":null,"contact:phone":null,"opening_hours":null,"brand":null,"z_order":0}}
,{"type":"Feature","geometry":{"type":"Polygon","coordinates":[[[-8236497.36,4973264.91],[-8236487.28,4973283.44],[-8236470.47,4973274.31],[-8236480.55,4973255.77],[-8236497.36,4973264.91]]]},"properties":{"osm_id":160960921,"shop":"electronics","building":null,"name":"Best Buy Mobile","name:en":null,"addr:housenumber":null,"addr:housename":null,"addr:street":null,"addr:city":null,"addr:state":null,"addr:postcode":null,"addr:place":null,"addr:country":null,"addr:hamlet":null,"addr:suburb":null,"addr:subdistrict":null,"addr:district":null,"addr:province":null,"website":null,"contact:website":null,"phone":null,"contact:phone":null,"opening_hours":null,"brand":null,"z_order":0}}
,{"type":"Feature","geometry":{"type":"Polygon","coordinates":[[[-8236335.71,4975558.81],[-8236332.18,4975565.79],[-8236312.16,4975562],[-8236314.53,4975546.92],[-8236335.71,4975558.81]]]},"properties":{"osm_id":265302077,"shop":"clothes","building":"yes","name":"Sunglass Hut","name:en":null,"addr:housenumber":null,"addr:housename":null,"addr:street":null,"addr:city":null,"addr:state":null,"addr:postcode":null,"addr:place":null,"addr:country":null,"addr:hamlet":null,"addr:suburb":null,"addr:subdistrict":null,"addr:district":null,"addr:province":null,"website":null,"contact:website":null,"phone":null,"contact:phone":null,"opening_hours":null,"brand":null,"z_order":0}}
,{"type":"Feature","geometry":{"type":"Polygon","coordinates":[[[-8236114.34,4978347.68],[-8236104.53,4978365.51],[-8236095.37,4978381.62],[-8236090.99,4978389.27],[-8236086.03,4978398.02],[-8236081.62,4978405.55],[-8236078.22,4978411.93],[-8236016.78,4978377.8],[-8236017.72,4978376.09],[-8236020.49,4978371.08],[-8236028.88,4978355.85],[-8236018.88,4978350.29],[-8236015.72,4978348.53],[-8235999.63,4978339.58],[-8235994.9,4978336.95],[-8235989.86,4978334.17],[-8235985.66,4978331.83],[-8236009.19,4978289.15],[-8236051.36,4978312.56],[-8236114.34,4978347.68]]]},"properties":{"osm_id":265355139,"shop":"beauty","building":"commercial","name":"Bijou Nails","name:en":null,"addr:housenumber":"417","addr:housename":null,"addr:street":"West 58th Street","addr:city":"New York City","addr:state":null,"addr:postcode":"10019","addr:place":null,"addr:country":null,"addr:hamlet":null,"addr:suburb":null,"addr:subdistrict":null,"addr:district":null,"addr:province":null,"website":null,"contact:website":null,"phone":null,"contact:phone":null,"opening_hours":null,"brand":null,"z_order":0}}
,{"type":"Feature","geometry":{"type":"Polygon","coordinates":[[[-8235975.98,4976873.06],[-8235969.78,4976896.58],[-8235952.83,4976886.99],[-8235963.96,4976866.33],[-8235975.98,4976873.06]]]},"properties":{"osm_id":258619240,"shop":"ticket","building":"yes","name":"TKTS","name:en":null,"addr:housenumber":"201","addr:housename":null,"addr:street":"West 47th Street","addr:city":"New York","addr:state":null,"addr:postcode":null,"addr:place":null,"addr:country":null,"addr:hamlet":null,"addr:suburb":null,"addr:subdistrict":null,"addr:district":null,"addr:province":null,"website":"http://www.tdf.org/tkts","contact:website":null,"phone":null,"contact:phone":null,"opening_hours":null,"brand":null,"z_order":0}}
,{"type":"Feature","geometry":{"type":"Polygon","coordinates":[[[-8235849.94,4971191.19],[-8235842.74,4971209.71],[-8235805.42,4971195.22],[-8235812.61,4971176.7],[-8235834.47,4971185.19],[-8235841.81,4971188.04],[-8235849.94,4971191.19]]]},"properties":{"osm_id":278284288,"shop":"car_repair","building":"yes","name":"LUDLOW GARAGE","name:en":null,"addr:housenumber":"151","addr:housename":null,"addr:street":"Attorney Street","addr:city":"New York City","addr:state":"NY","addr:postcode":"10002","addr:place":null,"addr:country":null,"addr:hamlet":null,"addr:suburb":null,"addr:subdistrict":null,"addr:district":null,"addr:province":null,"website":"http://www.ludlowgarageautorepair.com/","contact:website":null,"phone":"1 (212) 505-0869","contact:phone":null,"opening_hours":"Mo-Fr 8:00-18:00; Sa 8:00-16:00","brand":null,"z_order":0}}
,{"type":"Feature","geometry":{"type":"Polygon","coordinates":[[[-8236558.65,4973230.48],[-8236556.41,4973247.49],[-8236546.84,4973242.08],[-8236547.23,4973224.16],[-8236558.65,4973230.48]]]},"properties":{"osm_id":377371386,"shop":"department_store","building":null,"name":"Nordstrom","name:en":null,"addr:housenumber":"60","addr:housename":null,"addr:street":"East 14th Street","addr:city":"New York","addr:state":"NY","addr:postcode":"10003","addr:place":null,"addr:country":null,"addr:hamlet":null,"addr:suburb":null,"addr:subdistrict":null,"addr:district":null,"addr:province":null,"website":null,"contact:website":null,"phone":null,"contact:phone":null,"opening_hours":null,"brand":null,"z_order":0}}
,{"type":"Feature","geometry":{"type":"Polygon","coordinates":[[[-8242810.49,4966670.6],[-8242787.11,4966685.79],[-8242782.9,4966679.33],[-8242777.68,4966682.73],[-8242772.05,4966686.4],[-8242756.99,4966663.23],[-8242780.17,4966648.15],[-8242784.06,4966654.13],[-8242785.95,4966652.89],[-8242795.11,4966646.95],[-8242810.49,4966670.6]]]},"properties":{"osm_id":279394296,"shop":"gift","building":"yes","name":"Gift Shop","name:en":null,"addr:housenumber":null,"addr:housename":null,"addr:street":null,"addr:city":null,"addr:state":null,"addr:postcode":null,"addr:place":null,"addr:country":null,"addr:hamlet":null,"addr:suburb":null,"addr:subdistrict":null,"addr:district":null,"addr:province":null,"website":null,"contact:website":null,"phone":null,"contact:phone":null,"opening_hours":null,"brand":null,"z_order":0}}
,{"type":"Feature","geometry":{"type":"Polygon","coordinates":[[[-8238831.14,4968930.97],[-8238814.45,4968932.96],[-8238808.56,4968917.91],[-8238818.51,4968911.01],[-8238822.25,4968908.42],[-8238830.93,4968929.17],[-8238831.14,4968930.97]]]},"properties":{"osm_id":278053472,"shop":"hairdresser","building":"yes","name":"Barber Shop","name:en":null,"addr:housenumber":"48","addr:housename":null,"addr:street":"Beaver Street","addr:city":null,"addr:state":null,"addr:postcode":"10004","addr:place":null,"addr:country":null,"addr:hamlet":null,"addr:suburb":null,"addr:subdistrict":null,"addr:district":null,"addr:province":null,"website":null,"contact:website":null,"phone":null,"contact:phone":null,"opening_hours":null,"brand":null,"z_order":0}}
,{"type":"Feature","geometry":{"type":"Polygon","coordinates":[[[-8236668.88,4968682.04],[-8236667.91,4968702.55],[-8236658,4968702.08],[-8236657.61,4968702.05],[-8236658.58,4968681.54],[-8236668.88,4968682.04]]]},"properties":{"osm_id":250402640,"shop":"bakery","building":"yes","name":"Almondine","name:en":null,"addr:housenumber":"85","addr:housename":null,"addr:street":"Water Street","addr:city":null,"addr:state":null,"addr:postcode":"11201","addr:place":null,"addr:country":null,"addr:hamlet":null,"addr:suburb":null,"addr:subdistrict":null,"addr:district":null,"addr:province":null,"website":null,"contact:website":null,"phone":null,"contact:phone":null,"opening_hours":"Mon- Sat 7am-7pm, Sun 9am- 6pm","brand":null,"z_order":0}}
,{"type":"Feature","geometry":{"type":"Polygon","coordinates":[[[-8237355.54,4977265.48],[-8237338.05,4977298.81],[-8237314.61,4977284.98],[-8237323.1,4977269.3],[-8237333.9,4977275.19],[-8237342.9,4977258.57],[-8237353.55,4977264.38],[-8237355.54,4977265.48]]]},"properties":{"osm_id":351540622,"shop":"garden_centre","building":null,"name":"Chelsea Garden Center","name:en":null,"addr:housenumber":null,"addr:housename":null,"addr:street":null,"addr:city":null,"addr:state":null,"addr:postcode":null,"addr:place":null,"addr:country":null,"addr:hamlet":null,"addr:suburb":null,"addr:subdistrict":null,"addr:district":null,"addr:province":null,"website":null,"contact:website":null,"phone":null,"contact:phone":null,"opening_hours":null,"brand":null,"z_order":0}}
,{"type":"Feature","geometry":{"type":"Polygon","coordinates":[[[-8232599.29,4984122],[-8232595.49,4984128.96],[-8232581.66,4984121.38],[-8232585.47,4984114.41],[-8232599.29,4984122]]]},"properties":{"osm_id":271803409,"shop":"convenience","building":"yes","name":"Mo Deli","name:en":null,"addr:housenumber":null,"addr:housename":null,"addr:street":null,"addr:city":null,"addr:state":null,"addr:postcode":null,"addr:place":null,"addr:country":null,"addr:hamlet":null,"addr:suburb":null,"addr:subdistrict":null,"addr:district":null,"addr:province":null,"website":null,"contact:website":null,"phone":null,"contact:phone":null,"opening_hours":null,"brand":null,"z_order":0}}
,{"type":"Feature","geometry":{"type":"Polygon","coordinates":[[[-8230117.67,4982136.23],[-8230114.93,4982141.2],[-8230098.61,4982170.74],[-8230079.03,4982206.19],[-8230065.48,4982198.46],[-8230049.52,4982189.34],[-8230042.75,4982201.41],[-8230030.16,4982194.58],[-8230034.43,4982186.67],[-8229991.26,4982162.7],[-8229986.79,4982170.02],[-8229917.59,4982131.35],[-8229947.91,4982101.38],[-8229948.5,4982102],[-8229989.57,4982072.1],[-8229998.87,4982071],[-8230008.67,4982076.38],[-8230012.27,4982084.69],[-8230010.6,4982092.81],[-8230017.25,4982081.1],[-8230117.67,4982136.23]],[[-8230002.61,4982085.85],[-8230000.91,4982082.38],[-8229997.45,4982080.44],[-8229993.41,4982080.84],[-8229990.54,4982083.53],[-8229989.63,4982087.43],[-8229991.36,4982091.25],[-8229994.9,4982093.16],[-8229999.02,4982092.68],[-8230001.95,4982089.78],[-8230002.61,4982085.85]],[[-8230072.67,4982156.42],[-8230070.97,4982152.95],[-8230067.51,4982151.01],[-8230063.47,4982151.4],[-8230060.61,4982154.1],[-8230059.7,4982157.99],[-8230061.42,4982161.82],[-8230064.95,4982163.73],[-8230069.08,4982163.24],[-8230072.01,4982160.34],[-8230072.67,4982156.42]]]},"properties":{"osm_id":-3625659,"shop":"mall","building":"retail","name":null,"name:en":null,"addr:housenumber":"517","addr:housename":null,"addr:street":"East 116th Street","addr:city":null,"addr:state":null,"addr:postcode":"10035","addr:place":null,"addr:country":null,"addr:hamlet":null,"addr:suburb":null,"addr:subdistrict":null,"addr:district":null,"addr:province":null,"website":null,"contact:website":null,"phone":null,"contact:phone":null,"opening_hours":null,"brand":null,"z_order":0}}
,{"type":"Feature","geometry":{"type":"Polygon","coordinates":[[[-8238031.72,4972214.37],[-8238030.65,4972220.76],[-8238022.18,4972231.66],[-8238028.01,4972213.49],[-8238031.72,4972214.37]]]},"properties":{"osm_id":264852430,"shop":"wine","building":"yes","name":"Wine Hut","name:en":null,"addr:housenumber":"213B","addr:housename":null,"addr:street":"6th Avenue","addr:city":null,"addr:state":null,"addr:postcode":null,"addr:place":null,"addr:country":null,"addr:hamlet":null,"addr:suburb":null,"addr:subdistrict":null,"addr:district":null,"addr:province":null,"website":null,"contact:website":null,"phone":null,"contact:phone":null,"opening_hours":null,"brand":null,"z_order":0}}
,{"type":"Feature","geometry":{"type":"Polygon","coordinates":[[[-8237663.46,4977710.23],[-8237657.67,4977721.21],[-8237646.31,4977715.22],[-8237652.1,4977704.24],[-8237663.46,4977710.23]]]},"properties":{"osm_id":320772207,"shop":"gift","building":"yes","name":null,"name:en":null,"addr:housenumber":null,"addr:housename":null,"addr:street":null,"addr:city":null,"addr:state":null,"addr:postcode":null,"addr:place":null,"addr:country":null,"addr:hamlet":null,"addr:suburb":null,"addr:subdistrict":null,"addr:district":null,"addr:province":null,"website":null,"contact:website":null,"phone":null,"contact:phone":null,"opening_hours":null,"brand":null,"z_order":20}}
,{"type":"Feature","geometry":{"type":"Polygon","coordinates":[[[-8236052.51,4972244.99],[-8236048.87,4972251.64],[-8236047.63,4972253.92],[-8236029.66,4972244.03],[-8236034.54,4972235.1],[-8236035.03,4972235.36],[-8236050.72,4972244],[-8236052.51,4972244.99]]]},"properties":{"osm_id":241822308,"shop":"shoes","building":"yes","name":"Foot Gear Plus","name:en":null,"addr:housenumber":"131","addr:housename":null,"addr:street":"1st Avenue","addr:city":"New York","addr:state":null,"addr:postcode":"10003","addr:place":null,"addr:country":null,"addr:hamlet":null,"addr:suburb":null,"addr:subdistrict":null,"addr:district":null,"addr:province":null,"website":null,"contact:website":null,"phone":"+1 212 777-2629","contact:phone":null,"opening_hours":null,"brand":null,"z_order":0}}
,{"type":"Feature","geometry":{"type":"Polygon","coordinates":[[[-8235736.72,4979219.77],[-8235736.08,4979220.95],[-8235726,4979239.2],[-8235721.91,4979246.63],[-8235689.26,4979228.46],[-8235690.63,4979194.13],[-8235736.72,4979219.77]]]},"properties":{"osm_id":241826154,"shop":"electronics","building":"yes","name":"Apple Store, Upper West Side","name:en":null,"addr:housenumber":"1981","addr:housename":null,"addr:street":"Broadway","addr:city":"New York","addr:state":"NY","addr:postcode":"10023","addr:place":null,"addr:country":"US","addr:hamlet":null,"addr:suburb":null,"addr:subdistrict":null,"addr:district":null,"addr:province":null,"website":"https://www.apple.com/retail/upperwestside/","contact:website":null,"phone":"1 (212) 209-3400","contact:phone":null,"opening_hours":"Mo-Sa 09:00-21:00; Su 10:00-20:00","brand":null,"z_order":0}}
,{"type":"Feature","geometry":{"type":"Polygon","coordinates":[[[-8235645.13,4979698.6],[-8235644.62,4979703.47],[-8235640.77,4979703.06],[-8235641.27,4979698.21],[-8235645.13,4979698.6]]]},"properties":{"osm_id":320581778,"shop":"kiosk","building":"yes","name":null,"name:en":null,"addr:housenumber":null,"addr:housename":null,"addr:street":null,"addr:city":null,"addr:state":null,"addr:postcode":null,"addr:place":null,"addr:country":null,"addr:hamlet":null,"addr:suburb":null,"addr:subdistrict":null,"addr:district":null,"addr:province":null,"website":null,"contact:website":null,"phone":null,"contact:phone":null,"opening_hours":null,"brand":null,"z_order":0}}
,{"type":"Feature","geometry":{"type":"Polygon","coordinates":[[[-8235611.1,4979781.74],[-8235609.85,4979790.04],[-8235609.51,4979790.69],[-8235608.59,4979790.95],[-8235607.59,4979790.53],[-8235607.23,4979789.59],[-8235608.48,4979781.38],[-8235609.1,4979780.88],[-8235609.96,4979780.71],[-8235610.77,4979781.12],[-8235611.1,4979781.74]]]},"properties":{"osm_id":320581779,"shop":"kiosk","building":"yes","name":null,"name:en":null,"addr:housenumber":null,"addr:housename":null,"addr:street":null,"addr:city":null,"addr:state":null,"addr:postcode":null,"addr:place":null,"addr:country":null,"addr:hamlet":null,"addr:suburb":null,"addr:subdistrict":null,"addr:district":null,"addr:province":null,"website":null,"contact:website":null,"phone":null,"contact:phone":null,"opening_hours":null,"brand":null,"z_order":0}}
,{"type":"Feature","geometry":{"type":"Polygon","coordinates":[[[-8235605.23,4980014.07],[-8235604.14,4980019.17],[-8235600.58,4980018.41],[-8235601.67,4980013.3],[-8235605.23,4980014.07]]]},"properties":{"osm_id":320581780,"shop":"kiosk","building":"yes","name":null,"name:en":null,"addr:housenumber":null,"addr:housename":null,"addr:street":null,"addr:city":null,"addr:state":null,"addr:postcode":null,"addr:place":null,"addr:country":null,"addr:hamlet":null,"addr:suburb":null,"addr:subdistrict":null,"addr:district":null,"addr:province":null,"website":null,"contact:website":null,"phone":null,"contact:phone":null,"opening_hours":null,"brand":null,"z_order":0}}
,{"type":"Feature","geometry":{"type":"Polygon","coordinates":[[[-8235544.92,4979646.17],[-8235527.65,4979678.32],[-8235519.95,4979674.16],[-8235521.03,4979672.13],[-8235531.77,4979652.12],[-8235534.96,4979653.84],[-8235540.39,4979643.71],[-8235544.92,4979646.17]]]},"properties":{"osm_id":269247230,"shop":"alcohol","building":"yes","name":"Acker Merrall & Condit","name:en":null,"addr:housenumber":"160","addr:housename":null,"addr:street":"West 72nd Street","addr:city":"New York","addr:state":"NY","addr:postcode":"10023","addr:place":null,"addr:country":"US","addr:hamlet":null,"addr:suburb":null,"addr:subdistrict":null,"addr:district":null,"addr:province":null,"website":"https://www.ackerwines.com/","contact:website":null,"phone":null,"contact:phone":null,"opening_hours":"Mo-Sa 10:00-21:00; Su 12:00-19:00","brand":null,"z_order":0}}
,{"type":"Feature","geometry":{"type":"Polygon","coordinates":[[[-8235430.1,4980542.1],[-8235427.01,4980547.4],[-8235424.51,4980545.94],[-8235427.6,4980540.65],[-8235430.1,4980542.1]]]},"properties":{"osm_id":320581781,"shop":"kiosk","building":"yes","name":null,"name:en":null,"addr:housenumber":null,"addr:housename":null,"addr:street":null,"addr:city":null,"addr:state":null,"addr:postcode":null,"addr:place":null,"addr:country":null,"addr:hamlet":null,"addr:suburb":null,"addr:subdistrict":null,"addr:district":null,"addr:province":null,"website":null,"contact:website":null,"phone":null,"contact:phone":null,"opening_hours":null,"brand":null,"z_order":0}}
,{"type":"Feature","geometry":{"type":"Polygon","coordinates":[[[-8235351.39,4979521.3],[-8235346.28,4979530.83],[-8235328.66,4979521.29],[-8235333.76,4979511.77],[-8235340.62,4979515.48],[-8235351.39,4979521.3]]]},"properties":{"osm_id":269247285,"shop":"clothes","building":"yes","name":"Vince","name:en":null,"addr:housenumber":"244","addr:housename":null,"addr:street":"Columbus Avenue","addr:city":"New York","addr:state":"NY","addr:postcode":"10023","addr:place":null,"addr:country":"US","addr:hamlet":null,"addr:suburb":null,"addr:subdistrict":null,"addr:district":null,"addr:province":null,"website":null,"contact:website":null,"phone":null,"contact:phone":null,"opening_hours":"Mo-Sa 10:00-19:00; Su 12:00-18:00","brand":null,"z_order":0}}
,{"type":"Feature","geometry":{"type":"Polygon","coordinates":[[[-8235350.11,4979400.46],[-8235345.22,4979409.36],[-8235336.4,4979404.48],[-8235336.14,4979403.14],[-8235332.11,4979400.9],[-8235331.61,4979401.82],[-8235326.96,4979399.24],[-8235327.58,4979398.1],[-8235314.92,4979391.08],[-8235318.44,4979384.68],[-8235331.11,4979391.69],[-8235331.84,4979390.34],[-8235336.5,4979392.92],[-8235335.93,4979393.97],[-8235339.95,4979396.2],[-8235341.29,4979395.58],[-8235350.11,4979400.46]]]},"properties":{"osm_id":269231570,"shop":"alcohol","building":"yes","name":"Central Wine & Liquor","name:en":null,"addr:housenumber":"227","addr:housename":null,"addr:street":"Columbus Avenue","addr:city":"New York","addr:state":"NY","addr:postcode":"10023","addr:place":null,"addr:country":"US","addr:hamlet":null,"addr:suburb":null,"addr:subdistrict":null,"addr:district":null,"addr:province":null,"website":null,"contact:website":null,"phone":null,"contact:phone":null,"opening_hours":null,"brand":null,"z_order":0}}
,{"type":"Feature","geometry":{"type":"Polygon","coordinates":[[[-8235257.52,4980394.64],[-8235254.87,4980399.28],[-8235251.21,4980397.2],[-8235253.87,4980392.56],[-8235257.52,4980394.64]]]},"properties":{"osm_id":320702683,"shop":"kiosk","building":"yes","name":null,"name:en":null,"addr:housenumber":null,"addr:housename":null,"addr:street":null,"addr:city":null,"addr:state":null,"addr:postcode":null,"addr:place":null,"addr:country":null,"addr:hamlet":null,"addr:suburb":null,"addr:subdistrict":null,"addr:district":null,"addr:province":null,"website":null,"contact:website":null,"phone":null,"contact:phone":null,"opening_hours":null,"brand":null,"z_order":0}}
,{"type":"Feature","geometry":{"type":"Polygon","coordinates":[[[-8233659.05,4984053.79],[-8233656.8,4984057.99],[-8233653.05,4984055.98],[-8233655.29,4984051.77],[-8233659.05,4984053.79]]]},"properties":{"osm_id":320581782,"shop":"kiosk","building":"yes","name":null,"name:en":null,"addr:housenumber":null,"addr:housename":null,"addr:street":null,"addr:city":null,"addr:state":null,"addr:postcode":null,"addr:place":null,"addr:country":null,"addr:hamlet":null,"addr:suburb":null,"addr:subdistrict":null,"addr:district":null,"addr:province":null,"website":null,"contact:website":null,"phone":null,"contact:phone":null,"opening_hours":null,"brand":null,"z_order":0}}
,{"type":"Feature","geometry":{"type":"Polygon","coordinates":[[[-8238696.65,4971900.57],[-8238695.54,4971908.75],[-8238681.38,4971906.81],[-8238682.49,4971898.63],[-8238696.65,4971900.57]]]},"properties":{"osm_id":249664593,"shop":"books","building":"retail","name":"Joanne Hendricks Cookbooks","name:en":null,"addr:housenumber":"488","addr:housename":null,"addr:street":"Greenwich Street","addr:city":null,"addr:state":null,"addr:postcode":"10013","addr:place":null,"addr:country":null,"addr:hamlet":null,"addr:suburb":null,"addr:subdistrict":null,"addr:district":null,"addr:province":null,"website":"Www.joannehendrickscookbooks.com","contact:website":null,"phone":"212 226 5731","contact:phone":null,"opening_hours":"11:30-7:00","brand":null,"z_order":0}}
,{"type":"Feature","geometry":{"type":"Polygon","coordinates":[[[-8237503.46,4971761.42],[-8237481.38,4971795.15],[-8237472.86,4971789.54],[-8237492.8,4971759.09],[-8237494.95,4971755.8],[-8237495.5,4971756.16],[-8237503.46,4971761.42]]]},"properties":{"osm_id":247866610,"shop":"coffee","building":"yes","name":"Nespresso","name:en":null,"addr:housenumber":"92","addr:housename":null,"addr:street":"Prince Street","addr:city":null,"addr:state":null,"addr:postcode":"10012","addr:place":null,"addr:country":null,"addr:hamlet":null,"addr:suburb":null,"addr:subdistrict":null,"addr:district":null,"addr:province":null,"website":null,"contact:website":null,"phone":null,"contact:phone":null,"opening_hours":null,"brand":null,"z_order":0}}
,{"type":"Feature","geometry":{"type":"Polygon","coordinates":[[[-8236632.95,4973102.09],[-8236630.54,4973115.59],[-8236629.71,4973120.28],[-8236627.91,4973119.96],[-8236594.61,4973113.98],[-8236598.07,4973094.26],[-8236631.94,4973101.87],[-8236632.95,4973102.09]]]},"properties":{"osm_id":247861571,"shop":"books","building":"yes","name":"The Forbidden Planet","name:en":null,"addr:housenumber":"832","addr:housename":null,"addr:street":"Broadway","addr:city":null,"addr:state":null,"addr:postcode":"10003","addr:place":null,"addr:country":null,"addr:hamlet":null,"addr:suburb":null,"addr:subdistrict":null,"addr:district":null,"addr:province":null,"website":null,"contact:website":null,"phone":null,"contact:phone":null,"opening_hours":null,"brand":null,"z_order":0}}
]}
