{"name":"office_point","type":"FeatureCollection"
,"crs":{"type":"name","properties":{"name":"EPSG:3857"}}
,"features":[
{"type":"Feature","geometry":{"type":"Point","coordinates":[-8238931.9,4969069.68]},"properties":{"osm_id":2609302207,"office":"company","name":"Bitcoin Center NYC","name:en":null,"building":null,"addr:housenumber":"40","addr:housename":null,"addr:street":"Broad Street","addr:city":"New York","addr:state":null,"addr:postcode":"10004","addr:place":null,"addr:country":null,"addr:hamlet":null,"addr:suburb":null,"addr:subdistrict":null,"addr:district":null,"addr:province":null,"website":"http://bitcoincenternyc.com","contact:website":null,"phone":null,"contact:phone":null,"opening_hours":"10:00-22:00","brand":null,"z_order":null}}
,{"type":"Feature","geometry":{"type":"Point","coordinates":[-8238857.75,4969432.86]},"properties":{"osm_id":4680481185,"office":"government","name":"Department of City Planning","name:en":null,"building":null,"addr:housenumber":"120","addr:housename":null,"addr:street":"Broadway","addr:city":"New York","addr:state":"NY","addr:postcode":null,"addr:place":null,"addr:country":null,"addr:hamlet":null,"addr:suburb":null,"addr:subdistrict":null,"addr:district":null,"addr:province":null,"website":null,"contact:website":null,"phone":null,"contact:phone":null,"opening_hours":null,"brand":null,"z_order":null}}
,{"type":"Feature","geometry":{"type":"Point","coordinates":[-8238853.93,4969279.57]},"properties":{"osm_id":2888329151,"office":"lawyer","name":"Robert J. Feldman attorney-at-law","name:en":null,"building":null,"addr:housenumber":"14","addr:housename":null,"addr:street":"Wall Street","addr:city":"New York","addr:state":null,"addr:postcode":"10005","addr:place":null,"addr:country":null,"addr:hamlet":null,"addr:suburb":null,"addr:subdistrict":null,"addr:district":null,"addr:province":null,"website":"http://fireislandlaw.com/","contact:website":null,"phone":"917-657-5177","contact:phone":null,"opening_hours":null,"brand":null,"z_order":null}}
,{"type":"Feature","geometry":{"type":"Point","coordinates":[-8238795.86,4969473.15]},"properties":{"osm_id":2275856089,"office":"company","name":"Brown Brothers Harriman & Trust","name:en":null,"building":null,"addr:housenumber":"140","addr:housename":null,"addr:street":"Broadway","addr:city":null,"addr:state":null,"addr:postcode":null,"addr:place":null,"addr:country":null,"addr:hamlet":null,"addr:suburb":null,"addr:subdistrict":null,"addr:district":null,"addr:province":null,"website":null,"contact:website":null,"phone":null,"contact:phone":null,"opening_hours":null,"brand":null,"z_order":null}}
,{"type":"Feature","geometry":{"type":"Point","coordinates":[-8238731.72,4968686.21]},"properties":{"osm_id":1344417127,"office":"accountant","name":"Standard & Poor's","name:en":null,"building":null,"addr:housenumber":null,"addr:housename":null,"addr:street":null,"addr:city":null,"addr:state":null,"addr:postcode":null,"addr:place":null,"addr:country":null,"addr:hamlet":null,"addr:suburb":null,"addr:subdistrict":null,"addr:district":null,"addr:province":null,"website":null,"contact:website":null,"phone":null,"contact:phone":null,"opening_hours":null,"brand":null,"z_order":null}}
,{"type":"Feature","geometry":{"type":"Point","coordinates":[-8238725.92,4969199.58]},"properties":{"osm_id":2790377994,"office":"company","name":"Send A Package Inc.","name:en":null,"building":null,"addr:housenumber":"40","addr:housename":null,"addr:street":"Wall Street","addr:city":null,"addr:state":"NY","addr:postcode":"10005","addr:place":null,"addr:country":null,"addr:hamlet":null,"addr:suburb":null,"addr:subdistrict":null,"addr:district":null,"addr:province":null,"website":"sendapackage.com","contact:website":null,"phone":null,"contact:phone":null,"opening_hours":null,"brand":null,"z_order":null}}
,{"type":"Feature","geometry":{"type":"Point","coordinates":[-8238421.39,4969550.98]},"properties":{"osm_id":3941994114,"office":"government","name":"Social Security Administration","name:en":null,"building":null,"addr:housenumber":"123","addr:housename":null,"addr:street":"William Street","addr:city":null,"addr:state":null,"addr:postcode":null,"addr:place":null,"addr:country":null,"addr:hamlet":null,"addr:suburb":null,"addr:subdistrict":null,"addr:district":null,"addr:province":null,"website":null,"contact:website":null,"phone":null,"contact:phone":null,"opening_hours":null,"brand":null,"z_order":null}}
,{"type":"Feature","geometry":{"type":"Point","coordinates":[-8238418.38,4969470.43]},"properties":{"osm_id":2962522498,"office":"company","name":"Stack Exchange NYC","name:en":null,"building":null,"addr:housenumber":"110","addr:housename":null,"addr:street":"William Street","addr:city":"New York","addr:state":null,"addr:postcode":"10038","addr:place":null,"addr:country":null,"addr:hamlet":null,"addr:suburb":null,"addr:subdistrict":null,"addr:district":null,"addr:province":null,"website":null,"contact:website":null,"phone":null,"contact:phone":null,"opening_hours":null,"brand":null,"z_order":null}}
,{"type":"Feature","geometry":{"type":"Point","coordinates":[-8238345.89,4969365.55]},"properties":{"osm_id":4230862989,"office":"company","name":"90 John Street","name:en":null,"building":null,"addr:housenumber":null,"addr:housename":null,"addr:street":"90 John Street","addr:city":"New York","addr:state":null,"addr:postcode":"10038","addr:place":null,"addr:country":null,"addr:hamlet":null,"addr:suburb":null,"addr:subdistrict":null,"addr:district":null,"addr:province":null,"website":null,"contact:website":null,"phone":null,"contact:phone":null,"opening_hours":null,"brand":null,"z_order":null}}
,{"type":"Feature","geometry":{"type":"Point","coordinates":[-8236975.42,4968469.65]},"properties":{"osm_id":567511526,"office":"religion","name":"Watchtower Bible and Tract Society","name:en":null,"building":null,"addr:housenumber":"25","addr:housename":null,"addr:street":"Columbia Heights","addr:city":null,"addr:state":null,"addr:postcode":"11201-2483","addr:place":null,"addr:country":null,"addr:hamlet":null,"addr:suburb":null,"addr:subdistrict":null,"addr:district":null,"addr:province":null,"website":null,"contact:website":null,"phone":null,"contact:phone":null,"opening_hours":null,"brand":null,"z_order":null}}
,{"type":"Feature","geometry":{"type":"Point","coordinates":[-8236158.95,4968817.73]},"properties":{"osm_id":2903008059,"office":"company","name":"Brooklyn United","name:en":null,"building":null,"addr:housenumber":"20","addr:housename":null,"addr:street":"Jay Street","addr:city":"Brooklyn","addr:state":null,"addr:postcode":"11201","addr:place":null,"addr:country":null,"addr:hamlet":null,"addr:suburb":null,"addr:subdistrict":null,"addr:district":null,"addr:province":null,"website":null,"contact:website":null,"phone":null,"contact:phone":null,"opening_hours":"10am - 6pm","brand":null,"z_order":null}}
]}
